name,type,district,city,address,phone,website,mapsUrl
An Phước,unclassified,,,Trần Phú,,,"https://www.google.com/maps/search/?api=1&query=10.9321621,108.0978252"
area 09,unclassified,,,,,,"https://www.google.com/maps/search/?api=1&query=21.0023669,105.9435612"
Benh Vien Da Khoa Binh Dan,public,,,376 Đường Trần Cao Vân,,,"https://www.google.com/maps/search/?api=1&query=16.0713797,108.2001187"
Benh Vien Ngoai Khoa Nguyen Van Thai,private,,,,,,"https://www.google.com/maps/search/?api=1&query=16.0541328,108.233067"
Benh Vien Phu Nu Tp.Da Nang,public,,,,,,"https://www.google.com/maps/search/?api=1&query=16.0569875,108.2182556"
Benh Vien Tu Binh Dan,private,,,,,,"https://www.google.com/maps/search/?api=1&query=16.0686754,108.2189349"
Benh Vien Y Hoc Co Truyen Tp Da Nang,public,,,,+842363679555,https://bvtamtridanang.com.vn/,"https://www.google.com/maps/search/?api=1&query=16.0249226,108.2142699"
Benh Vien Y Hoc Co Truyen Tp.Da Nang,public,,,,,,"https://www.google.com/maps/search/?api=1&query=16.054196,108.2190335"
Bệnh viện 09,public,,,,,,"https://www.google.com/maps/search/?api=1&query=20.9605402,105.8019723"
Bệnh viện 199 - Bộ Công an,public,,,,,,"https://www.google.com/maps/search/?api=1&query=16.0657225,108.2359315"
Bệnh viện 1A,public,,,542 Đường Lý Thường Kiệt,,,"https://www.google.com/maps/search/?api=1&query=10.7889136,106.6537197"
Bệnh viện 30 tháng 4 tỉnh Sóc Trăng,public,,,,,,"https://www.google.com/maps/search/?api=1&query=9.5810349,105.9865142"
Bệnh viện 331,public,,,,,,"https://www.google.com/maps/search/?api=1&query=14.0303159,107.9907436"
Bệnh viện 71 Trung ương,public,,,,,,"https://www.google.com/maps/search/?api=1&query=19.7588347,105.8422546"
Bệnh viện 74 Trung ương,public,,,,,,"https://www.google.com/maps/search/?api=1&query=21.2213449,105.7095199"
Bệnh viện A Thái Nguyên,public,,,,,,"https://www.google.com/maps/search/?api=1&query=21.5713314,105.8107295"
Bệnh viện Bãi Cháy,public,,,,+84 203 3846 566,http://www.benhvienbaichay.vn,"https://www.google.com/maps/search/?api=1&query=20.9760072,107.0145611"
Bệnh viện Bến Sắn,public,,,,,,"https://www.google.com/maps/search/?api=1&query=11.0454588,106.7449853"
Bệnh viện Bệnh nhiệt đới Hải Dương,public,,,241 Nguyễn Lương Bằng,,,"https://www.google.com/maps/search/?api=1&query=20.9361175,106.3040979"
Bệnh viện Bệnh Nhiệt đới Trung ương,public,,,,,,"https://www.google.com/maps/search/?api=1&query=21.0021332,105.8388831"
Bệnh viện Bình An,private,,,,,,"https://www.google.com/maps/search/?api=1&query=10.0046076,105.0865475"
Bệnh Viện Bình Dân,public,,,,,,"https://www.google.com/maps/search/?api=1&query=10.3751746,105.4416699"
Bệnh viện Bưu Điện,public,,,,,,"https://www.google.com/maps/search/?api=1&query=21.0112634,105.8521234"
bệnh viện cát lâm 2,private,,,,,,"https://www.google.com/maps/search/?api=1&query=11.5675731,107.3114917"
Bệnh viện Châm Cứu Trung Ương,public,,,49 Phố Thái Thịnh,,,"https://www.google.com/maps/search/?api=1&query=21.0082178,105.8193783"
Bệnh viện Chấn thương - Chỉnh hình Nghệ An,public,,,,,,"https://www.google.com/maps/search/?api=1&query=18.6850646,105.7010429"
Bệnh viện Chấn thương chỉnh hình - Phẫu thuật tạo hình Huế,public,,,102 Phạm Văn Đồng,,,"https://www.google.com/maps/search/?api=1&query=16.4818944,107.6023658"
Bệnh viện Chỉnh hình và Phục hồi chức năng Cần Thơ,public,,,21 Cách Mạng Tháng Tám,,,"https://www.google.com/maps/search/?api=1&query=10.0592399,105.7652127"
Bệnh viện Chỉnh hình và Phục hồi chức năng Hà Nội,public,,,,,,"https://www.google.com/maps/search/?api=1&query=21.1102767,105.4439101"
Bệnh viện Chỉnh hình và Phục hồi chức năng Quy Nhơn,public,,,,,,"https://www.google.com/maps/search/?api=1&query=13.7580656,109.2093373"
Bệnh viện chuyên khoa 27 tháng 2 tỉnh Sóc Trăng,public,,,,,,"https://www.google.com/maps/search/?api=1&query=9.5793786,105.9764667"
Bệnh viện Chuyên khoa Sản - Nhi Sóc Trăng,public,,,,,,"https://www.google.com/maps/search/?api=1&query=9.6113599,105.9794954"
Bệnh viện Chuyên khoa Tâm thần Cà Mau,public,,,,,,"https://www.google.com/maps/search/?api=1&query=9.296478,105.7584646"
Bệnh viện Công an thành phố Hà Nội,public,,,,,,"https://www.google.com/maps/search/?api=1&query=20.9628226,105.7688713"
Bệnh Viện Công An TPHP,public,,,,,,"https://www.google.com/maps/search/?api=1&query=20.8418801,106.70254"
Bệnh viện Dã chiến Bình Chánh,public,,,,,,"https://www.google.com/maps/search/?api=1&query=10.7200864,106.6598189"
Bệnh viện Da liễu,public,,,,,,"https://www.google.com/maps/search/?api=1&query=10.7767949,106.6868606"
Bệnh viện Da liễu Bình Thuận,public,,,,,,"https://www.google.com/maps/search/?api=1&query=10.9328823,108.0952084"
Bệnh viện Da liễu Cần Thơ,public,,,,,,"https://www.google.com/maps/search/?api=1&query=10.0110612,105.7512797"
Bệnh viện Da liễu Hà Nội (cơ sở 2),public,,,,,,"https://www.google.com/maps/search/?api=1&query=20.970065,105.7729964"
Bệnh viện Da liễu Hà Nội (cơ sở 3),public,,,,,,"https://www.google.com/maps/search/?api=1&query=20.9287531,105.560243"
Bệnh viện Da liễu Nam Định,public,,,,,,"https://www.google.com/maps/search/?api=1&query=20.4501135,106.1815755"
Bệnh viện Da liễu Nghệ An,public,,,,,,"https://www.google.com/maps/search/?api=1&query=18.6755699,105.6881458"
Bệnh viện Da liễu Quảng Nam,public,,,,,,"https://www.google.com/maps/search/?api=1&query=15.5703509,108.4797345"
Bệnh viện Da liễu Thanh Hoá,public,,,,,,"https://www.google.com/maps/search/?api=1&query=19.7724862,105.7688938"
Bệnh viện Da liễu thành phố Cần Thơ,public,,,1 Hẻm 12 đường 3 Tháng 2,,,"https://www.google.com/maps/search/?api=1&query=10.0133779,105.7551037"
Bệnh viện Da liễu thành phố Đà Nẵng,public,,,91 Đường Dũng Sĩ Thanh Khê,,,"https://www.google.com/maps/search/?api=1&query=16.0737867,108.1762198"
Bệnh viện Da liễu tỉnh Đắk Lắk,public,,,2 Trần Phú,,,"https://www.google.com/maps/search/?api=1&query=13.0913153,109.292242"
Bệnh viện Da liễu tỉnh Đắk Lắk (cơ sở 2),public,,,235 Xô Viết Nghệ Tĩnh,,,"https://www.google.com/maps/search/?api=1&query=12.6896647,108.0400509"
Bệnh viện Da liễu tỉnh Khánh Hoà,public,,,,,,"https://www.google.com/maps/search/?api=1&query=12.2782202,109.1833407"
Bệnh viện Dệt May,public,,,Ngõ 454 Minh Khai,,,"https://www.google.com/maps/search/?api=1&query=20.9965075,105.8651351"
Bệnh viện Domedic,private,,,30,,,"https://www.google.com/maps/search/?api=1&query=10.4756529,105.6122967"
Bệnh viện Đa khoa 115 Nghệ An,public,,,,,,"https://www.google.com/maps/search/?api=1&query=18.7111645,105.6779236"
Bệnh viện Đa khoa ACA,private,,,,,,"https://www.google.com/maps/search/?api=1&query=20.0683389,105.8532517"
Bệnh viện Đa khoa An Lão,public,,,,,,"https://www.google.com/maps/search/?api=1&query=20.8257146,106.5555185"
Bệnh Viện Đa khoa An Phú,public,,,,,,"https://www.google.com/maps/search/?api=1&query=10.9475149,106.7371674"
Bệnh viện Đa khoa Bà Rịa,public,,,686 Võ Văn Kiệt,,,"https://www.google.com/maps/search/?api=1&query=10.5094268,107.1969894"
Bệnh viện Đa khoa Bá Thước,public,,,,,,"https://www.google.com/maps/search/?api=1&query=20.3509775,105.2242059"
Bệnh viện Đa khoa Bạc Liêu,public,,,,,,"https://www.google.com/maps/search/?api=1&query=9.2833612,105.7196048"
Bệnh viện Đa khoa Bắc Ninh số 2,public,,,Đường Lê Lợi,,,"https://www.google.com/maps/search/?api=1&query=21.274755,106.1975944"
Bệnh viện Đa khoa Bến Lức,public,,,,,,"https://www.google.com/maps/search/?api=1&query=10.6407508,106.4869234"
Bệnh viện Đa khoa Bỉm Sơn,public,,,,,,"https://www.google.com/maps/search/?api=1&query=20.0696234,105.890671"
Bệnh viện Đa khoa Bình Chánh,public,,,,,,"https://www.google.com/maps/search/?api=1&query=10.6912666,106.5862179"
Bệnh viện Đa khoa Bình Dương,public,,,5 Phạm Ngọc Thạch,,,"https://www.google.com/maps/search/?api=1&query=10.9975187,106.6551913"
Bệnh viện Đa khoa Bình Điền,public,,,,,,"https://www.google.com/maps/search/?api=1&query=16.353529,107.5083049"
Bệnh viện Đa khoa Bình Phước,public,,,,,,"https://www.google.com/maps/search/?api=1&query=11.52578,106.863895"
Bệnh viện Đa khoa Bình Tân,public,,,809 Hương lộ 2,,,"https://www.google.com/maps/search/?api=1&query=10.7644533,106.6032245"
Bệnh viện Đa khoa Bình Thạnh,public,,,132 Đường Lê Văn Duyệt,,,"https://www.google.com/maps/search/?api=1&query=10.7980558,106.6967399"
Bệnh viện Đa khoa Bình Thuận,public,,,,,,"https://www.google.com/maps/search/?api=1&query=10.9401633,108.089251"
Bệnh viện Đa khoa Buôn Hồ,public,,,32 Đường Nơ Trang Lơng,,,"https://www.google.com/maps/search/?api=1&query=12.9111388,108.2687246"
Bệnh viện Đa khoa Buôn Ma Thuột,public,,,62 Nguyễn Đình Chiểu,,,"https://www.google.com/maps/search/?api=1&query=12.6934282,108.0476654"
Bệnh viện Đa khoa Cà Mau,public,,,16 Hải Thượng Lãn Ông,,,"https://www.google.com/maps/search/?api=1&query=9.1711096,105.160796"
Bệnh viện Đa khoa Cái Nước,public,,,,,,"https://www.google.com/maps/search/?api=1&query=8.945921,105.0130212"
Bệnh viện Đa khoa Cao su Phú Riềng,public,,,,,,"https://www.google.com/maps/search/?api=1&query=11.6617759,106.8985646"
Bệnh viện Đa khoa Cẩm Phả,public,,,,,,"https://www.google.com/maps/search/?api=1&query=21.0090752,107.2769803"
Bệnh viện Đa khoa Cẩm Thuỷ,public,,,,,,"https://www.google.com/maps/search/?api=1&query=20.2043816,105.4655792"
Bệnh viện Đa khoa Châu Đốc,public,,,917 Tôn Đức Thắng,,,"https://www.google.com/maps/search/?api=1&query=10.6894307,105.1483663"
Bệnh viện Đa khoa Củ Chi,public,,,,,,"https://www.google.com/maps/search/?api=1&query=11.08545,106.5092674"
Bệnh viện Đa khoa Đại An,public,,,,,,"https://www.google.com/maps/search/?api=1&query=19.8601031,105.6811273"
Bệnh viện Đa khoa Đăk Glong,public,,,,,,"https://www.google.com/maps/search/?api=1&query=11.8970721,107.797478"
Bệnh viện Đa khoa Đắk Nông,public,,,,,,"https://www.google.com/maps/search/?api=1&query=11.9861913,107.7005048"
Bệnh viện Đa khoa Đầm Dơi,public,,,,,,"https://www.google.com/maps/search/?api=1&query=8.9929143,105.2007781"
Bệnh viện Đa khoa Đôn Lương,public,,,,,,"https://www.google.com/maps/search/?api=1&query=20.7992822,106.8976139"
Bệnh viện Đa khoa Đông Anh,public,,,,,,"https://www.google.com/maps/search/?api=1&query=21.1392083,105.8532536"
Bệnh viện Đa khoa Đông Hưng,public,,,,,,"https://www.google.com/maps/search/?api=1&query=20.5534442,106.3587029"
Bệnh viện Đa khoa Đồng Tháp,public,,,,,,"https://www.google.com/maps/search/?api=1&query=10.471615,105.6275867"
Bệnh viện Đa khoa Gò Vấp,public,,,641 Đường Quang Trung,,,"https://www.google.com/maps/search/?api=1&query=10.8345835,106.661529"
Bệnh viện Đa khoa Hà Đông,public,,,,,,"https://www.google.com/maps/search/?api=1&query=20.9713454,105.7744735"
Bệnh viện Đa khoa Hà Giang,public,,,,,,"https://www.google.com/maps/search/?api=1&query=22.8202889,104.9848004"
Bệnh viện Đa khoa Hà Thành,public,,,57-63 Phố Vũ Thạnh,+84 24 3765 5599,https://benhvienhathanh.vn/,"https://www.google.com/maps/search/?api=1&query=21.026761,105.8265759"
Bệnh viện Đa khoa Hà Trung,public,,,,,,"https://www.google.com/maps/search/?api=1&query=20.0053006,105.8502803"
Bệnh viện Đa khoa Hạc Thành,public,,,,,,"https://www.google.com/maps/search/?api=1&query=19.8159646,105.7817233"
Bệnh viện Đa khoa Hải Dương,public,,,,,,"https://www.google.com/maps/search/?api=1&query=20.9347582,106.3080957"
Bệnh viện Đa khoa Hậu Lộc,public,,,,,,"https://www.google.com/maps/search/?api=1&query=19.9171255,105.886199"
Bệnh viện Đa khoa Hòa Bình,public,,,,,,"https://www.google.com/maps/search/?api=1&query=20.8258188,105.354162"
Bệnh viện Đa khoa Hoàn Hảo Kei Mei Kai,private,,,,,,"https://www.google.com/maps/search/?api=1&query=10.8698098,106.7627408"
Bệnh viện Đa khoa Hoàn Hảo Medic Cần Thơ,private,,,,,,"https://www.google.com/maps/search/?api=1&query=10.0490309,105.7766544"
Bệnh viện Đa khoa Hoàn Mỹ Cửu Long,private,,,,,,"https://www.google.com/maps/search/?api=1&query=10.0058173,105.7997438"
Bệnh viện Đa khoa Hoằng Hoá,public,,,,,,"https://www.google.com/maps/search/?api=1&query=19.8510155,105.856286"
Bệnh viện Đa khoa Hoè Nhai,public,,,,,,"https://www.google.com/maps/search/?api=1&query=21.040858,105.8460314"
Bệnh viện Đa khoa Hoè Nhai - Cơ sở 2,public,,,Ngõ 53 Tân Ấp,,,"https://www.google.com/maps/search/?api=1&query=21.0471714,105.8458691"
Bệnh Viện Đa Khoa Hồng Ngọc,private,,,,,,"https://www.google.com/maps/search/?api=1&query=21.0424358,105.8443367"
Bệnh viện đa khoa Hợp Lực,private,,,"595 Nguyễn Chí Thanh, P. Trường Thi, Thành phố Thanh Hóa, Thanh Hoá",,,"https://www.google.com/maps/search/?api=1&query=19.8276263,105.7786405"
Bệnh viện Đa khoa huyện Cẩm Mỹ,public,,,,,,"https://www.google.com/maps/search/?api=1&query=10.8144621,107.2186386"
Bệnh viện Đa khoa huyện Cầu Ngang,public,,,,,,"https://www.google.com/maps/search/?api=1&query=9.7923269,106.4505047"
Bệnh viện Đa khoa huyện Châu Thành,public,,,,,,"https://www.google.com/maps/search/?api=1&query=10.2579939,105.8634943"
Bệnh viện Đa khoa huyện Diễn Châu,public,,,,,,"https://www.google.com/maps/search/?api=1&query=18.974678,105.5891197"
Bệnh viện Đa khoa huyện Đại Từ,public,,,,,,"https://www.google.com/maps/search/?api=1&query=21.62632,105.645145"
Bệnh viện Đa khoa huyện Định Hoá,public,,,,,,"https://www.google.com/maps/search/?api=1&query=21.9138416,105.6457032"
Bệnh viện Đa khoa huyện Đô Lương,public,,,,,,"https://www.google.com/maps/search/?api=1&query=18.8881787,105.3140854"
Bệnh viện Đa khoa huyện Đông Sơn,public,,,,,,"https://www.google.com/maps/search/?api=1&query=19.8175902,105.7161848"
Bệnh viện Đa khoa Huyện Giồng Riềng,public,,,,,,"https://www.google.com/maps/search/?api=1&query=9.9077731,105.3106884"
Bệnh viện Đa khoa huyện Hà Quảng,public,,,,,,"https://www.google.com/maps/search/?api=1&query=22.9001704,106.0692743"
Bệnh viện Đa khoa huyện Hải Hậu,public,,,,,,"https://www.google.com/maps/search/?api=1&query=20.1946733,106.2956622"
Bệnh viện Đa khoa Huyện Hòa Thành,public,,,,,,"https://www.google.com/maps/search/?api=1&query=11.2760877,106.1270084"
Bệnh viện Đa khoa Huyện Hồng Ngự,public,,,,,,"https://www.google.com/maps/search/?api=1&query=10.8149693,105.2485574"
Bệnh viện Đa khoa huyện Kim Sơn,public,,,,,,"https://www.google.com/maps/search/?api=1&query=20.0940592,106.0816318"
Bệnh viện Đa khoa Huyện Krông Nô,public,,,,,,"https://www.google.com/maps/search/?api=1&query=12.4856427,107.8619135"
Bệnh viện Đa khoa huyện Mỹ Xuyên,public,,,,,,"https://www.google.com/maps/search/?api=1&query=9.5598055,105.988788"
Bệnh viện Đa khoa huyện Nghi Lộc,public,,,,,,"https://www.google.com/maps/search/?api=1&query=18.7859742,105.6680906"
Bệnh viện Đa khoa huyện Nho Quan,public,,,,,,"https://www.google.com/maps/search/?api=1&query=20.3174127,105.7502983"
Bệnh viện Đa khoa huyện Phú Bình,public,,,,,,"https://www.google.com/maps/search/?api=1&query=21.4626973,105.9742265"
Bệnh viện Đa khoa huyện Quỳnh Lưu,public,,,,,,"https://www.google.com/maps/search/?api=1&query=19.1754958,105.6536074"
Bệnh viện Đa khoa huyện Sông Mã,public,,,,,,"https://www.google.com/maps/search/?api=1&query=21.0370938,103.7543154"
Bệnh viện Đa Khoa Huyện Tây Hòa,public,,,,,,"https://www.google.com/maps/search/?api=1&query=12.9991362,109.2394647"
Bệnh viện Đa khoa huyện Thanh Chương,public,,,,,,"https://www.google.com/maps/search/?api=1&query=18.7774981,105.3393439"
Bệnh Viện Đa Khoa Huyện Thạnh Phú,public,,,,,,"https://www.google.com/maps/search/?api=1&query=9.9514598,106.5153094"
Bệnh viện Đa khoa huyện Trùng Khánh,public,,,,,,"https://www.google.com/maps/search/?api=1&query=22.8385506,106.5267797"
Bệnh viện Đa khoa huyện Vĩnh Thạnh,public,,,,,,"https://www.google.com/maps/search/?api=1&query=10.2363471,105.4023571"
Bệnh viện Đa khoa huyện Vũ Thư,public,,,,,,"https://www.google.com/maps/search/?api=1&query=20.4412577,106.2925886"
Bệnh viện Đa khoa huyện Yên Thành,public,,,,,,"https://www.google.com/maps/search/?api=1&query=19.0160945,105.4430679"
Bệnh viện Đa khoa Hưng Hà,public,,,,,,"https://www.google.com/maps/search/?api=1&query=20.5831138,106.2398307"
Bệnh viện Đa khoa Hưng Nhân,public,,,,,,"https://www.google.com/maps/search/?api=1&query=20.6076769,106.1539194"
Bệnh viện Đa khoa Hưng Thịnh,public,,,,,,"https://www.google.com/maps/search/?api=1&query=22.4767662,103.9747988"
Bệnh viện Đa khoa Khánh Hòa,public,,,,,,"https://www.google.com/maps/search/?api=1&query=12.2485342,109.1919559"
Bệnh viện Đa khoa Khánh Hội,public,,,,,,"https://www.google.com/maps/search/?api=1&query=10.7652457,106.7021855"
Bệnh viện Đa khoa Khánh Vĩnh,public,,,Tỉnh lộ 2,,,"https://www.google.com/maps/search/?api=1&query=12.2822952,108.9187204"
Bệnh viện Đa khoa khu vực 333,public,,,,,,"https://www.google.com/maps/search/?api=1&query=12.8109307,108.5217284"
Bệnh viện Đa khoa khu vực ATK,public,,,,,,"https://www.google.com/maps/search/?api=1&query=21.8760638,105.433592"
Bệnh viện Đa khoa khu vực Bảo Thắng,public,,,,,,"https://www.google.com/maps/search/?api=1&query=22.3164281,104.1917598"
Bệnh viện Đa khoa khu vực Bảo Yên,public,,,,,,"https://www.google.com/maps/search/?api=1&query=22.2281353,104.4799992"
Bệnh viện Đa khoa khu vực Bát Xát,public,,,,,,"https://www.google.com/maps/search/?api=1&query=22.546047,103.8852932"
Bệnh viện Đa khoa khu vực Bắc Bình Thuận,public,,,,,,"https://www.google.com/maps/search/?api=1&query=11.2236406,108.5022372"
Bệnh viện Đa khoa khu vực Bắc Hà,public,,,,,,"https://www.google.com/maps/search/?api=1&query=22.5392791,104.2889994"
Bệnh viện Đa khoa khu vực Bắc Mê,public,,,,,,"https://www.google.com/maps/search/?api=1&query=22.7396415,105.3042998"
Bệnh viện Đa khoa khu vực Bắc Quảng Trị,public,,,,,,"https://www.google.com/maps/search/?api=1&query=17.7571293,106.4338556"
Bệnh viện Đa khoa khu vực Bắc Yên,public,,,,,,"https://www.google.com/maps/search/?api=1&query=21.2426506,104.4398034"
Bệnh viện Đa khoa khu vực Bố Trạch,public,,,,,,"https://www.google.com/maps/search/?api=1&query=17.5892209,106.5193689"
Bệnh viện Đa khoa khu vực Bồng Sơn,public,,,,,,"https://www.google.com/maps/search/?api=1&query=14.4345318,109.018433"
Bệnh viện Đa khoa khu vực Cà Mau,public,,,36 Lý Thái Tôn,,,"https://www.google.com/maps/search/?api=1&query=9.1804683,105.145586"
Bệnh viện Đa khoa khu vực Cai Lậy,public,,,,,,"https://www.google.com/maps/search/?api=1&query=10.4061286,106.1293077"
Bệnh viện Đa khoa khu vực Cẩm Phả,public,,,,,,"https://www.google.com/maps/search/?api=1&query=21.0060901,107.3485238"
Bệnh viện Đa khoa khu vực Củ Chi,public,,,,,,"https://www.google.com/maps/search/?api=1&query=10.9755291,106.4769446"
Bệnh viện Đa khoa khu vực Cù Lao Minh,public,,,,,,"https://www.google.com/maps/search/?api=1&query=10.1211738,106.3135695"
Bệnh viện Đa khoa khu vực Đặng Thuỳ Trâm,public,,,,,,"https://www.google.com/maps/search/?api=1&query=14.8168347,108.9609151"
Bệnh viện Đa khoa khu vực Đất Mũi,public,,,,,,"https://www.google.com/maps/search/?api=1&query=8.6030371,104.7542183"
Bệnh viện Đa khoa khu vực Đồng Hới,public,,,,,,"https://www.google.com/maps/search/?api=1&query=17.4536021,106.6213896"
Bệnh viện Đa khoa khu vực Đồng Văn,public,,,,,,"https://www.google.com/maps/search/?api=1&query=23.2756427,105.3692159"
Bệnh viện Đa khoa khu vực Gò Công,public,,,,,,"https://www.google.com/maps/search/?api=1&query=10.3519219,106.6832141"
Bệnh viện Đa khoa khu vực Hậu Nghĩa,public,,,,,,"https://www.google.com/maps/search/?api=1&query=10.8792828,106.3941248"
Bệnh viện Đa khoa khu vực Hòa Long,public,,,,,,"https://www.google.com/maps/search/?api=1&query=10.2866938,105.6639447"
Bệnh viện Đa khoa khu vực Hoà Phú,public,,,,+84 270 3811 999,https://bvhoaphu.vinhlong.gov.vn/,"https://www.google.com/maps/search/?api=1&query=10.1883992,105.9426585"
Bệnh viện Đa khoa khu vực Hoàng Su Phì,public,,,,,,"https://www.google.com/maps/search/?api=1&query=22.7390863,104.6800523"
Bệnh viện Đa khoa khu vực Hóc Môn,public,,,,,,"https://www.google.com/maps/search/?api=1&query=10.8826218,106.5929391"
Bệnh viện Đa khoa khu vực Hồng Ngự,public,,,,,,"https://www.google.com/maps/search/?api=1&query=10.8036865,105.3515292"
Bệnh viện Đa khoa khu vực Hướng Hoá,public,,,,,,"https://www.google.com/maps/search/?api=1&query=16.6242818,106.7319081"
Bệnh viện Đa khoa khu vực kết hợp Quân dân y tỉnh Vĩnh Long,public,,,,,,"https://www.google.com/maps/search/?api=1&query=10.1724846,105.7764742"
Bệnh viện Đa khoa khu vực Kim Xuyên,public,,,,,,"https://www.google.com/maps/search/?api=1&query=21.5587536,105.2785369"
Bệnh viện Đa khoa khu vực La Gi,public,,,,,,"https://www.google.com/maps/search/?api=1&query=10.6841856,107.752708"
Bệnh viện Đa khoa khu vực Lào Cai - Cam Đường,public,,,,,,"https://www.google.com/maps/search/?api=1&query=22.4935936,103.9580419"
Bệnh viện Đa khoa khu vực Lệ Thuỷ,public,,,,,,"https://www.google.com/maps/search/?api=1&query=17.220171,106.78639"
Bệnh viện Đa khoa khu vực Mai Sơn,public,,,,,,"https://www.google.com/maps/search/?api=1&query=21.214085,104.1043782"
Bệnh viện Đa khoa khu vực Mèo Vạc,public,,,,,,"https://www.google.com/maps/search/?api=1&query=23.1725036,105.4110755"
Bệnh viện Đa khoa khu vực miền núi phía Bắc Quảng Nam,public,,,,,,"https://www.google.com/maps/search/?api=1&query=15.8850911,108.1182515"
Bệnh viện Đa khoa khu vực Minh Hoá,public,,,,,,"https://www.google.com/maps/search/?api=1&query=17.8012009,105.973994"
Bệnh viện Đa khoa khu vực Móng Cái,public,,,Đường Tuệ Tĩnh,,,"https://www.google.com/maps/search/?api=1&query=21.5252547,107.9607917"
Bệnh viện Đa khoa khu vực Móng Cái (cơ sở 2),public,,,,,,"https://www.google.com/maps/search/?api=1&query=21.4489198,107.7520071"
Bệnh viện Đa khoa khu vực Móng Cái (cơ sở 3),public,,,,,,"https://www.google.com/maps/search/?api=1&query=21.3531545,107.6014266"
Bệnh viện Đa khoa khu vực Mộc Châu,public,,,,,,"https://www.google.com/maps/search/?api=1&query=20.8484136,104.6193566"
Bệnh viện Đa khoa khu vực Mường Khương,public,,,,,,"https://www.google.com/maps/search/?api=1&query=22.7625709,104.1270581"
Bệnh viện Đa khoa khu vực Mường La,public,,,,,,"https://www.google.com/maps/search/?api=1&query=21.5074047,104.0184367"
Bệnh viện Đa khoa khu vực Nà Chì,public,,,,,,"https://www.google.com/maps/search/?api=1&query=22.5117951,104.5127152"
Bệnh viên Đa khoa khu vực Nam Lý,public,,,,,,"https://www.google.com/maps/search/?api=1&query=20.5054573,106.1427193"
Bệnh viện Đa khoa khu vực Ngã Bảy,public,,,,,,"https://www.google.com/maps/search/?api=1&query=9.8060165,105.8068969"
Bệnh viện Đa khoa khu vực Ngọc Hồi,public,,,,,,"https://www.google.com/maps/search/?api=1&query=14.6952507,107.6815549"
Bệnh viện Đa khoa khu vực phía Nam,public,,,,,,"https://www.google.com/maps/search/?api=1&query=11.1733969,107.5226119"
Bệnh viện Đa khoa khu vực Phú Thọ,public,,,,,,"https://www.google.com/maps/search/?api=1&query=21.3955165,105.2166212"
Bệnh viện Đa khoa khu vực Phù Yên,public,,,,,,"https://www.google.com/maps/search/?api=1&query=21.2587965,104.6443788"
Bệnh viện Đa khoa khu vực Quản Bạ,public,,,,,,"https://www.google.com/maps/search/?api=1&query=23.07111,104.9891456"
Bệnh viện Đa khoa khu vực Quang Bình,public,,,,,,"https://www.google.com/maps/search/?api=1&query=22.4080661,104.5902378"
Bệnh viện Đa khoa khu vực Quảng Nam,public,,,,,,"https://www.google.com/maps/search/?api=1&query=15.8909554,108.2461835"
Bệnh viện Đa khoa khu vực Quảng Ninh,public,,,,,,"https://www.google.com/maps/search/?api=1&query=17.365573,106.6751478"
Bệnh viện Đa khoa khu vực Quảng Yên,public,,,,,,"https://www.google.com/maps/search/?api=1&query=20.9387102,106.8316463"
Bệnh viện Đa khoa khu vực Quảng Yên (cơ sở 2),public,,,,,,"https://www.google.com/maps/search/?api=1&query=21.034621,106.7738613"
Bệnh viện Đa khoa khu vực Quỳnh Nhai,public,,,,,,"https://www.google.com/maps/search/?api=1&query=21.6379265,103.6373315"
Bệnh viện Đa khoa khu vực Si Ma Cai,public,,,,,,"https://www.google.com/maps/search/?api=1&query=22.6905821,104.2708918"
Bệnh viện Đa khoa khu vực Sốp Cộp,public,,,,,,"https://www.google.com/maps/search/?api=1&query=20.9418011,103.6072992"
Bệnh viện Đa khoa khu vực Tân Châu,public,,,,,,"https://www.google.com/maps/search/?api=1&query=10.7894333,105.2311929"
Bệnh viện Đa khoa khu vực Tây Bắc Nghệ An,public,,,,,,"https://www.google.com/maps/search/?api=1&query=19.311367,105.4165714"
Bệnh viện Đa khoa khu vực Tây Nam Nghệ An,public,,,,,,"https://www.google.com/maps/search/?api=1&query=19.0430535,104.8860185"
Bệnh viện Đa khoa khu vực Tháp Mười,public,,,,,,"https://www.google.com/maps/search/?api=1&query=10.5205501,105.8413855"
Bệnh viện Đa khoa khu vực Thủ Đức,public,,,,,,"https://www.google.com/maps/search/?api=1&query=10.8622334,106.7805429"
Bệnh viện Đa khoa khu vực Thuận Châu,public,,,,,,"https://www.google.com/maps/search/?api=1&query=21.4309573,103.6946851"
Bệnh viện Đa khoa khu vực Tiên Yên,public,,,,,,"https://www.google.com/maps/search/?api=1&query=21.3328759,107.4020488"
Bệnh viện Đa khoa khu vực Tiên Yên (cơ sở 2),public,,,,,,"https://www.google.com/maps/search/?api=1&query=21.2716714,107.2885923"
Bệnh viện Đa khoa khu vực Tiên Yên (cơ sở 3),public,,,,,,"https://www.google.com/maps/search/?api=1&query=21.529363,107.4003629"
Bệnh viện Đa khoa khu vực Triệu Hải,public,,,,,,"https://www.google.com/maps/search/?api=1&query=16.7564687,107.1918244"
Bệnh viện Đa khoa khu vực Tuyên Hoá,public,,,,,,"https://www.google.com/maps/search/?api=1&query=17.8816654,106.0332777"
Bệnh viện Đa khoa khu vực Văn Bàn,public,,,,,,"https://www.google.com/maps/search/?api=1&query=22.0900981,104.2508407"
Bệnh viện Đa khoa khu vực Vân Đồn,public,,,,,,"https://www.google.com/maps/search/?api=1&query=21.074502,107.4264909"
Bệnh viện Đa khoa khu vực Vân Đồn (cơ sở 2),public,,,,,,"https://www.google.com/maps/search/?api=1&query=20.972835,107.7700603"
Bệnh viện Đa khoa khu vực Vân Hồ - cơ sở Thảo Nguyên,public,,,,,,"https://www.google.com/maps/search/?api=1&query=20.8384716,104.6750252"
Bệnh viện Đa khoa khu vực Vị Xuyên,public,,,,,,"https://www.google.com/maps/search/?api=1&query=22.6613969,104.9871942"
Bệnh viện Đa khoa khu vực Vĩnh Linh,public,,,,,,"https://www.google.com/maps/search/?api=1&query=17.0739083,107.0092734"
Bệnh viện Đa khoa khu vực Xín Mần,public,,,,,,"https://www.google.com/maps/search/?api=1&query=22.6776601,104.4620715"
Bệnh viện Đa khoa khu vực Yên Châu,public,,,,,,"https://www.google.com/maps/search/?api=1&query=21.0500113,104.3077509"
Bệnh viện Đa khoa khu vực Yên Hoa,public,,,,,,"https://www.google.com/maps/search/?api=1&query=22.5127528,105.4790197"
Bệnh viện Đa khoa khu vực Yên Minh,public,,,,,,"https://www.google.com/maps/search/?api=1&query=23.119025,105.1536682"
Bệnh viện Đa khoa Kiên Giang,public,,,,,,"https://www.google.com/maps/search/?api=1&query=9.9726371,105.0985589"
Bệnh viện Đa khoa Kiến Xương,public,,,,,,"https://www.google.com/maps/search/?api=1&query=20.3922592,106.4462032"
Bệnh viện Đa khoa Kinh Bắc,private,,,,,,"https://www.google.com/maps/search/?api=1&query=21.1633089,106.0749746"
Bệnh viện Đa Khoa KV Ninh Hoà,public,,,,,,"https://www.google.com/maps/search/?api=1&query=12.50917,109.137285"
Bệnh viện Đa khoa Lang Chánh,public,,,,,,"https://www.google.com/maps/search/?api=1&query=20.1537612,105.2374363"
Bệnh viện Đa khoa Lạng Sơn,public,,,,,,"https://www.google.com/maps/search/?api=1&query=21.8488406,106.7467086"
Bệnh viện Đa khoa Lâm Hoa,private,,,,,,"https://www.google.com/maps/search/?api=1&query=20.4336585,106.3527118"
Bệnh viện Đa khoa Lâm Hoa - Hưng Hà,private,,,,,,"https://www.google.com/maps/search/?api=1&query=20.5799918,106.2435076"
Bệnh viện đa khoa Lê Chân II,public,,,,,,"https://www.google.com/maps/search/?api=1&query=20.8487056,106.6640771"
Bệnh viện Đa khoa Lê Ngọc Tùng,public,,,,,,"https://www.google.com/maps/search/?api=1&query=11.3083561,106.1070346"
Bệnh Viện Đa Khoa Long An - Khoa Nội A1,public,,,,,,"https://www.google.com/maps/search/?api=1&query=10.5392545,106.4194209"
Bệnh viện Đa khoa Lộc Hà,public,,,,,,"https://www.google.com/maps/search/?api=1&query=18.4483954,105.8807898"
Bệnh viện Đa khoa Mường Lát,public,,,,,,"https://www.google.com/maps/search/?api=1&query=20.5282495,104.5993006"
Bệnh Viện Đa Khoa Mỹ Đức,private,,,Hẻm 4 Núi Thành,0838100290,,"https://www.google.com/maps/search/?api=1&query=10.7999684,106.6415956"
Bệnh viện Đa khoa Mỹ Phước,private,,,,,,"https://www.google.com/maps/search/?api=1&query=11.1415843,106.6070629"
Bệnh Viện Đa Khoa Nam Am,private,,,,,,"https://www.google.com/maps/search/?api=1&query=20.6433343,106.5413128"
Bệnh viện Đa khoa Nam Định,public,,,,,,"https://www.google.com/maps/search/?api=1&query=20.4264651,106.1717319"
Bệnh viện Đa khoa Nam Định (khu B),public,,,,,,"https://www.google.com/maps/search/?api=1&query=20.4251922,106.1722251"
Bệnh viện Đa khoa Nam Liên Chiểu,public,,,,,,"https://www.google.com/maps/search/?api=1&query=16.0557752,108.1621981"
Bệnh viện Đa khoa Nam Tiền Hải,public,,,,,,"https://www.google.com/maps/search/?api=1&query=20.3438046,106.5454653"
Bệnh viện Đa khoa Năm Căn,public,,,,,,"https://www.google.com/maps/search/?api=1&query=8.7690466,104.9966862"
Bệnh viện Đa khoa Ngã Năm,public,,,,,,"https://www.google.com/maps/search/?api=1&query=9.5592781,105.6008219"
Bệnh viện Đa khoa Nga Sơn,public,,,,,,"https://www.google.com/maps/search/?api=1&query=20.0093259,105.9681923"
Bệnh viện Đa khoa Nghi Sơn,public,,,,,,"https://www.google.com/maps/search/?api=1&query=19.4628172,105.7900085"
Bệnh viện Đa khoa Ngọc Lặc,public,,,,,,"https://www.google.com/maps/search/?api=1&query=20.0902452,105.370671"
Bệnh viện Đa khoa Ngô Quyền,public,,,,,,"https://www.google.com/maps/search/?api=1&query=20.8600741,106.695115"
Bệnh viện Đa khoa Nguyễn Thị Thập,public,,,101 Nguyễn Thị Thập,,,"https://www.google.com/maps/search/?api=1&query=10.737275,106.7240834"
Bệnh viện Đa khoa Nhà Bè,public,,,,,,"https://www.google.com/maps/search/?api=1&query=10.7042622,106.7052895"
Bệnh viện Đa khoa Như Thanh,public,,,,,,"https://www.google.com/maps/search/?api=1&query=19.6362065,105.5789475"
Bệnh viện Đa khoa Như Xuân,public,,,,,,"https://www.google.com/maps/search/?api=1&query=19.6636183,105.4277106"
Bệnh viện Đa khoa Nông Cống,public,,,,,,"https://www.google.com/maps/search/?api=1&query=19.6421976,105.6555434"
Bệnh viện Đa khoa Nông nghiệp,public,,,,,,"https://www.google.com/maps/search/?api=1&query=20.9211478,105.8533418"
Bệnh viện đa khoa Nông nghiệp 2,public,,,,,,"https://www.google.com/maps/search/?api=1&query=21.0135889,105.8209988"
Bệnh viện Đa khoa Phụ Dực,public,,,,,,"https://www.google.com/maps/search/?api=1&query=20.6473333,106.4210408"
Bệnh viện Đa khoa Phú Yên,public,,,,,,"https://www.google.com/maps/search/?api=1&query=13.1092665,109.2993133"
Bệnh viện Đa khoa Phúc Yên,public,,,,,,"https://www.google.com/maps/search/?api=1&query=21.2330167,105.7081759"
Bệnh viện Đa khoa Quan Hoá,public,,,,,,"https://www.google.com/maps/search/?api=1&query=20.376707,105.1100109"
Bệnh viện Đa khoa Quan Sơn,public,,,,,,"https://www.google.com/maps/search/?api=1&query=20.2605092,104.9459974"
Bệnh viện Đa khoa Quảng Nam,public,,,,,,"https://www.google.com/maps/search/?api=1&query=15.5718453,108.4785872"
Bệnh viện Đa khoa Quảng Xương,public,,,,,,"https://www.google.com/maps/search/?api=1&query=19.720074,105.7857053"
Bệnh viện Đa khoa Quốc Oai,public,,,,,,"https://www.google.com/maps/search/?api=1&query=20.9904928,105.6435563"
Bệnh Viện Đa Khoa Quốc Tế Bắc Hà,private,,,,,,"https://www.google.com/maps/search/?api=1&query=21.0431119,105.8711851"
Bệnh viện Đa khoa Quốc tế Hải Phòng,private,,,,,,"https://www.google.com/maps/search/?api=1&query=20.8533437,106.6727035"
Bệnh viện Đa khoa Quốc tế Hồng Hà,private,,,16 Phố Nguyễn Như Đổ,,,"https://www.google.com/maps/search/?api=1&query=21.0268166,105.8390572"
Bệnh viện Đa khoa Quốc tế Hợp Lực,private,,,,,,"https://www.google.com/maps/search/?api=1&query=19.4274893,105.7648588"
Bệnh viện Đa khoa quốc tế Mặt Trời,private,,,Lô ĐMKT 1 Khu Ngoại giao đoàn,,,"https://www.google.com/maps/search/?api=1&query=21.0641963,105.7905128"
Bệnh viện Đa khoa Quốc Tế Miền Đông,private,,,,,,"https://www.google.com/maps/search/?api=1&query=10.9034999,106.7102737"
Bệnh Viện Đa Khoa Quốc tế Phúc Lâm,private,,,,,,"https://www.google.com/maps/search/?api=1&query=20.9429462,105.9478414"
Bệnh viện Đa khoa Quốc tế Thu Cúc,private,,,286 Phố Thụy Khuê,,,"https://www.google.com/maps/search/?api=1&query=21.0451209,105.8144621"
Bệnh viện Đa Khoa Quốc Tế VINMEC Cần Thơ,private,,,,,,"https://www.google.com/maps/search/?api=1&query=10.0260641,105.7699602"
Bệnh viện Đa khoa Quốc tế Vinmec Times City,private,,,458 Phố Minh Khai,,https://www.vinmec.com/,"https://www.google.com/maps/search/?api=1&query=20.9959685,105.8666473"
Bệnh viện Đa khoa Quỳnh Phụ,public,,,,,,"https://www.google.com/maps/search/?api=1&query=20.6460437,106.3299315"
Bệnh viện Đa khoa Sa Đéc,public,,,,,,"https://www.google.com/maps/search/?api=1&query=10.2881037,105.770839"
Bệnh viện Đa khoa Sài Gòn,private,,,125 Lê Lợi,,,"https://www.google.com/maps/search/?api=1&query=10.7720169,106.6994936"
Bệnh viện Đa khoa Sài Gòn – Nam Định,private,,,,,,"https://www.google.com/maps/search/?api=1&query=20.4366506,106.1578586"
Bệnh viện đa khoa Sài Gòn Nha Trang,private,,,,,,"https://www.google.com/maps/search/?api=1&query=12.2583221,109.1694482"
Bệnh viện Đa khoa Sầm Sơn,public,,,,,,"https://www.google.com/maps/search/?api=1&query=19.7426316,105.8996095"
Bệnh viện Đa khoa số 1 tỉnh Lào Cai,public,,,,,,"https://www.google.com/maps/search/?api=1&query=21.682283,104.9066064"
Bệnh viện Đa khoa số 10,public,,,,,,"https://www.google.com/maps/search/?api=1&query=9.9687387,105.7383973"
Bệnh viện Đa khoa số 2 tỉnh Lào Cai,public,,,,,,"https://www.google.com/maps/search/?api=1&query=22.4378158,104.0314535"
Bệnh viện Đa khoa số 3 tỉnh Lào Cai,public,,,,,,"https://www.google.com/maps/search/?api=1&query=21.6137226,104.5060811"
Bệnh viện Đa khoa số 4 tỉnh Lào Cai,public,,,,,,"https://www.google.com/maps/search/?api=1&query=22.3477405,103.8572444"
Bệnh viện Đa khoa Tâm Anh,private,,,,,,"https://www.google.com/maps/search/?api=1&query=10.8024122,106.6662942"
Bệnh viện Đa khoa Tâm Hồng Phước,public,,,,,,"https://www.google.com/maps/search/?api=1&query=10.9701527,106.8665707"
Bệnh viện Đa khoa Tâm Trí Cao Lãnh,private,,,,,,"https://www.google.com/maps/search/?api=1&query=10.4653086,105.6289386"
Bệnh viện Đa khoa Tâm Trí Đà Nẵng,private,,,64 Cách Mạng Tháng Tám,,,"https://www.google.com/maps/search/?api=1&query=16.02277,108.2143058"
Bệnh viện Đa khoa Tâm Trí Sài Gòn,private,,,,,,"https://www.google.com/maps/search/?api=1&query=10.8317212,106.6218645"
Bệnh viện Đa khoa Tân Bình,public,,,,,,"https://www.google.com/maps/search/?api=1&query=10.7944261,106.6554163"
Bệnh viện Đa khoa Tân Hồng,public,,,,,,"https://www.google.com/maps/search/?api=1&query=10.8696816,105.471162"
Bệnh viện Đa khoa Tân Hưng,public,,,,,,"https://www.google.com/maps/search/?api=1&query=10.7515951,106.696342"
Bệnh viện Đa khoa Tân Phú,public,,,609-611 Âu Cơ,,,"https://www.google.com/maps/search/?api=1&query=10.7835098,106.6419173"
Bệnh viện Đa khoa Tân Thạnh,public,,,,,,"https://www.google.com/maps/search/?api=1&query=10.5982498,106.0524798"
Bệnh viện Đa khoa Tây Ninh,public,,,,,,"https://www.google.com/maps/search/?api=1&query=11.3291354,106.1062058"
Bệnh viện Đa khoa Thạch Thành,public,,,,,,"https://www.google.com/maps/search/?api=1&query=20.1373306,105.6952487"
Bệnh viện Đa khoa Thái Bình,public,,,530 Phố Lý Bôn,,,"https://www.google.com/maps/search/?api=1&query=20.4408163,106.3375971"
Bệnh viện Đa khoa Thái Ninh,public,,,,,,"https://www.google.com/maps/search/?api=1&query=20.5052416,106.510238"
Bệnh viện Đa khoa Thái Thuỵ,public,,,,,,"https://www.google.com/maps/search/?api=1&query=20.567939,106.5642954"
Bệnh viện Đa khoa Thanh Hà,public,,,,,,"https://www.google.com/maps/search/?api=1&query=19.815243,105.7943604"
Bệnh viện Đa khoa thành phố Cần Thơ,public,,,4 Châu Văn Liêm,,,"https://www.google.com/maps/search/?api=1&query=10.0305871,105.7822314"
Bệnh viện Đa khoa thành phố Thái Binh,public,,,,,,"https://www.google.com/maps/search/?api=1&query=20.4482022,106.34543"
Bệnh viện Đa khoa thành phố Vinh,public,,,,,,"https://www.google.com/maps/search/?api=1&query=18.664738,105.6835777"
Bệnh viện Đa khoa Thành phố Vĩnh Long,public,,,,,,"https://www.google.com/maps/search/?api=1&query=10.2612939,105.941658"
Bệnh viện Đa khoa Thiện Hạnh,private,,,,,,"https://www.google.com/maps/search/?api=1&query=12.6986678,108.0708632"
Bệnh viện Đa khoa Thiệu Hoá,public,,,,,,"https://www.google.com/maps/search/?api=1&query=19.8673308,105.6768512"
Bệnh viện Đa khoa Thọ Xuân,public,,,,,,"https://www.google.com/maps/search/?api=1&query=19.9225984,105.5256933"
Bệnh viện Đa khoa Thống Nhất,public,,,,,,"https://www.google.com/maps/search/?api=1&query=10.9671203,106.900249"
Bệnh viện Đa khoa Thủ Đức,public,,,29 Đường Phú Châu,,,"https://www.google.com/maps/search/?api=1&query=10.8643971,106.7455723"
Bệnh viện Đa khoa Thủ Thừa,public,,,,,,"https://www.google.com/maps/search/?api=1&query=10.6054397,106.4065478"
Bệnh viện Đa khoa Thuỷ Nguyên,public,,,,,,"https://www.google.com/maps/search/?api=1&query=20.9229234,106.6629675"
Bệnh viện Đa khoa Thường Xuân,public,,,,,,"https://www.google.com/maps/search/?api=1&query=19.8996558,105.347687"
Bệnh viện Đa khoa Tiền Giang,public,,,Hùng Vương,,,"https://www.google.com/maps/search/?api=1&query=10.3551757,106.3650387"
Bệnh viện Đa khoa Tiền Hải,public,,,,,,"https://www.google.com/maps/search/?api=1&query=20.3909814,106.5067784"
Bệnh viện Đa khoa tỉnh Bắc Kạn,public,,,,,,"https://www.google.com/maps/search/?api=1&query=22.1696418,105.8503754"
Bệnh viện Đa khoa tỉnh Cao Bằng,public,,,,,,"https://www.google.com/maps/search/?api=1&query=22.6527746,106.2703382"
Bệnh viện đa khoa tỉnh Cao Bằng - Khoa nội tiết,public,,,,,,"https://www.google.com/maps/search/?api=1&query=22.6572683,106.2651475"
Bệnh viện Đa khoa tỉnh Điện Biên,public,,,,,,"https://www.google.com/maps/search/?api=1&query=21.3924674,103.0321988"
Bệnh viện Đa khoa tỉnh Gia Lai,public,,,,,,"https://www.google.com/maps/search/?api=1&query=13.9824446,108.027834"
Bệnh viện Đa khoa tỉnh Hà Tĩnh,public,,,75 Hải Thượng Lãn Ông,,,"https://www.google.com/maps/search/?api=1&query=18.3446504,105.8952721"
Bệnh viện Đa khoa tỉnh Hậu Giang,public,,,647 ,,,"https://www.google.com/maps/search/?api=1&query=9.7705534,105.4508957"
Bệnh viện Đa khoa tỉnh Lai Châu,public,,,,,,"https://www.google.com/maps/search/?api=1&query=22.3804209,103.4828384"
Bệnh viện Đa khoa tỉnh Lạng Sơn,public,,,,,,"https://www.google.com/maps/search/?api=1&query=21.8806352,106.7586336"
Bệnh viện Đa khoa tỉnh Lâm Đồng,public,,,1 Phạm Ngọc Thạch,,,"https://www.google.com/maps/search/?api=1&query=11.9464757,108.4308966"
Bệnh viện Đa khoa tỉnh Ninh Bình,public,,,,,,"https://www.google.com/maps/search/?api=1&query=20.2442377,105.9654762"
Bệnh viện đa khoa tỉnh Ninh Thuận,public,,,,,,"https://www.google.com/maps/search/?api=1&query=11.5808106,109.004209"
Bệnh viện Đa khoa tỉnh Phú Thọ,public,,,,,,"https://www.google.com/maps/search/?api=1&query=21.3248677,105.3934443"
Bệnh viện Đa khoa tỉnh Quảng Ngãi,public,,,,,,"https://www.google.com/maps/search/?api=1&query=15.1151154,108.79051"
Bệnh viện Đa khoa tỉnh Quảng Ngãi 2,public,,,224 Bà Triệu,,,"https://www.google.com/maps/search/?api=1&query=14.3560975,107.998633"
Bệnh viện Đa khoa tỉnh Quảng Ninh,public,,,,,,"https://www.google.com/maps/search/?api=1&query=20.9537374,107.0883738"
Bệnh viện Đa khoa tỉnh Quảng Ninh (cơ sở 2),public,,,,,,"https://www.google.com/maps/search/?api=1&query=21.0225973,106.9867113"
Bệnh viện Đa khoa tỉnh Quảng Trị,public,,,226 Hùng Vương,,,"https://www.google.com/maps/search/?api=1&query=16.7907478,107.1098754"
Bệnh viện Đa khoa tỉnh Sóc Trăng,public,,,,,,"https://www.google.com/maps/search/?api=1&query=9.5939544,105.989289"
Bệnh viện Đa khoa tỉnh Sơn La,public,,,Đường Lê Duẩn,,,"https://www.google.com/maps/search/?api=1&query=21.2659536,103.9934827"
Bệnh viện Đa khoa tỉnh Thanh Hoá,public,,,,,,"https://www.google.com/maps/search/?api=1&query=19.7759087,105.7717411"
Bệnh viện Đa khoa tỉnh Trà Vinh,public,,,,,,"https://www.google.com/maps/search/?api=1&query=9.9326738,106.3231788"
Bệnh viện Đa khoa tỉnh Tuyên Quang,public,,,,,,"https://www.google.com/maps/search/?api=1&query=21.8268941,105.2028243"
Bệnh viện Đa khoa Tp Trà Vinh,public,,,,,,"https://www.google.com/maps/search/?api=1&query=9.9264345,106.341919"
Bệnh Viện Đa Khoa Trà Ôn,public,,,Gia Long,,,"https://www.google.com/maps/search/?api=1&query=9.9699732,105.9219342"
Bệnh viện Đa khoa Tràng An,private,,,Ngõ Thông Phong,,,"https://www.google.com/maps/search/?api=1&query=21.0256896,105.8353259"
Bệnh viện Đa khoa Trần Lãm,public,,,,,,"https://www.google.com/maps/search/?api=1&query=20.4344489,106.3494096"
Bệnh viện Đa khoa Trần Văn Thời,public,,,,,,"https://www.google.com/maps/search/?api=1&query=9.076686,104.9691988"
Bệnh viện Đa khoa Triệu Sơn,public,,,,,,"https://www.google.com/maps/search/?api=1&query=19.8175885,105.5928112"
Bệnh viện Đa khoa trung tâm tỉnh Gia Lai,public,,,,,,"https://www.google.com/maps/search/?api=1&query=13.7673297,109.225256"
Bệnh viện Đa khoa TX Duyên Hải,public,,,,,,"https://www.google.com/maps/search/?api=1&query=9.6467827,106.5050295"
Bệnh viện Đa khoa TX Vĩnh Châu,public,,,,,,"https://www.google.com/maps/search/?api=1&query=9.3235777,105.9752718"
Bệnh viện Đa Khoa Vạn Hạnh,private,,,,,,"https://www.google.com/maps/search/?api=1&query=10.7713531,106.670117"
Bệnh viện Đa khoa Vĩnh Bảo,public,,,,,,"https://www.google.com/maps/search/?api=1&query=20.6812284,106.4821659"
Bệnh viện Đa khoa Vĩnh Lộc,public,,,,,,"https://www.google.com/maps/search/?api=1&query=20.0531271,105.6212508"
Bệnh viện Đa khoa Vĩnh Phúc,public,,,,,,"https://www.google.com/maps/search/?api=1&query=21.3186435,105.5999464"
Bệnh viện Đa khoa Vinmec Hạ Long,private,,,,,,"https://www.google.com/maps/search/?api=1&query=20.952021,107.0719036"
Bệnh viện Đa khoa Vũng Tàu,public,,,,,,"https://www.google.com/maps/search/?api=1&query=10.39195,107.1303463"
Bệnh viện Đa khoa vùng Tây Nguyên,public,,,,,,"https://www.google.com/maps/search/?api=1&query=12.6641098,108.0556856"
Bệnh viện Đa khoa Xuyên Á,private,,,,,,"https://www.google.com/maps/search/?api=1&query=10.2604931,105.9406182"
Bệnh viện Đa khoa Yên Định,public,,,,,,"https://www.google.com/maps/search/?api=1&query=19.9775596,105.6444335"
Bệnh viện Đại học Kỹ thuật Y tế Hải Dương,public,,,229 Nguyễn Lương Bằng,,,"https://www.google.com/maps/search/?api=1&query=20.9359033,106.3052927"
Bệnh viện Đại Học Nam Cần Thơ,public,,,,,,"https://www.google.com/maps/search/?api=1&query=10.0011519,105.7686427"
Bệnh viện Đại học Phenikaa,private,,,Phố Kiều Mai,,,"https://www.google.com/maps/search/?api=1&query=21.0387401,105.7520043"
Bệnh viện Đại học Quốc gia Hà Nội,public,,,182 Đường Lương Thế Vinh,,,"https://www.google.com/maps/search/?api=1&query=20.9908736,105.7965721"
Bệnh viện Đại học Tây Nguyên,public,,,,,,"https://www.google.com/maps/search/?api=1&query=12.6504798,108.0230837"
Bệnh viện Đại học Y Dược - Cơ sở 2,public,,,,,,"https://www.google.com/maps/search/?api=1&query=10.7579293,106.6612354"
Bệnh viện Đại học Y dược Shingmark Đồng Nai,public,,,,,,"https://www.google.com/maps/search/?api=1&query=10.8968766,106.8632765"
Bệnh viện Đại học Y Dược Thái Bình,public,,,,,,"https://www.google.com/maps/search/?api=1&query=20.4423871,106.3402795"
Bệnh viện Đại học Y Dược Thành phố Hồ Chí Minh,public,,,215 Hồng Bàng,+84 28 3855 4269,http://www.bvdaihoc.com.vn/,"https://www.google.com/maps/search/?api=1&query=10.7552707,106.6645719"
Bệnh viện Đại học Y Hải Phòng,public,,,225C Phố Lạch Tray,,,"https://www.google.com/maps/search/?api=1&query=20.837165,106.6961712"
Bệnh viện Điều dưỡng - Phục hồi Chức năng 2,public,,,,,,"https://www.google.com/maps/search/?api=1&query=10.8948585,106.8711538"
Bệnh viện Gang Thép,public,,,,,,"https://www.google.com/maps/search/?api=1&query=21.5362465,105.8773156"
Bệnh viện Gia An 115,private,,,,,,"https://www.google.com/maps/search/?api=1&query=10.7405442,106.607722"
Bệnh viện Giao thông Vận tải,public,,,169 Phố Huỳnh Thúc Kháng,+84 91 123 32 09,https://giaothonghospital.vn/,"https://www.google.com/maps/search/?api=1&query=21.0261377,105.8025875"
Bệnh viện Giao thông Vĩnh Phúc,public,,,,,,"https://www.google.com/maps/search/?api=1&query=21.235653,105.6839017"
Bệnh viện Hạnh Phúc,private,,,,,,"https://www.google.com/maps/search/?api=1&query=10.3552363,105.4584414"
Bệnh Viện Hòa Hảo,private,,,,,,"https://www.google.com/maps/search/?api=1&query=10.7626193,106.6702604"
Bệnh Viện Hoàn Hảo 2,private,,,,,,"https://www.google.com/maps/search/?api=1&query=10.8910082,106.7273892"
Bệnh viện Hoàn Mỹ Thủ Đức,private,,,,,,"https://www.google.com/maps/search/?api=1&query=10.887672,106.7737207"
Bệnh Viện Hoàn Mỹ Vinh,private,,,,,,"https://www.google.com/maps/search/?api=1&query=18.6985043,105.6891326"
Bệnh viện Hùng Vương,public,,,Đường Hồng Bàng,,,"https://www.google.com/maps/search/?api=1&query=10.7562251,106.6616571"
Bệnh viện Huyện Bến Cầu,public,,,,,,"https://www.google.com/maps/search/?api=1&query=11.1096347,106.162378"
Bệnh viện huyện Châu Thành,public,,,,,,"https://www.google.com/maps/search/?api=1&query=11.3155767,106.0297783"
Bệnh viện Huyện Cưkuin,public,,,,,,"https://www.google.com/maps/search/?api=1&query=12.6277006,108.126092"
Bệnh viện huyện Dương Minh Châu,public,,,,,,"https://www.google.com/maps/search/?api=1&query=11.3864387,106.2343363"
Bệnh viện huyện Tân Hiệp,public,,,,,,"https://www.google.com/maps/search/?api=1&query=10.1133297,105.2832925"
Bệnh viện Hữu nghị Việt Đức,public,,,40 Phố Phủ Doãn,,,"https://www.google.com/maps/search/?api=1&query=21.0285801,105.8470046"
Bệnh viện Hữu nghị Việt Tiệp,public,,,,,,"https://www.google.com/maps/search/?api=1&query=20.8527135,106.671534"
Bệnh viện Hữu nghị Việt-Tiệp (cơ sở 2),public,,,,,,"https://www.google.com/maps/search/?api=1&query=20.8523276,106.6422656"
Bệnh viện Kiến An,public,,,,,,"https://www.google.com/maps/search/?api=1&query=20.7997512,106.6248889"
Bệnh viện Lao & Bệnh phổi tỉnh Tây Ninh,public,,,,,,"https://www.google.com/maps/search/?api=1&query=11.3134098,106.0616711"
Bệnh viện Lão khoa - Phục hồi chức năng Quảng Ninh,public,,,,,,"https://www.google.com/maps/search/?api=1&query=20.9849562,107.1987552"
Bệnh viện Lão khoa - Phục hồi chức năng tỉnh Quảng Ninh,public,,,,,,"https://www.google.com/maps/search/?api=1&query=20.9637297,106.938735"
Bệnh viện Lão khoa Phước Hải,public,,,,,,"https://www.google.com/maps/search/?api=1&query=20.4355122,106.3506328"
Bệnh viện Lao và Bệnh phổi Bạc Liêu,public,,,,,,"https://www.google.com/maps/search/?api=1&query=9.2967845,105.759088"
Bệnh viện Lao và Bệnh phổi Cà Mau,public,,,100 Hải Thượng Lãn Ông,,,"https://www.google.com/maps/search/?api=1&query=9.1717485,105.162727"
Bệnh viện Lao và Bệnh phổi Ninh Thuận,public,,,,,,"https://www.google.com/maps/search/?api=1&query=11.5643965,108.9814738"
Bệnh viện Lao và Bệnh phổi Quy Nhơn,public,,,7 ,,,"https://www.google.com/maps/search/?api=1&query=13.7985807,109.1688847"
Bệnh viện Lao và Bệnh phổi Thành phố Cần Thơ,public,,,,,,"https://www.google.com/maps/search/?api=1&query=10.1027793,105.6683896"
Bệnh viện Lao và Bệnh phổi Tiền Giang,public,,,,,,"https://www.google.com/maps/search/?api=1&query=10.394346,106.3110564"
Bệnh viện Lao và Bệnh phổi tỉnh Gia Lai,public,,,,,,"https://www.google.com/maps/search/?api=1&query=13.9992103,108.0558719"
Bệnh viện Lao và Bệnh phổi tỉnh Khánh Hoà,public,,,,,,"https://www.google.com/maps/search/?api=1&query=12.2777146,109.1879165"
Bệnh viện Lao và Bệnh phổi tỉnh Quảng Ngãi,public,,,,,,"https://www.google.com/maps/search/?api=1&query=15.1030479,108.7794526"
Bệnh Viện Lấp Vò,unclassified,,,,,,"https://www.google.com/maps/search/?api=1&query=10.3700563,105.5235929"
Bệnh viện Lê Văn Việt,private,,,387 Đường Lê Văn Việt,,,"https://www.google.com/maps/search/?api=1&query=10.8449005,106.7902318"
BỆNH VIỆN MẮT,public,,,Hẻm 458 Huỳnh Tấn Phát,,,"https://www.google.com/maps/search/?api=1&query=10.7441887,106.7275329"
Bệnh viện Mắt - Da liễu tỉnh Cà Mau,public,,,27 Hải Thượng Lãn Ông,,,"https://www.google.com/maps/search/?api=1&query=9.1728976,105.1601598"
Bệnh viện Mắt - Răng Hàm Mặt Thành phố Cần Thơ,public,,,,,,"https://www.google.com/maps/search/?api=1&query=10.038866,105.7861706"
Bệnh viện Mắt - Tai Mũi Họng - Răng Hàm Mặt An Giang,public,,,,,,"https://www.google.com/maps/search/?api=1&query=10.3874613,105.4396253"
Bệnh viện Mắt Bà Rịa - Vũng Tàu,public,,,,,,"https://www.google.com/maps/search/?api=1&query=10.5073775,107.1774461"
Bệnh viện Mắt Bắc Quảng Trị,public,,,,,,"https://www.google.com/maps/search/?api=1&query=17.4749688,106.605149"
Bệnh viện Mắt Đắk Lắk,public,,,90 Trần Phú,,,"https://www.google.com/maps/search/?api=1&query=12.6853068,108.0418187"
Bệnh viện Mắt Hà Giang,public,,,,,,"https://www.google.com/maps/search/?api=1&query=22.8190284,104.9837518"
Bệnh viện Mắt Hà Nam,public,,,,,,"https://www.google.com/maps/search/?api=1&query=20.5446146,105.9362355"
Bệnh viện Mắt Hà Nội (Cơ sở Hà Đông),public,,,2D Phố Nguyễn Viết Xuân,,,"https://www.google.com/maps/search/?api=1&query=20.9716065,105.7730029"
Bệnh viện Mắt Hà Nội (Trụ sở chính),public,,,37 Phố Hai Bà Trưng,,,"https://www.google.com/maps/search/?api=1&query=21.024085,105.8503409"
Bệnh viện Mắt Hà Tĩnh,public,,,,,,"https://www.google.com/maps/search/?api=1&query=18.3404191,105.8864931"
Bệnh viện Mắt Hải Phòng,public,,,,,,"https://www.google.com/maps/search/?api=1&query=20.8460344,106.6607809"
Bệnh viện Mắt Huế,public,,,Điềm Phùng Thị,,,"https://www.google.com/maps/search/?api=1&query=16.4731061,107.6041137"
Bệnh viện Mắt Nam Định,public,,,,,,"https://www.google.com/maps/search/?api=1&query=20.4497223,106.1817273"
Bệnh viện Mắt Nam Quảng Trị,public,,,309 Hùng Vương,,,"https://www.google.com/maps/search/?api=1&query=16.7950211,107.110313"
Bệnh viện Mắt Nghệ An,public,,,,,,"https://www.google.com/maps/search/?api=1&query=18.7115372,105.6788192"
Bệnh viện Mắt Phú Yên,public,,,,,,"https://www.google.com/maps/search/?api=1&query=13.0922983,109.3025702"
Bệnh viện Mắt Quảng Nam,public,,,,,,"https://www.google.com/maps/search/?api=1&query=15.6006719,108.4810964"
Bệnh Viện Mắt Sài Gòn,private,,,100 Lê Thị Riêng,,,"https://www.google.com/maps/search/?api=1&query=10.7713711,106.6909391"
Bệnh Viện Mắt Sài Gòn Cần Thơ,private,,,717 3 Tháng 2,+84 867010105,,"https://www.google.com/maps/search/?api=1&query=10.0095878,105.7520198"
Bệnh viện mắt Sài Gòn Hà Nội 1,private,,,532 đường Láng,,,"https://www.google.com/maps/search/?api=1&query=21.0115478,105.8104566"
Bệnh viện mắt Tây Nguyên,public,,,309 Ngô Quyền,,http://benhvienmattaynguyen.com.vn,"https://www.google.com/maps/search/?api=1&query=12.6946426,108.0616768"
Bệnh viện Mắt Thái Bình,public,,,,,,"https://www.google.com/maps/search/?api=1&query=20.4324169,106.3469496"
Bệnh viện Mắt Thái Nguyên,public,,,,,,"https://www.google.com/maps/search/?api=1&query=21.6015817,105.8240667"
Bệnh viện Mắt Thanh Hoá,public,,,,,,"https://www.google.com/maps/search/?api=1&query=19.7721193,105.7684007"
Bệnh viện Mắt Thành phố Hồ Chí Minh,public,,,,,,"https://www.google.com/maps/search/?api=1&query=10.7787242,106.6849361"
Bệnh viện Mắt tỉnh Gia Lai,public,,,78 Trần Hưng Đạo,,,"https://www.google.com/maps/search/?api=1&query=13.7736829,109.2402522"
Bệnh viện Mắt tỉnh Ninh Bình,public,,,,,,"https://www.google.com/maps/search/?api=1&query=20.2502379,105.9637031"
Bệnh viện Mắt tỉnh Phú Thọ,public,,,10 Đường Nguyễn Du,,,"https://www.google.com/maps/search/?api=1&query=21.3293182,105.3796957"
Bệnh viện Mắt tỉnh Sơn La,public,,,,,,"https://www.google.com/maps/search/?api=1&query=21.3511225,103.9111933"
Bệnh Viện Minh Đức,private,,,,,,"https://www.google.com/maps/search/?api=1&query=10.239841,106.3675547"
Bệnh viện Mỹ Tú,unclassified,,,,,,"https://www.google.com/maps/search/?api=1&query=9.634081,105.8114188"
Bệnh viện Ngọc Phú,private,,,,,,"https://www.google.com/maps/search/?api=1&query=10.7394843,106.6691079"
Bệnh viện Nguyễn Tri Phương,public,,,,,,"https://www.google.com/maps/search/?api=1&query=10.7551268,106.670238"
Bệnh viện Nhật Tân,private,,,,,,"https://www.google.com/maps/search/?api=1&query=10.70355,105.1259434"
Bệnh viện Nhi đồng Đồng Nai,public,,,,,,"https://www.google.com/maps/search/?api=1&query=10.9560457,106.8744746"
Bệnh viện Nhi đồng thành phố Cần Thơ,public,,,,,,"https://www.google.com/maps/search/?api=1&query=10.0167449,105.7394947"
Bệnh viện Nhi Hải Dương,public,,,,,,"https://www.google.com/maps/search/?api=1&query=20.9019231,106.2917202"
Bệnh viện Nhi Thái Bình,public,,,,,,"https://www.google.com/maps/search/?api=1&query=20.4323852,106.351416"
Bệnh viện Nhi Thanh Hoá,public,,,,,,"https://www.google.com/maps/search/?api=1&query=19.7753028,105.7740861"
Bệnh viện Nhi tỉnh Gia Lai,public,,,,,,"https://www.google.com/maps/search/?api=1&query=13.9890986,108.0417604"
Bệnh viện Nội tiết Nghệ An,public,,,11 Mai Hắc Đế,,,"https://www.google.com/maps/search/?api=1&query=18.693395,105.6738102"
Bệnh viện Nội tiết Thanh Hoá,public,,,,,,"https://www.google.com/maps/search/?api=1&query=19.7724899,105.7673693"
Bệnh viện Nội tiết tỉnh Lào Cai,public,,,,,,"https://www.google.com/maps/search/?api=1&query=22.4684527,103.9895904"
Bệnh viện Nội tiết tỉnh Quảng Ngãi,public,,,974 Quang Trung,,,"https://www.google.com/maps/search/?api=1&query=15.1069205,108.8111938"
Bệnh viện Nội tiết tỉnh Sơn La,public,,,,,,"https://www.google.com/maps/search/?api=1&query=21.3491646,103.9144227"
Bệnh viện Nội tiết tỉnh Yên Bái,public,,,,,,"https://www.google.com/maps/search/?api=1&query=21.7177327,104.8819776"
Bệnh viện Nội tiết Trung ương,public,,,80 Ngõ 82 Yên Lãng,,,"https://www.google.com/maps/search/?api=1&query=21.0123966,105.8150138"
Bệnh viện Phạm Ngọc Thạch,public,,,120 Đường Hồng Bàng,,,"https://www.google.com/maps/search/?api=1&query=10.7572199,106.6650519"
Bệnh viện Phạm Ngọc Thạch Quảng Nam,public,,,,,,"https://www.google.com/maps/search/?api=1&query=15.5983206,108.4792161"
Bệnh viện Phong - Da liễu Trung ương Quy Hòa,public,,,,,,"https://www.google.com/maps/search/?api=1&query=13.7220746,109.2150005"
Bệnh viện Phong - Da liễu Trung ương Quỳnh Lập,public,,,,,,"https://www.google.com/maps/search/?api=1&query=19.2617532,105.7727254"
Bệnh viện Phong - Da liễu Trung ương Quỳnh Lập (cơ sở 2),public,,,,,,"https://www.google.com/maps/search/?api=1&query=19.2613201,105.7151968"
Bệnh viện Phong và Da liễu tỉnh Sơn La,public,,,,,,"https://www.google.com/maps/search/?api=1&query=21.3480554,103.9129292"
Bệnh viện Phổi Bắc Giang,public,,,,,,"https://www.google.com/maps/search/?api=1&query=21.309805,106.1681552"
Bệnh viện Phổi Bình Thuận,public,,,,,,"https://www.google.com/maps/search/?api=1&query=10.9343327,108.0961539"
Bệnh viện Phổi Đà Nẵng,public,,,,,,"https://www.google.com/maps/search/?api=1&query=16.0480325,108.1705537"
Bệnh viện Phổi Đồng Tháp,public,,,,,,"https://www.google.com/maps/search/?api=1&query=10.4681022,105.709393"
Bệnh viện Phổi Hà Giang,public,,,,,,"https://www.google.com/maps/search/?api=1&query=22.815071,104.9859785"
Bệnh viện Phổi Hà Nam,public,,,,,,"https://www.google.com/maps/search/?api=1&query=20.5364736,105.9286833"
Bệnh viện Phổi Hà Tĩnh,public,,,,,,"https://www.google.com/maps/search/?api=1&query=18.366951,105.8998404"
Bệnh viện Phổi Hải Dương,public,,,1 Đường Thanh Bình,,,"https://www.google.com/maps/search/?api=1&query=20.9350963,106.302858"
Bệnh viện Phổi Hải Phòng,public,,,,,,"https://www.google.com/maps/search/?api=1&query=20.7907544,106.6168061"
Bệnh viện Phổi Kiên Giang,public,,,,,,"https://www.google.com/maps/search/?api=1&query=9.9254158,105.1441008"
Bệnh viện Phổi Lạng Sơn,public,,,,,,"https://www.google.com/maps/search/?api=1&query=21.8435942,106.7349865"
Bệnh viện Phổi Long An,public,,,,,,"https://www.google.com/maps/search/?api=1&query=10.518564,106.412216"
Bệnh viện Phổi Nam Định,public,,,,,,"https://www.google.com/maps/search/?api=1&query=20.4510657,106.1787905"
Bệnh viện Phổi Nghệ An,public,,,,,,"https://www.google.com/maps/search/?api=1&query=18.7487714,105.6431975"
Bệnh viện Phổi Phạm Hữu Chí,public,,,,,,"https://www.google.com/maps/search/?api=1&query=10.4829757,107.2418046"
Bệnh viện Phổi Quảng Ninh,public,,,,,,"https://www.google.com/maps/search/?api=1&query=20.9791078,107.0899468"
Bệnh viện Phổi Thái Bình,public,,,,,,"https://www.google.com/maps/search/?api=1&query=20.4263267,106.3332971"
Bệnh viện Phổi Thái Nguyên,public,,,,,,"https://www.google.com/maps/search/?api=1&query=21.5681806,105.8234295"
Bệnh viện Phổi Thanh Hoá,public,,,,,,"https://www.google.com/maps/search/?api=1&query=19.7523664,105.7586871"
Bệnh viện Phổi Thừa Thiên Huế,public,,,,,,"https://www.google.com/maps/search/?api=1&query=16.4916864,107.5692378"
Bệnh viện Phổi tỉnh Đắk Lắk,public,,,136 Nguyễn Thị Định,,,"https://www.google.com/maps/search/?api=1&query=12.6788979,108.0053661"
Bệnh viện Phổi tỉnh Điện Biên,public,,,,,,"https://www.google.com/maps/search/?api=1&query=21.3838729,103.0366189"
Bệnh viện Phổi tỉnh Đồng Nai,public,,,,,,"https://www.google.com/maps/search/?api=1&query=10.8754047,106.9189913"
Bệnh viện Phổi tỉnh Hậu Giang,public,,,,,,"https://www.google.com/maps/search/?api=1&query=9.7690015,105.4495313"
Bệnh viện Phổi tỉnh Lai Châu,public,,,,,,"https://www.google.com/maps/search/?api=1&query=22.3796184,103.4808958"
Bệnh viện Phổi tỉnh Ninh Bình,public,,,,,,"https://www.google.com/maps/search/?api=1&query=20.251154,105.9611132"
Bệnh viện Phổi tỉnh Phú Thọ,public,,,,,,"https://www.google.com/maps/search/?api=1&query=21.4012148,105.1935554"
Bệnh viện Phổi tỉnh Quảng Trị,public,,,,,,"https://www.google.com/maps/search/?api=1&query=16.7910441,107.0901427"
Bệnh viện Phổi tỉnh Sơn La,public,,,,,,"https://www.google.com/maps/search/?api=1&query=21.2140749,104.1086831"
Bệnh viện Phổi tỉnh Tuyên Quang,public,,,,,,"https://www.google.com/maps/search/?api=1&query=21.7798658,105.2032144"
Bệnh viện Phổi tỉnh Yên Bái,public,,,,,,"https://www.google.com/maps/search/?api=1&query=21.6839131,104.9043802"
Bệnh viện Phổi Vĩnh Long,public,,,,,,"https://www.google.com/maps/search/?api=1&query=10.2306371,105.9990337"
Bệnh viện Phụ sản - Nhi Đà Nẵng,public,,,Lê Văn Hiến,,,"https://www.google.com/maps/search/?api=1&query=16.0226987,108.2493906"
Bệnh viện Phụ sản An Đức,public,,,,,,"https://www.google.com/maps/search/?api=1&query=20.4362813,106.3515046"
Bệnh viện Phụ sản Âu Cơ,public,,,,,,"https://www.google.com/maps/search/?api=1&query=10.9629587,106.8867862"
Bệnh viện Phụ sản Hà Nội (cơ sở 2),public,,,38 Phố Cảm Hội,,,"https://www.google.com/maps/search/?api=1&query=21.0110832,105.8602894"
Bệnh viện Phụ sản Hải Dương,public,,,,,,"https://www.google.com/maps/search/?api=1&query=20.936305,106.3075236"
Bênh viện Phụ sản Hải Phòng,public,,,,,,"https://www.google.com/maps/search/?api=1&query=20.8596078,106.6830217"
Bệnh viện Phụ sản Hải Phòng (cơ sở 2),public,,,,,,"https://www.google.com/maps/search/?api=1&query=20.8684843,106.6426992"
Bệnh viện Phụ sản Mekong,public,,,,,,"https://www.google.com/maps/search/?api=1&query=10.7998479,106.6675233"
Bệnh viện Phụ sản Nam Định,public,,,,,,"https://www.google.com/maps/search/?api=1&query=20.4254585,106.1695285"
Bệnh viện phụ sản quốc tế Phương Châu,private,,,,,,"https://www.google.com/maps/search/?api=1&query=10.0303545,105.7513901"
Bệnh viện Phụ sản Thanh Hoá,public,,,,,,"https://www.google.com/maps/search/?api=1&query=19.7738314,105.7698995"
Bệnh viện Phụ sản thành phố Cần Thơ,public,,,106 Cách Mạng Tháng 8,,,"https://www.google.com/maps/search/?api=1&query=10.050819,105.7767315"
Bệnh viện phụ sản Vuông Tròn,public,,,,,,"https://www.google.com/maps/search/?api=1&query=10.3785311,105.4348273"
Bệnh viện phục hồi chức năng,public,,,35 Phố Lê Văn Thiêm,,,"https://www.google.com/maps/search/?api=1&query=20.9994521,105.8048434"
Bệnh viện Phục hồi chức năng Đồng Tháp,public,,,,,,"https://www.google.com/maps/search/?api=1&query=10.4674715,105.6365734"
Bệnh viện Phục hồi chức năng Hà Giang,public,,,,,,"https://www.google.com/maps/search/?api=1&query=22.6249928,104.9401786"
Bệnh viện Phục hồi chức năng Hà Tĩnh,public,,,,,,"https://www.google.com/maps/search/?api=1&query=18.3508558,105.9006582"
Bệnh viện Phục hồi chức năng Hải Dương,public,,,,,,"https://www.google.com/maps/search/?api=1&query=20.938139,106.3402724"
Bệnh viện Phục hồi chức năng Huế,public,,,93 Đặng Huy Trứ,,,"https://www.google.com/maps/search/?api=1&query=16.4454213,107.586548"
Bệnh viện Phục hồi chức năng Hưng Yên,public,,,,,,"https://www.google.com/maps/search/?api=1&query=20.445147,106.3519381"
Bệnh viện Phục hồi chức năng Hương Sen,public,,,,,,"https://www.google.com/maps/search/?api=1&query=21.8248938,105.2035646"
Bệnh viện Phục hồi chức năng Nam Định,public,,,,,,"https://www.google.com/maps/search/?api=1&query=20.0334878,106.2254564"
Bệnh viện Phục hồi chức năng Nghệ An,public,,,,,,"https://www.google.com/maps/search/?api=1&query=18.806787,105.7233763"
Bệnh viện Phục hồi chức năng Ninh Bình,public,,,,,,"https://www.google.com/maps/search/?api=1&query=20.1644541,105.9292251"
Bệnh viện Phục hồi chức năng Thái Nguyên,public,,,,,,"https://www.google.com/maps/search/?api=1&query=21.5957011,105.8503951"
Bệnh viện Phục hồi chức năng thành phố Đà Nẵng,public,,,,,,"https://www.google.com/maps/search/?api=1&query=16.0053318,108.2095449"
Bệnh viện Phục hồi chức năng tỉnh Đắk Lắk,public,,,,,,"https://www.google.com/maps/search/?api=1&query=13.1719582,109.2930044"
Bệnh viện Phục hồi chức năng tỉnh Lạng Sơn,public,,,,,,"https://www.google.com/maps/search/?api=1&query=21.8571255,106.752348"
Bệnh viện Phục hồi chức năng tỉnh Lào Cai,public,,,,,,"https://www.google.com/maps/search/?api=1&query=22.4705659,103.9875457"
Bệnh viện Phục hồi chức năng tỉnh Lâm Đồng,public,,,35 Hùng Vương,,,"https://www.google.com/maps/search/?api=1&query=11.9460869,108.4640367"
Bệnh viện Phục hồi chức năng tỉnh Sơn La,public,,,,,,"https://www.google.com/maps/search/?api=1&query=21.3557738,103.9092031"
Bệnh viện Phục hồi chức năng tỉnh Thanh Hoá,public,,,36 Tống Duy Tân,,,"https://www.google.com/maps/search/?api=1&query=19.7419512,105.9022782"
Bệnh viện Phục hồi chức năng tỉnh Thừa Thiên Huế (cơ sở 2),public,,,30 Tô Hiến Thành,,,"https://www.google.com/maps/search/?api=1&query=16.4782668,107.5880794"
Bệnh viện Phục hồi chức năng Vĩnh Phúc,public,,,,,,"https://www.google.com/maps/search/?api=1&query=21.2879107,105.5916586"
Bệnh viện Phước An,private,,,,,,"https://www.google.com/maps/search/?api=1&query=10.7532099,106.7000398"
Bệnh viện Quận 1 (cơ sở 2),public,,,235-237 Trần Hưng Ðạo,,,"https://www.google.com/maps/search/?api=1&query=10.7651115,106.6932273"
Bệnh viện Quân Dân Y,public,,,,,,"https://www.google.com/maps/search/?api=1&query=10.5080898,107.1941958"
Bệnh viện Quân dân y 16,public,,,,,,"https://www.google.com/maps/search/?api=1&query=11.523893,106.9225756"
Bệnh viện Quân dân y Bạc Liêu,public,,,,,,"https://www.google.com/maps/search/?api=1&query=9.2963873,105.6978656"
Bệnh viện Quân dân y Cà Mau,public,,,,,,"https://www.google.com/maps/search/?api=1&query=9.1778519,105.1603558"
Bệnh viện Quân dân y Đồng Tháp,public,,,,,,"https://www.google.com/maps/search/?api=1&query=10.4670558,105.6357284"
Bệnh viện Quân Dân y Miền Đông,public,,,50 Đường Lê Văn Việt,,,"https://www.google.com/maps/search/?api=1&query=10.8448592,106.7777477"
Bệnh viện Quân dân y thành phố Cần Thơ,public,,,,,,"https://www.google.com/maps/search/?api=1&query=10.085633,105.434759"
Bệnh viện Quân dân y tỉnh Sóc Trăng,public,,,,,,"https://www.google.com/maps/search/?api=1&query=9.5912066,105.9653945"
Bệnh viện Quân dân y tỉnh Trà Vinh,public,,,,,,"https://www.google.com/maps/search/?api=1&query=9.9286503,106.3328979"
Bênh viện Quân Y,public,,,,,,"https://www.google.com/maps/search/?api=1&query=13.0969173,109.3148522"
Bệnh viện Quân y 105,public,,,,,,"https://www.google.com/maps/search/?api=1&query=21.1154934,105.4973292"
bệnh viện quân y 108,public,,,,,,"https://www.google.com/maps/search/?api=1&query=20.6739919,105.3161392"
Bệnh viện Quân y 109,public,,,,,,"https://www.google.com/maps/search/?api=1&query=21.3002973,105.5789398"
Bệnh viện Quân y 13,public,,,,,,"https://www.google.com/maps/search/?api=1&query=13.7505205,109.2138587"
Bệnh viện Quân y 15,public,,,,,,"https://www.google.com/maps/search/?api=1&query=14.038424,107.9768342"
Bệnh viện Quân y 211,public,,,,,,"https://www.google.com/maps/search/?api=1&query=14.0126257,107.9955207"
Bệnh viên Quân y 4,public,,,,,,"https://www.google.com/maps/search/?api=1&query=10.8895125,106.741575"
Bệnh viện Quân y 5,public,,,,,,"https://www.google.com/maps/search/?api=1&query=20.2512317,105.9689796"
Bệnh viện Quân y 6,public,,,,,,"https://www.google.com/maps/search/?api=1&query=21.2962676,103.9534494"
Bệnh viện Quân y 7,public,,,,,,"https://www.google.com/maps/search/?api=1&query=20.9423319,106.3258008"
Bệnh viện Quân y 7A,public,,,,,,"https://www.google.com/maps/search/?api=1&query=10.7557703,106.6707327"
Bệnh viện Quân y 87,public,,,,,,"https://www.google.com/maps/search/?api=1&query=12.2307449,109.1948779"
Bệnh viện Quân y 91,public,,,,,,"https://www.google.com/maps/search/?api=1&query=21.4121815,105.8601562"
Bệnh viện Quân y C17,public,,,,,,"https://www.google.com/maps/search/?api=1&query=16.0542165,108.2073008"
Bệnh viện Quốc tế Hạnh Phúc,private,,,,+84 650 3636068,https://www.hanhphuchospital.com/,"https://www.google.com/maps/search/?api=1&query=10.8678097,106.7142927"
Bệnh viện Quốc tế Hoàn Mỹ Đồng Nai,private,,,,,,"https://www.google.com/maps/search/?api=1&query=10.9581894,106.8472751"
Bệnh Viện Quốc Tế Minh Anh,private,,,,,,"https://www.google.com/maps/search/?api=1&query=10.747644,106.6143869"
Bệnh viện Quốc tế Thành Đô,private,,,,,,"https://www.google.com/maps/search/?api=1&query=10.741251,106.6092346"
bệnh viện quốc tế VINMEC,private,,,30 Tháng 4,,,"https://www.google.com/maps/search/?api=1&query=16.0387848,108.2112894"
Bệnh viện Răng Hàm Mặt Huế,public,,,83 Nguyễn Huệ,,,"https://www.google.com/maps/search/?api=1&query=16.4589498,107.5939899"
Bệnh Viện Răng Hàm Mặt Nghệ An,public,,,,,,"https://www.google.com/maps/search/?api=1&query=18.7102728,105.6769964"
Bệnh viện Răng Hàm Mặt Thành phố Hồ Chí Minh,public,,,263 - 265 Đường Trần Hưng Ðạo,02838360191,,"https://www.google.com/maps/search/?api=1&query=10.763482,106.691909"
Bệnh Viện Sài Gòn ITO,private,,,,,,"https://www.google.com/maps/search/?api=1&query=10.7950017,106.6672345"
Bệnh viện Sản - Nhi An Giang,public,,,,,,"https://www.google.com/maps/search/?api=1&query=10.3869457,105.4386071"
Bệnh viện Sản - Nhi Cà Mau,public,,,85 Lý Thường Kiệt,,,"https://www.google.com/maps/search/?api=1&query=9.1745878,105.155094"
Bệnh viện Sản - Nhi Kiên Giang,public,,,,,,"https://www.google.com/maps/search/?api=1&query=9.9731787,105.0982706"
Bệnh viện Sản - Nhi tỉnh Đắk Lắk,public,,,,,,"https://www.google.com/maps/search/?api=1&query=13.090568,109.3185582"
Bệnh viện Sản - Nhi tỉnh Lâm Đồng,public,,,57 Thánh Mẫu,,,"https://www.google.com/maps/search/?api=1&query=11.9730232,108.4344153"
Bệnh viện Sản - Nhi tỉnh Ninh Bình,public,,,,,,"https://www.google.com/maps/search/?api=1&query=20.2418587,105.9649467"
Bệnh viện Sản - Nhi tỉnh Quảng Ngãi,public,,,,,,"https://www.google.com/maps/search/?api=1&query=15.1201368,108.789826"
Bệnh viện Sản - Nhi tỉnh Yên Bái,public,,,721 Đường Yên Ninh,,,"https://www.google.com/maps/search/?api=1&query=21.7271262,104.8932764"
Bệnh viện Sản Nhi Nghệ An,public,,,,,,"https://www.google.com/maps/search/?api=1&query=18.6817991,105.7023591"
Bệnh viện Sản Nhi Quảng Ninh,public,,,,,,"https://www.google.com/maps/search/?api=1&query=20.9651615,106.9365849"
Bệnh viện Sản Nhi tỉnh Hậu Giang,public,,,,,,"https://www.google.com/maps/search/?api=1&query=9.7893381,105.4457822"
Bệnh viện Sản Nhi tỉnh Lào Cai,public,,,1 Đường Võ Nguyên Giáp,,,"https://www.google.com/maps/search/?api=1&query=22.4401635,104.0312103"
Bệnh viện Sản Nhi tỉnh Phú Thọ,public,,,,,,"https://www.google.com/maps/search/?api=1&query=21.3360123,105.3853515"
Bệnh viện Sản nhi TWG Long An,public,,,,,,"https://www.google.com/maps/search/?api=1&query=10.519945,106.4202166"
Bệnh viện Sản Nhi Vĩnh Phúc,public,,,,,,"https://www.google.com/maps/search/?api=1&query=21.2829889,105.5427175"
Bệnh viện Sông Hồng,public,,,,,,"https://www.google.com/maps/search/?api=1&query=20.9832401,105.9231751"
Bệnh viện Suối khoáng Mỹ Lâm,unclassified,,,,,,"https://www.google.com/maps/search/?api=1&query=21.7685878,105.1266002"
Bệnh viện Sức khỏe Tâm thần Bà Rịa - Vũng Tàu,public,,,,,,"https://www.google.com/maps/search/?api=1&query=10.5854118,107.2356645"
Bệnh viện Sức khoẻ tâm thần Quảng Ninh,public,,,,,,"https://www.google.com/maps/search/?api=1&query=20.9872501,107.2033032"
Bệnh viện Sức khỏe tâm thần Thái Bình,public,,,,,,"https://www.google.com/maps/search/?api=1&query=20.4331896,106.347822"
Bệnh viện Tai Mũi Họng Thành phố Hồ Chí Minh,public,,,153-155-157 Đường Trần Quốc Thảo,,,"https://www.google.com/maps/search/?api=1&query=10.7843261,106.683944"
Bệnh viện Tai-Mũi-Họng Thành phố Cần Thơ,public,,,,,,"https://www.google.com/maps/search/?api=1&query=10.0348915,105.7756919"
Bệnh viện Tâm Thần Bà Rịa,public,,,,,,"https://www.google.com/maps/search/?api=1&query=10.6092916,107.0824568"
Bệnh viện Tâm thần ban ngày Mai Hương,public,,,Phố Hồng Mai,,,"https://www.google.com/maps/search/?api=1&query=20.9987722,105.8512988"
Bệnh viện Tâm thần Đồng Tháp,public,,,,,,"https://www.google.com/maps/search/?api=1&query=10.4671098,105.7088686"
Bệnh viện Tâm thần Hà Nam,public,,,,,,"https://www.google.com/maps/search/?api=1&query=20.5160002,105.9538931"
Bệnh viện Tâm thần Hà Tĩnh,public,,,,,,"https://www.google.com/maps/search/?api=1&query=18.3679349,105.9010212"
Bệnh viện Tâm thần Hải Dương,public,,,,,,"https://www.google.com/maps/search/?api=1&query=20.8891817,106.2968593"
Bệnh viện Tâm thần Hải Phòng,public,,,,,,"https://www.google.com/maps/search/?api=1&query=20.8501459,106.7011021"
Bệnh viện Tâm thần Hải Phòng (khu 2),public,,,,,,"https://www.google.com/maps/search/?api=1&query=20.8505849,106.7003635"
Bệnh viện Tâm thần Huế,public,,,39 Phạm Thị Liên,,,"https://www.google.com/maps/search/?api=1&query=16.4639981,107.5602448"
Bệnh viện Tâm thần Kiên Giang,public,,,,,,"https://www.google.com/maps/search/?api=1&query=9.9264894,105.1450111"
Bệnh viện Tâm thần Nam Định (khu B),public,,,68 Đường Đệ Tứ,,,"https://www.google.com/maps/search/?api=1&query=20.4541409,106.1825722"
Bệnh viện Tâm thần Quảng Nam,public,,,,,,"https://www.google.com/maps/search/?api=1&query=15.5992043,108.4800799"
Bệnh viện Tâm thần Quy Nhơn,public,,,,,,"https://www.google.com/maps/search/?api=1&query=13.7972991,109.1688284"
Bệnh viện Tâm thần Tây Ninh,public,,,,,,"https://www.google.com/maps/search/?api=1&query=10.5342264,106.4271642"
Bệnh viện Tâm thần Thái Nguyên,public,,,,,,"https://www.google.com/maps/search/?api=1&query=21.5624841,105.8153644"
Bệnh viện Tâm thần Thanh Hoá,public,,,,,,"https://www.google.com/maps/search/?api=1&query=19.7716755,105.7685917"
Bệnh viện Tâm thần Thành phố Cần Thơ,public,,,,,,"https://www.google.com/maps/search/?api=1&query=10.1024149,105.6699702"
Bệnh viện Tâm thần thành phố Đà Nẵng,public,,,193 Nguyễn Lương Bằng,,,"https://www.google.com/maps/search/?api=1&query=16.0795422,108.1459188"
Bệnh viện Tâm thần Tiền Giang,public,,,,,,"https://www.google.com/maps/search/?api=1&query=10.4013008,106.2314867"
Bệnh viện Tâm thần Tỉnh Bà Rịa-Vũng Tàu,public,,,,,,"https://www.google.com/maps/search/?api=1&query=10.6235086,107.2379831"
Bệnh viện Tâm thần tỉnh Đắk Lắk,public,,,134 Nguyễn Thị Định,,,"https://www.google.com/maps/search/?api=1&query=12.6795757,108.0053949"
Bệnh viện Tâm thần tỉnh Điện Biên,public,,,,,,"https://www.google.com/maps/search/?api=1&query=21.3837456,103.03623"
Bệnh viện Tâm thần tỉnh Ninh Bình,public,,,,,,"https://www.google.com/maps/search/?api=1&query=20.2501073,105.9613064"
Bệnh viện Tâm thần tỉnh Phú Thọ,public,,,,,,"https://www.google.com/maps/search/?api=1&query=21.3968582,105.2170251"
Bệnh viện Tâm thần tỉnh Quảng Ngãi,public,,,,,,"https://www.google.com/maps/search/?api=1&query=15.1063161,108.7904633"
Bệnh viện Tâm thần tỉnh Sơn La,public,,,,,,"https://www.google.com/maps/search/?api=1&query=21.3096758,103.9124289"
Bệnh viện Tâm thần tỉnh Yên Bái,public,,,,,,"https://www.google.com/maps/search/?api=1&query=21.7283246,104.8927038"
Bệnh Viện Tâm Thần tp. Cần thơ,public,,,3 Tháng 2,,,"https://www.google.com/maps/search/?api=1&query=10.0130976,105.7570655"
Bệnh viện Tâm thần Trung ương 1,public,,,,,,"https://www.google.com/maps/search/?api=1&query=20.8711493,105.8438433"
Bệnh viện Tâm thần Vĩnh Long,public,,,,,,"https://www.google.com/maps/search/?api=1&query=10.2303468,105.9984181"
Bệnh viện Tâm thần Vĩnh Phúc,public,,,,,,"https://www.google.com/maps/search/?api=1&query=21.3397264,105.5922555"
Bệnh viện Tân Trụ,unclassified,,,,,,"https://www.google.com/maps/search/?api=1&query=10.5199682,106.516807"
bệnh viện Thái Bình Dương,unclassified,,,,,,"https://www.google.com/maps/search/?api=1&query=15.5769209,108.4651935"
Bệnh viện Than - Khoáng sản,public,,,Ngõ 1 Phan Đình Giót,,,"https://www.google.com/maps/search/?api=1&query=20.9887265,105.8393028"
Bệnh viện Than Vàng Danh,public,,,,,,"https://www.google.com/maps/search/?api=1&query=21.098476,106.7936742"
Bệnh viện Thành phố Tây Ninh,public,,,,,,"https://www.google.com/maps/search/?api=1&query=11.3085891,106.0956805"
Bệnh viện Thanh Vũ Bạc Liêu,unclassified,,,,,,"https://www.google.com/maps/search/?api=1&query=9.3118109,105.7146461"
Bệnh viện Thể thao Việt Nam,public,,,,,,"https://www.google.com/maps/search/?api=1&query=21.0231218,105.7614767"
Bệnh viện Tim mạch An Giang,public,,,,,,"https://www.google.com/maps/search/?api=1&query=10.3892417,105.4386154"
Bệnh viện Tim mạch Thành phố Cần Thơ,public,,,,,,"https://www.google.com/maps/search/?api=1&query=10.0353925,105.7749967"
Bệnh viện Tim Tâm Đức,unclassified,,,,,,"https://www.google.com/maps/search/?api=1&query=10.7334899,106.7177983"
Bệnh viện Tĩnh Túc,public,,,,,,"https://www.google.com/maps/search/?api=1&query=22.6510293,105.8891007"
Bệnh viện Trẻ em Hải Phòng,public,,,,,,"https://www.google.com/maps/search/?api=1&query=20.831477,106.6613028"
Bệnh viện Truyền máu - Huyết học (cơ sở 2),public,,,1 Trần Hữu Nghiệp,,,"https://www.google.com/maps/search/?api=1&query=10.7093154,106.5760857"
Bệnh viện Truyền máu Huyết học,public,,,118 Đường Hồng Bàng,,,"https://www.google.com/maps/search/?api=1&query=10.7565034,106.6658762"
Bệnh viện Trường Đại học Y Dược Cần Thơ,public,,,,,,"https://www.google.com/maps/search/?api=1&query=10.0346617,105.7552941"
Bệnh viện Tuệ Tĩnh,public,,,,,,"https://www.google.com/maps/search/?api=1&query=20.984612,105.7928536"
Bệnh Viện Tuy Phong,unclassified,,,Hải Thượng Lãn ông nối dài,,,"https://www.google.com/maps/search/?api=1&query=11.2287571,108.7278198"
Bệnh viện Từ Dũ,public,,,284 Cống Quỳnh,,,"https://www.google.com/maps/search/?api=1&query=10.7688942,106.6860103"
Bệnh viện Từ Dũ - Cơ sở 2,public,,,Lương Văn Nho,,,"https://www.google.com/maps/search/?api=1&query=10.4043915,106.937643"
Bệnh viện Từ Dũ (khu M),public,,,227 Cống Quỳnh,,,"https://www.google.com/maps/search/?api=1&query=10.7678651,106.6847646"
Bệnh viện Ung bướu Đà Nẵng,public,,,,,,"https://www.google.com/maps/search/?api=1&query=16.0697057,108.1639233"
Bệnh viện Ung bướu Kiên Giang,public,,,,,,"https://www.google.com/maps/search/?api=1&query=9.9693406,105.0999938"
Bệnh viện Ung bướu Nghệ An,public,,,,,,"https://www.google.com/maps/search/?api=1&query=18.684257,105.7004094"
Bệnh viện Ung bướu thành phố Cần Thơ,public,,,4 Châu Văn Liêm,,,"https://www.google.com/maps/search/?api=1&query=10.0307947,105.7832917"
Bệnh viện Ung bướu Thành phố Cần Thơ (cơ sở 2),public,,,20 Trần Bình Trọng,02923835979,,"https://www.google.com/maps/search/?api=1&query=10.0349551,105.7777595"
Bệnh viện Ung bướu tỉnh Khánh Hoà,public,,,,,,"https://www.google.com/maps/search/?api=1&query=12.2781479,109.1814538"
Bệnh viện Ung bướu tỉnh Thanh Hoá,public,,,,,,"https://www.google.com/maps/search/?api=1&query=19.766714,105.7747351"
Bệnh viện Vạn Hạnh,private,,,,,,"https://www.google.com/maps/search/?api=1&query=10.7718189,106.6713752"
Bệnh viện Vạn Phúc 2,unclassified,,,,,,"https://www.google.com/maps/search/?api=1&query=10.9793138,106.7398569"
Bệnh Viện Văn Cao,unclassified,,,207 Văn Cao ,,,"https://www.google.com/maps/search/?api=1&query=20.8345398,106.7019663"
Bệnh viện Việt Nam - Cuba,unclassified,,,37 Phố Hai Bà Trưng,,,"https://www.google.com/maps/search/?api=1&query=21.0246213,105.8502197"
Bệnh viện Việt Nam - Thụy Điển Uông Bí,public,,,Tuệ Tĩnh,,,"https://www.google.com/maps/search/?api=1&query=21.0418401,106.7517963"
Bệnh viện Xây dựng Việt Trì,public,,,,,,"https://www.google.com/maps/search/?api=1&query=21.3070025,105.4147726"
Bệnh viện Y dược cổ truyền - Phục hồi chức năng Kon Tum,public,,,473 Nguyễn Huệ,,,"https://www.google.com/maps/search/?api=1&query=14.344555,108.0100401"
Bệnh viện Y dược cổ truyền - Phục hồi chức năng Kon Tum (cơ sở 2),public,,,,,,"https://www.google.com/maps/search/?api=1&query=14.3232549,108.0006307"
Bệnh viện Y Dược cổ truyền - Phục hồi chức năng tỉnh Cà Mau,public,,,,,,"https://www.google.com/maps/search/?api=1&query=9.1917159,105.1271421"
Bệnh viện Y dược cổ truyền - Phục hồi chức năng tỉnh Kon Tum (cơ sở 3),public,,,,,,"https://www.google.com/maps/search/?api=1&query=14.3399214,107.9742097"
Bệnh viện Y dược cổ truyền Hà Giang,public,,,,,,"https://www.google.com/maps/search/?api=1&query=22.8415851,105.0089027"
Bệnh viện Y dược cổ truyền Quảng Ninh,public,,,,,,"https://www.google.com/maps/search/?api=1&query=20.9512119,107.1313401"
Bệnh viện Y dược cổ truyền tỉnh Đồng Nai,public,,,,,,"https://www.google.com/maps/search/?api=1&query=10.9746482,106.8485973"
Bệnh viện Y dược cổ truyền tỉnh Sơn La,public,,,,,,"https://www.google.com/maps/search/?api=1&query=21.3550095,103.909415"
Bệnh viện Y dược cổ truyền tỉnh Tuyên Quang,public,,,,,,"https://www.google.com/maps/search/?api=1&query=21.8304934,105.2044278"
Bệnh viện Y Dược cổ truyền và Phục hồi chức năng tỉnh Gia Lai,public,,,,,,"https://www.google.com/maps/search/?api=1&query=13.9890496,108.0261058"
Bệnh viện Y dược cổ truyền và Phục hồi chức năng tỉnh Phú Thọ,public,,,,,,"https://www.google.com/maps/search/?api=1&query=21.3202832,105.3984383"
Bệnh viện Y dược cổ truyền Vĩnh Long,public,,,,,,"https://www.google.com/maps/search/?api=1&query=10.2512465,105.9786407"
Bệnh viện Y dược cổ truyền Vĩnh Phúc,public,,,,,,"https://www.google.com/maps/search/?api=1&query=21.3201259,105.5904044"
Bênh viện Y học Cổ truyền,public,,,187 Nguyễn Đức Cảnh,,,"https://www.google.com/maps/search/?api=1&query=20.8543991,106.6741672"
Bệnh viện Y học cổ truyền - Phục hồi chức năng Bình Thuận,public,,,,,,"https://www.google.com/maps/search/?api=1&query=10.9409376,108.1231309"
Bệnh viện Y học cổ truyền - Phục hồi chức năng tỉnh Điện Biên,public,,,,,,"https://www.google.com/maps/search/?api=1&query=21.383614,103.02396"
Bệnh viện Y học cổ truyền Bà Rịa-Vũng Tàu,public,,,,,,"https://www.google.com/maps/search/?api=1&query=10.5130275,107.1954528"
Bệnh viện Y học cổ truyền Bảo Lộc,public,,,38 Phạm Ngọc Thạch,,,"https://www.google.com/maps/search/?api=1&query=11.5448334,107.8238324"
Bệnh viện Y học cổ truyền Bình Dương,public,,,2 BS Yersin,,,"https://www.google.com/maps/search/?api=1&query=10.980771,106.6577829"
Bệnh viện Y học cổ truyền Bình Phước,public,,,,,,"https://www.google.com/maps/search/?api=1&query=11.5358471,106.9102616"
Bệnh viện Y học cổ truyền Cao Bằng,public,,,,,,"https://www.google.com/maps/search/?api=1&query=22.6563056,106.2627419"
Bệnh viện Y học cổ truyền Đồng Tháp,public,,,,,,"https://www.google.com/maps/search/?api=1&query=10.4645275,105.6294433"
Bệnh viện Y học cổ truyền Hà Đông,public,,,,,,"https://www.google.com/maps/search/?api=1&query=20.9708813,105.7715441"
Bệnh viện Y học cổ truyền Hà Nam,public,,,,,,"https://www.google.com/maps/search/?api=1&query=20.544391,105.9373553"
Bệnh viện Y học cổ truyền Hà Tĩnh,public,,,,,,"https://www.google.com/maps/search/?api=1&query=18.3553759,105.8851231"
Bệnh viện Y học cổ truyền Hải Dương,public,,,,,,"https://www.google.com/maps/search/?api=1&query=20.9232249,106.3309588"
Bệnh viện Y học cổ truyền Hải Phòng,public,,,,,,"https://www.google.com/maps/search/?api=1&query=20.8533399,106.6410126"
Bệnh viện Y học cổ truyền Hòa Bình,public,,,,,,"https://www.google.com/maps/search/?api=1&query=20.8239952,105.3546013"
Bệnh viện Y học cổ truyền Lai Châu,public,,,316 Đường Trần Hưng Đạo,,,"https://www.google.com/maps/search/?api=1&query=22.4005356,103.450137"
Bệnh viện Y học cổ truyền Nam Định,public,,,,,,"https://www.google.com/maps/search/?api=1&query=20.4488063,106.1808666"
Bệnh viện Y học cổ truyền Nghệ An,public,,,,,,"https://www.google.com/maps/search/?api=1&query=18.6876752,105.6959739"
Bệnh viện Y học cổ truyền Ninh Thuận,public,,,,,,"https://www.google.com/maps/search/?api=1&query=11.5832067,109.003822"
Bệnh viện Y học cổ truyền Phạm Ngọc Thạch,public,,,49 Quang Trung,,,"https://www.google.com/maps/search/?api=1&query=11.9481144,108.4594477"
Bệnh viện Y học cổ truyền Phú Yên,public,,,399 Lê Duẩn,,,"https://www.google.com/maps/search/?api=1&query=13.1048135,109.3118486"
Bệnh viện Y học cổ truyền Quảng Nam,public,,,,,,"https://www.google.com/maps/search/?api=1&query=15.5739565,108.4771455"
Bệnh viện Y học cổ truyền Thái Bình,public,,,,,,"https://www.google.com/maps/search/?api=1&query=20.4421642,106.3407174"
Bệnh viện Y học cổ truyền Thái Nguyên,public,,,,,,"https://www.google.com/maps/search/?api=1&query=21.5725184,105.813075"
Bệnh viện Y học cổ truyền thành phố Cần Thơ,public,,,768 Đường 30 Tháng 4,+84 7103838050,,"https://www.google.com/maps/search/?api=1&query=10.0127399,105.7584454"
Bệnh viện Y học cổ truyền thành phố Đà Nẵng,public,,,,,,"https://www.google.com/maps/search/?api=1&query=16.0057641,108.2106405"
Bệnh viện Y học cổ truyền thành phố Đà Nẵng (cơ sở 2),public,,,51 Đường Trần Quốc Toản,,,"https://www.google.com/maps/search/?api=1&query=16.0660463,108.2220718"
Bệnh viện Y học cổ truyền Thành phố Hồ Chí Minh,public,,,179-187 Đường Nam Kỳ Khởi Nghĩa,,,"https://www.google.com/maps/search/?api=1&query=10.7855497,106.6878673"
Bệnh viện Y học cổ truyền Tiền Giang,public,,,,,,"https://www.google.com/maps/search/?api=1&query=10.3565242,106.3655355"
Bệnh viện Y học cổ truyền tỉnh Bắc Giang,public,,,,,,"https://www.google.com/maps/search/?api=1&query=21.2908364,106.1998552"
Bệnh viện Y học cổ truyền tỉnh Đắk Lắk,public,,,7 Đường Nguyễn Chí Thanh,,,"https://www.google.com/maps/search/?api=1&query=12.695862,108.0667551"
Bệnh viện Y học cổ truyền tỉnh Lạng Sơn,public,,,,,,"https://www.google.com/maps/search/?api=1&query=21.9013111,106.740939"
Bệnh viện Y học cổ truyền tỉnh Lào Cai,public,,,,,,"https://www.google.com/maps/search/?api=1&query=22.4700344,103.989802"
Bệnh viện Y học cổ truyền tỉnh Ninh Bình,public,,,,,,"https://www.google.com/maps/search/?api=1&query=20.2676133,105.9676861"
Bệnh viện Y học cổ truyền tỉnh Quảng Ngãi,public,,,,,,"https://www.google.com/maps/search/?api=1&query=15.1203762,108.7891685"
Bệnh viện Y học cổ truyền tỉnh Thanh Hoá,public,,,,,,"https://www.google.com/maps/search/?api=1&query=19.8147941,105.7822561"
Bệnh viện Y học cổ truyền tỉnh Thừa Thiên Huế,public,,,322 Đường Nguyễn Trãi,,,"https://www.google.com/maps/search/?api=1&query=16.4806969,107.5634871"
Bệnh viện Y học cổ truyền tỉnh Yên Bái,public,,,,,,"https://www.google.com/maps/search/?api=1&query=21.727391,104.8938946"
Bệnh viện Y học cổ truyền và Phục hồi chức năng Bắc Quảng Trị,public,,,Trần Quang Khải,,,"https://www.google.com/maps/search/?api=1&query=17.4756319,106.6051418"
Bệnh viện Y học cổ truyền và Phục hồi chức năng Nam Quảng Trị,public,,,,,,"https://www.google.com/maps/search/?api=1&query=17.0216145,107.1087626"
Bệnh viện Y học cổ truyền và Phục hồi chức năng Quy Nhơn,public,,,,,,"https://www.google.com/maps/search/?api=1&query=13.7947713,109.1779608"
Bệnh viện Y Tế Phúc Thái,unclassified,,,,,,"https://www.google.com/maps/search/?api=1&query=21.4535845,105.862155"
Bệnh Viện YHCT Trần Văn An,unclassified,,,,,,"https://www.google.com/maps/search/?api=1&query=10.2453373,106.3628742"
Bệnh xá Quân Y,public,,,,,,"https://www.google.com/maps/search/?api=1&query=10.2324047,105.9577332"
BV Binh Thuan,unclassified,,,69 Trần Quý Cáp,,,"https://www.google.com/maps/search/?api=1&query=10.9176855,108.0847481"
BV Đa Khoa Bình Minh,public,,,,,,"https://www.google.com/maps/search/?api=1&query=10.0715006,105.8238355"
BV đa khoa Hải An,public,,,,,,"https://www.google.com/maps/search/?api=1&query=20.8249116,106.7094167"
BV Đa khoa Thạnh Hóa,public,,,,,,"https://www.google.com/maps/search/?api=1&query=10.6555528,106.1899956"
BV Thượng Lý,unclassified,,,,,,"https://www.google.com/maps/search/?api=1&query=20.8593941,106.6660764"
CI Hospital,unclassified,,,,,,"https://www.google.com/maps/search/?api=1&query=10.7403535,106.6077583"
Columbia Asia Hospital,private,,,Đường 22 Tháng 12,,,"https://www.google.com/maps/search/?api=1&query=10.9507189,106.7070657"
Columbia Asia Saigon,private,,,8 Alexandre de Rhodes,,,"https://www.google.com/maps/search/?api=1&query=10.7795758,106.6965213"
Cong Ty CP Benh Vien Da Khoa Hoa Xuan,public,,,,,,"https://www.google.com/maps/search/?api=1&query=16.0681938,108.2013645"
District Hospital,unclassified,,,,,,"https://www.google.com/maps/search/?api=1&query=20.945738,105.6170104"
Duck's Hospital,unclassified,,,,,,"https://www.google.com/maps/search/?api=1&query=21.0662593,105.7819381"
Hoan My General Hospital,unclassified,,,Nguyễn Văn Linh,,,"https://www.google.com/maps/search/?api=1&query=16.059401,108.2098753"
Hopital,unclassified,,,,,,"https://www.google.com/maps/search/?api=1&query=16.5519586,107.4406861"
Hospital VINMEC,private,,,42А Trần Phú,+842583900168,,"https://www.google.com/maps/search/?api=1&query=12.2126611,109.2107927"
Hospitals MEDIC Ca Mau,unclassified,,,,,,"https://www.google.com/maps/search/?api=1&query=9.1888697,105.171771"
Hội Chữ Thập Đỏ Việt Nam Thành Phố Cần Thơ,public,,,,02923820963,https://chuthapdocantho.org.vn/,"https://www.google.com/maps/search/?api=1&query=10.0443305,105.7789192"
Hội Đông Y,unclassified,,,,,,"https://www.google.com/maps/search/?api=1&query=10.0296653,105.7762811"
Khu Điều Trị,unclassified,,,,0263 607 736,,"https://www.google.com/maps/search/?api=1&query=22.6567563,106.2622083"
Lang Co Hospital,unclassified,,,,,,"https://www.google.com/maps/search/?api=1&query=16.2367913,108.078659"
Nguyễn Hồng Trang ( Kế Toán Trưởng BV Cư Jut,unclassified,,,80B Hai Bà Trungw,,,"https://www.google.com/maps/search/?api=1&query=12.5828235,107.9002105"
Nhà hộ sinh Đống Đa,unclassified,,,,,,"https://www.google.com/maps/search/?api=1&query=21.0169494,105.8332492"
Nha Khoa,unclassified,,,,,,"https://www.google.com/maps/search/?api=1&query=21.0651797,105.7628554"
Nha khoa quốc tế,private,,,,,,"https://www.google.com/maps/search/?api=1&query=20.8478209,106.6716269"
Pacific Hospital,unclassified,,,,,,"https://www.google.com/maps/search/?api=1&query=15.8843233,108.3280358"
Phòng Khám Đa Khoa An Phúc,private,,,502-504 Đường Nguyễn Chí Thanh,,,"https://www.google.com/maps/search/?api=1&query=10.7587193,106.6621153"
Phòng khám đa khoa Bệnh viện Đại học Y Hà Nội - Cơ sở Cầu Giấy,private,,,10 phố Trương Công Giai,,,"https://www.google.com/maps/search/?api=1&query=21.0350951,105.7910343"
Phòng Khám Đa Khoa Hữu Nghị,private,,,501-503 Đường số 5,,,"https://www.google.com/maps/search/?api=1&query=10.848021,106.6783081"
Phòng khám Đa khoa Quân dân y Tiền Giang,private,,,,,,"https://www.google.com/maps/search/?api=1&query=10.3974752,106.2563466"
Phòng Khám Đa Khoa Trung Tâm Y Tế Đà Lạt,private,,,,,,"https://www.google.com/maps/search/?api=1&query=11.9398477,108.4329545"
Phòng Khám Nhân Đạo Kinh 7,private,,,,,,"https://www.google.com/maps/search/?api=1&query=10.0263736,105.2633253"
Phòng Khám Y Tế Nha Khoa Quốc Tế SOS,private,,,,,,"https://www.google.com/maps/search/?api=1&query=21.0637284,105.8274354"
Phòng Thí Nghiệm - Kiểm Tra Sức Khoẻ,unclassified,,,,,,"https://www.google.com/maps/search/?api=1&query=10.7603786,106.6798139"
Phòng tiêm chủng Vắc-xin POTEC 89.3 Khoái Châu,unclassified,,,,,,"https://www.google.com/maps/search/?api=1&query=20.8381767,105.9790303"
Prestige international polyclinic,private,,,69 Trần Quý Cáp,,http://medictinduc.vn,"https://www.google.com/maps/search/?api=1&query=12.2522561,109.1883141"
Sun Group International Hospital,private,,,,,,"https://www.google.com/maps/search/?api=1&query=10.0388036,104.0067047"
Tram Xa Co Nhue,unclassified,,,Đường Trần Cung,,,"https://www.google.com/maps/search/?api=1&query=21.0576234,105.7836205"
Trạm Y tế,unclassified,,,,,,"https://www.google.com/maps/search/?api=1&query=10.0402647,105.785331"
Trạm Y tế Cái Khế,unclassified,,,,,,"https://www.google.com/maps/search/?api=1&query=10.0451555,105.7826643"
Trạm y tế Hưng Lợi,unclassified,,,,,,"https://www.google.com/maps/search/?api=1&query=10.0210749,105.7699058"
Trạm y tế Khương Hạ,unclassified,,,,,,"https://www.google.com/maps/search/?api=1&query=20.9920389,105.8166469"
TRạm y tế Kiều Hạ,unclassified,,,,,,"https://www.google.com/maps/search/?api=1&query=20.8509134,106.730955"
Trạm Y Tế Lương Nội,unclassified,,,,,,"https://www.google.com/maps/search/?api=1&query=20.3552675,105.3749752"
Trạm y tế Mễ Trì,unclassified,,,,,,"https://www.google.com/maps/search/?api=1&query=21.0117954,105.7757929"
Trạm y tế Ngư Thủ nam,unclassified,,,,,,"https://www.google.com/maps/search/?api=1&query=17.1754118,106.9692256"
Trạm Y tế P. Xuân Khánh,unclassified,,,,,,"https://www.google.com/maps/search/?api=1&query=10.0306927,105.7731243"
Trạm y tế Phước Bình,unclassified,,,,,,"https://www.google.com/maps/search/?api=1&query=10.8158227,106.7731278"
Trạm Y Tế Phường 7 Quận Phú Nhuận,public,,,,,,"https://www.google.com/maps/search/?api=1&query=10.8037745,106.6866028"
Trạm Y tế phường Bằng An,unclassified,,,,,,"https://www.google.com/maps/search/?api=1&query=21.1712008,106.1660437"
Trạm Y tế phường Bình Trưng Đông,unclassified,,,,,,"https://www.google.com/maps/search/?api=1&query=10.7896008,106.7720079"
Trạm Y tế phường Hải Thành,unclassified,,,,,,"https://www.google.com/maps/search/?api=1&query=20.7727467,106.7330316"
Trạm Y tế phường Khúc Xuyên,unclassified,,,,,,"https://www.google.com/maps/search/?api=1&query=21.1829724,106.0435262"
Trạm Y Tế Phường KIến Hưng,unclassified,,,,,,"https://www.google.com/maps/search/?api=1&query=20.960142,105.7884888"
Trạm y tế phường Nghi Tân,unclassified,,,,,,"https://www.google.com/maps/search/?api=1&query=18.8224426,105.7060373"
Trạm Y tế phường Nhân Hòa,unclassified,,,,,,"https://www.google.com/maps/search/?api=1&query=21.1852892,106.1461534"
Trạm Y tế phường Trang Hạ,unclassified,,,,,,"https://www.google.com/maps/search/?api=1&query=21.1200809,105.952939"
Trạm y tế Phường Vạn Phúc,unclassified,,,,,,"https://www.google.com/maps/search/?api=1&query=20.9789324,105.7751087"
Trạm y tế Thị trấn Vĩnh An,unclassified,,,,,,"https://www.google.com/maps/search/?api=1&query=11.0873301,107.0342461"
Trạm y tế xã An Linh,unclassified,,,,,,"https://www.google.com/maps/search/?api=1&query=11.3590399,106.7256654"
Trạm y tế xã Bình Hoà,unclassified,,,,,,"https://www.google.com/maps/search/?api=1&query=10.9814715,106.7988443"
Trạm Y tế xã Đức Long,unclassified,,,,,,"https://www.google.com/maps/search/?api=1&query=21.1185945,106.276322"
Trạm y tế xã Đức Phong,unclassified,,,,,,"https://www.google.com/maps/search/?api=1&query=14.9288181,108.9185621"
Trạm Y tế xã Hải Ninh,unclassified,,,,,,"https://www.google.com/maps/search/?api=1&query=17.3677741,106.7296287"
Trạm y tế xã Hiếu Liêm,unclassified,,,,,,"https://www.google.com/maps/search/?api=1&query=11.11593,106.9684801"
Trạm y tế xã Hoài Đức - Điểm y tế Di Trạch,unclassified,,,Đường Văn Minh,,,"https://www.google.com/maps/search/?api=1&query=21.0479052,105.72273"
Trạm y tế xã Hố Nai 3,unclassified,,,,,,"https://www.google.com/maps/search/?api=1&query=10.9655886,106.920561"
Trạm Y Tế Xã Kim An,unclassified,,,,,,"https://www.google.com/maps/search/?api=1&query=20.8487843,105.7573208"
Trạm Y tế xã Nghĩa Hương,unclassified,,,,,,"https://www.google.com/maps/search/?api=1&query=20.9727604,105.6144225"
Trạm y tế xã Ngọc Hồi,unclassified,,,,,,"https://www.google.com/maps/search/?api=1&query=20.9071256,105.8305274"
Trạm Y tế xã Nội Duệ,unclassified,,,,,,"https://www.google.com/maps/search/?api=1&query=21.1354062,106.008017"
Trạm y tế xã Phú Cường,unclassified,,,,,,"https://www.google.com/maps/search/?api=1&query=11.0889344,107.1851394"
Trạm y tế Xã Phú Hữu,unclassified,,,,,,"https://www.google.com/maps/search/?api=1&query=10.7465975,106.7948014"
Trạm y tế xã Phù Lãng,unclassified,,,,,,"https://www.google.com/maps/search/?api=1&query=21.1522708,106.2455639"
Trạm Y Tế Xã Quang Thiện,unclassified,,,,,,"https://www.google.com/maps/search/?api=1&query=20.0987549,106.1047138"
Trạm y tế xã Tạ An Khương Nam,unclassified,,,,,,"https://www.google.com/maps/search/?api=1&query=9.0259519,105.2112783"
Trạm y tế xã Tân An,unclassified,,,,,,"https://www.google.com/maps/search/?api=1&query=11.0401496,106.9145824"
Trạm y tế xã Tân Định,unclassified,,,,,,"https://www.google.com/maps/search/?api=1&query=11.1738829,106.8652298"
Trạm Y Tế xã Thẳm Dương,unclassified,,,,,,"https://www.google.com/maps/search/?api=1&query=22.0486086,104.112242"
Trạm y tế xã Thiện Tân,unclassified,,,,,,"https://www.google.com/maps/search/?api=1&query=11.0242697,106.8973945"
Trạm Y Tế Xã Vĩnh Quang,unclassified,,,,,,"https://www.google.com/maps/search/?api=1&query=14.0513418,108.8023262"
Trạm y tế xã Vĩnh Sơn,unclassified,,,,,,"https://www.google.com/maps/search/?api=1&query=14.355492,108.6873215"
Trung Tam Bac Si Gia Dinh Da Nang,unclassified,,,,,,"https://www.google.com/maps/search/?api=1&query=16.0536495,108.2089108"
Trung tâm Chăm sóc Sức khỏe sinh sản tỉnh Đồng Nai,unclassified,,,,,,"https://www.google.com/maps/search/?api=1&query=10.9487049,106.8176297"
Trung Tâm Chẩn Đoán Y Khoa Medic - BV Hòa Hảo,private,,,,,,"https://www.google.com/maps/search/?api=1&query=10.762528,106.6701859"
Trung tâm Điều dưỡng Người bệnh Tâm Thần Thủ Đức,public,,,37 Phú Châu,,,"https://www.google.com/maps/search/?api=1&query=10.8671055,106.7463839"
Trung tâm Điều dưỡng Phục hồi chức năng tâm thần Việt Trì,public,,,,,,"https://www.google.com/maps/search/?api=1&query=21.3543626,105.3587329"
Trung tâm Điều trị và Nuôi dưỡng người bệnh tâm thần Kon Tum,public,,,,,,"https://www.google.com/maps/search/?api=1&query=14.351157,108.026795"
Trung Tâm Hiến Múa Nhân Đạo,unclassified,,,"Số 6, Thiên Phước, P9, Q. Tân Bình",38658509,,"https://www.google.com/maps/search/?api=1&query=10.7756389,106.6557898"
Trung tâm Huyết học - Truyền máu tỉnh Nghệ An,public,,,,,,"https://www.google.com/maps/search/?api=1&query=18.6834985,105.7018999"
Trung tâm Kiểm soát bệnh tật thành phố Cần Thơ,public,,,,,,"https://www.google.com/maps/search/?api=1&query=10.0154986,105.7371419"
Trung Tâm Kiểm Soát Bệnh Tật tỉnh Quảng Trị,unclassified,,,,,,"https://www.google.com/maps/search/?api=1&query=17.4846643,106.5712836"
Trung tâm Mắt tỉnh Quảng Ngãi,public,,,,,,"https://www.google.com/maps/search/?api=1&query=15.1118446,108.7871048"
Trung tâm Quân Dân Y Côn Đảo (mới),unclassified,,,Huỳnh Thúc Kháng,,,"https://www.google.com/maps/search/?api=1&query=8.6932146,106.5996987"
Trung tâm Quân dân y đặc khu Côn Đảo,unclassified,,,Lê Hồng Phong,,,"https://www.google.com/maps/search/?api=1&query=8.6853723,106.6046417"
Trung tâm Y tế A Lưới,unclassified,,,,,,"https://www.google.com/maps/search/?api=1&query=16.2664012,107.2351611"
Trung tâm Y tế An Dương,unclassified,,,,,,"https://www.google.com/maps/search/?api=1&query=20.8643614,106.6065038"
Trung tâm Y tế An Nhơn,unclassified,,,,,,"https://www.google.com/maps/search/?api=1&query=13.9007623,109.1079376"
Trung tâm Y tế Ân Thi,unclassified,,,,,,"https://www.google.com/maps/search/?api=1&query=20.8208159,106.0952228"
Trung tâm Y tế Ba Tơ,unclassified,,,,,,"https://www.google.com/maps/search/?api=1&query=14.7672644,108.7298565"
Trung tâm Y tế Bình Giang,unclassified,,,,,,"https://www.google.com/maps/search/?api=1&query=20.8787076,106.1886964"
Trung tâm Y tế Bình Lục,unclassified,,,,,,"https://www.google.com/maps/search/?api=1&query=20.4899848,106.010916"
Trung tâm Y tế Bình Sơn,unclassified,,,,,,"https://www.google.com/maps/search/?api=1&query=15.2950228,108.7580742"
Trung tâm Y tế Can Lộc,unclassified,,,,,,"https://www.google.com/maps/search/?api=1&query=18.4461694,105.7788161"
Trung tâm Y tế Cẩm Giàng,unclassified,,,,,,"https://www.google.com/maps/search/?api=1&query=20.9417545,106.2145771"
Trung tâm Y tế Cẩm Xuyên,unclassified,,,,,,"https://www.google.com/maps/search/?api=1&query=18.2522875,105.9954721"
Trung tâm Y tế Châu Đốc,unclassified,,,,,,"https://www.google.com/maps/search/?api=1&query=10.6992942,105.1031083"
Trung tâm Y tế Chí Linh,unclassified,,,,,,"https://www.google.com/maps/search/?api=1&query=21.1099267,106.3870084"
Trung tâm Y tế Duy Tiên,unclassified,,,,,,"https://www.google.com/maps/search/?api=1&query=20.6444852,105.9910706"
Trung Tâm Y Tế Dự Phòng - Phòng Khám Tiêm Phòng,private,,,,,,"https://www.google.com/maps/search/?api=1&query=10.764268,106.707021"
Trung tâm y tế dự phòng Cần Thơ,unclassified,,,,,,"https://www.google.com/maps/search/?api=1&query=10.0440487,105.7816809"
Trung tâm Y tế Dương Kinh,unclassified,,,,,,"https://www.google.com/maps/search/?api=1&query=20.7954788,106.7040132"
Trung tâm Y tế Đăk Glei,unclassified,,,,,,"https://www.google.com/maps/search/?api=1&query=15.0700431,107.7439334"
Trung tâm Y tế Đăk Hà,unclassified,,,,,,"https://www.google.com/maps/search/?api=1&query=14.5169255,107.9174818"
Trung tâm Y tế Đăk Tô,unclassified,,,,,,"https://www.google.com/maps/search/?api=1&query=14.6361884,107.8477562"
Trung tâm Y tế Điện Biên Đông,unclassified,,,,,,"https://www.google.com/maps/search/?api=1&query=21.3024978,103.2316751"
Trung tâm Y tế Đồ Sơn,unclassified,,,229 Phố Lý Thánh Tông,,,"https://www.google.com/maps/search/?api=1&query=20.7185128,106.7823585"
Trung tâm Y tế Đức Thọ,unclassified,,,,,,"https://www.google.com/maps/search/?api=1&query=18.5145391,105.5936219"
Trung tâm Y tế Gia Lộc,unclassified,,,,,,"https://www.google.com/maps/search/?api=1&query=20.8772252,106.2964803"
Trung tâm Y tế Hà Tiên,unclassified,,,65 Cách Mạng Tháng Tám,,,"https://www.google.com/maps/search/?api=1&query=10.3728244,104.491126"
Trung tâm Y tế Hải An,unclassified,,,,,,"https://www.google.com/maps/search/?api=1&query=20.8327301,106.7228626"
Trung tâm Y tế Hải Dương,unclassified,,,,,,"https://www.google.com/maps/search/?api=1&query=20.9325618,106.3178858"
Trung tâm Y tế Hoài Nhơn,unclassified,,,,,,"https://www.google.com/maps/search/?api=1&query=14.5573646,109.0475898"
Trung tâm Y tế Hoành Sơn,unclassified,,,,,,"https://www.google.com/maps/search/?api=1&query=18.0670211,106.3013027"
Trung tâm Y tế Hòn Đất,unclassified,,,,,,"https://www.google.com/maps/search/?api=1&query=10.1789872,104.9391077"
Trung tâm Y tế Hồng Bàng,unclassified,,,34 Phố Kỳ Đồng,,,"https://www.google.com/maps/search/?api=1&query=20.8586452,106.6802107"
Trung tâm Y tế Hồng Lĩnh,unclassified,,,,,,"https://www.google.com/maps/search/?api=1&query=18.5340078,105.6853689"
Trung tâm Y tế huyện An Lão,unclassified,,,,,,"https://www.google.com/maps/search/?api=1&query=14.6118493,108.8873509"
Trung tâm Y tế huyện An Phú,unclassified,,,,,,"https://www.google.com/maps/search/?api=1&query=10.8160003,105.0867467"
Trung tâm Y tế huyện Ba Bể,unclassified,,,,,,"https://www.google.com/maps/search/?api=1&query=22.4535445,105.7398346"
Trung tâm Y tế huyện Bạch Thông,unclassified,,,,,,"https://www.google.com/maps/search/?api=1&query=22.266293,105.8798557"
Trung tâm Y tế huyện Bảo Lâm,unclassified,,,,,,"https://www.google.com/maps/search/?api=1&query=22.8288604,105.4914054"
Trung tâm Y tế huyện Bắc Sơn,unclassified,,,,,,"https://www.google.com/maps/search/?api=1&query=21.9018143,106.3167032"
Trung tâm Y tế huyện Bắc Trà My,unclassified,,,,,,"https://www.google.com/maps/search/?api=1&query=15.3422616,108.218108"
Trung tâm Y tế huyện Bình Gia,unclassified,,,,,,"https://www.google.com/maps/search/?api=1&query=21.9503175,106.3722193"
Trung tâm Y tế huyện Buôn Đôn,unclassified,,,,,,"https://www.google.com/maps/search/?api=1&query=12.809576,107.8892039"
Trung tâm Y tế huyện Cái Bè,unclassified,,,,,,"https://www.google.com/maps/search/?api=1&query=10.3662325,106.0323142"
Trung tâm Y tế huyện Cai Lậy (cơ sở 2),unclassified,,,,,,"https://www.google.com/maps/search/?api=1&query=10.4977566,106.093619"
Trung tâm Y tế huyện Cao Lộc,unclassified,,,,,,"https://www.google.com/maps/search/?api=1&query=21.8638804,106.7704039"
Trung tâm Y tế huyện Châu Phú,unclassified,,,,,,"https://www.google.com/maps/search/?api=1&query=10.5972909,105.221937"
Trung tâm Y tế huyện Châu Thành,unclassified,,,,,,"https://www.google.com/maps/search/?api=1&query=10.4401324,105.3934075"
Trung tâm Y tế huyện Chi Lăng,unclassified,,,,,,"https://www.google.com/maps/search/?api=1&query=21.6555791,106.5783728"
Trung tâm Y tế huyện Chợ Đồn,unclassified,,,,,,"https://www.google.com/maps/search/?api=1&query=22.1597495,105.600596"
Trung tâm Y tế huyện Chợ Gạo,unclassified,,,,,,"https://www.google.com/maps/search/?api=1&query=10.3540197,106.4491466"
Trung tâm Y tế huyện Chợ Mới,unclassified,,,,,,"https://www.google.com/maps/search/?api=1&query=10.5445129,105.4003288"
Trung tâm Y tế huyện Chư Prông,unclassified,,,,,,"https://www.google.com/maps/search/?api=1&query=13.7618243,107.8886555"
Trung tâm Y tế huyện Chư Pưh,unclassified,,,,,,"https://www.google.com/maps/search/?api=1&query=13.5668174,108.0930103"
Trung tâm Y tế huyện Cư Kuin,unclassified,,,,,,"https://www.google.com/maps/search/?api=1&query=12.6266574,108.1273015"
Trung tâm Y tế huyện Cư M'gar,unclassified,,,78 Đường Cách Mạng Tháng Tám,,,"https://www.google.com/maps/search/?api=1&query=12.8201804,108.0738919"
Trung tâm Y tế huyện Duy Xuyên,unclassified,,,,,,"https://www.google.com/maps/search/?api=1&query=15.8272048,108.2554638"
Trung Tâm Y Tế Huyện Duyên Hải,unclassified,,,,,,"https://www.google.com/maps/search/?api=1&query=9.6097195,106.4475694"
Trung tâm Y tế huyện Đak Đoa,unclassified,,,146 Đường Wừu,,,"https://www.google.com/maps/search/?api=1&query=13.9954084,108.1093817"
Trung tâm Y tế huyện Đak Pơ,unclassified,,,,,,"https://www.google.com/maps/search/?api=1&query=13.9696847,108.550928"
Trung tâm Y tế huyện Đakrông - cơ sở 2,unclassified,,,,,,"https://www.google.com/maps/search/?api=1&query=16.3950571,106.9879062"
Trung tâm Y tế huyện Điện Biên,unclassified,,,,,,"https://www.google.com/maps/search/?api=1&query=21.3286392,103.0213939"
Trung tâm Y tế huyện Đình Lập,unclassified,,,,,,"https://www.google.com/maps/search/?api=1&query=21.5467611,107.0926614"
Trung tâm Y tế huyện Định Quán,unclassified,,,,,,"https://www.google.com/maps/search/?api=1&query=11.2052184,107.3588182"
Trung tâm Y tế huyện Đông Giang,unclassified,,,,,,"https://www.google.com/maps/search/?api=1&query=15.9192179,107.650491"
Trung tâm Y tế huyện Đồng Hỷ,unclassified,,,,,,"https://www.google.com/maps/search/?api=1&query=21.631086,105.8443464"
Trung tâm Y tế huyện Đức Cơ,unclassified,,,,,,"https://www.google.com/maps/search/?api=1&query=13.8054895,107.6924674"
Trung tâm Y tế huyện Đức Huệ,unclassified,,,,,,"https://www.google.com/maps/search/?api=1&query=10.8900382,106.3056977"
Trung tâm Y tế huyện Ea Kar,unclassified,,,,,,"https://www.google.com/maps/search/?api=1&query=12.8051431,108.4496953"
Trung tâm Y tế huyện Ea Súp,unclassified,,,265 Đường Hùng Vương,,,"https://www.google.com/maps/search/?api=1&query=13.075368,107.8885186"
Trung tâm Y tế huyện Gia Viễn,unclassified,,,,,,"https://www.google.com/maps/search/?api=1&query=20.3441757,105.8427851"
Trung tâm Y tế huyện Giao Thuỷ,unclassified,,,,,,"https://www.google.com/maps/search/?api=1&query=20.28667,106.4477404"
Trung tâm Y tế huyện Gò Công Đông,unclassified,,,,,,"https://www.google.com/maps/search/?api=1&query=10.3218152,106.7158489"
Trung tâm Y tế huyện Gò Công Đông (cơ sở 2),unclassified,,,,,,"https://www.google.com/maps/search/?api=1&query=10.3984443,106.7185209"
Trung tâm Y tế huyện Gò Công Tây,unclassified,,,,,,"https://www.google.com/maps/search/?api=1&query=10.3404383,106.5791976"
Trung tâm Y tế huyện Hạ Lang,unclassified,,,,,,"https://www.google.com/maps/search/?api=1&query=22.6872339,106.6762621"
Trung tâm Y tế huyện Hiệp Hoà,unclassified,,,,,,"https://www.google.com/maps/search/?api=1&query=21.354303,105.9875811"
Trung tâm Y tế huyện Hoà An,unclassified,,,,,,"https://www.google.com/maps/search/?api=1&query=22.731469,106.1599105"
Trung tâm Y tế huyện Hoa Lư,unclassified,,,,,,"https://www.google.com/maps/search/?api=1&query=20.2965815,105.9524021"
Trung tâm Y tế huyện Hoà Vang,unclassified,,,,,,"https://www.google.com/maps/search/?api=1&query=16.009734,108.1516407"
Trung tâm Y tế huyện Hoài Ân,unclassified,,,,,,"https://www.google.com/maps/search/?api=1&query=14.378061,108.9700409"
Trung tâm Y tế huyện Hưng Nguyên,unclassified,,,,,,"https://www.google.com/maps/search/?api=1&query=18.6721972,105.6250319"
Trung tâm Y tế huyện Hữu Lũng,unclassified,,,,,,"https://www.google.com/maps/search/?api=1&query=21.5026872,106.3488962"
Trung tâm Y tế huyện Ia Grai,unclassified,,,,,,"https://www.google.com/maps/search/?api=1&query=13.9650308,107.8429154"
Trung tâm Y tế huyện Ia Pa,unclassified,,,,,,"https://www.google.com/maps/search/?api=1&query=13.5304314,108.4594795"
Trung tâm Y tế huyện Kbang,unclassified,,,,,,"https://www.google.com/maps/search/?api=1&query=14.1414595,108.5995985"
Trung tâm Y tế huyện Kông Chro,unclassified,,,,,,"https://www.google.com/maps/search/?api=1&query=13.7739215,108.5285456"
Trung tâm Y tế huyện Krông Ana,unclassified,,,,,,"https://www.google.com/maps/search/?api=1&query=12.4783926,108.0356304"
Trung tâm Y tế huyện Krông Bông,unclassified,,,,,,"https://www.google.com/maps/search/?api=1&query=12.5144876,108.3381783"
Trung tâm Y tế huyện Krông Búk,unclassified,,,,,,"https://www.google.com/maps/search/?api=1&query=13.0505434,108.2145402"
Trung tâm Y tế huyện Krông Năng,unclassified,,,16 Đường Lê Duẩn,,,"https://www.google.com/maps/search/?api=1&query=12.9494751,108.3380401"
Trung tâm Y tế huyện Krông Pa,unclassified,,,,,,"https://www.google.com/maps/search/?api=1&query=13.1882942,108.6833831"
Trung tâm Y tế huyện Krông Pắc,unclassified,,,,,,"https://www.google.com/maps/search/?api=1&query=12.7062049,108.3012816"
Trung tâm Y tế huyện Kỳ Sơn,unclassified,,,,,,"https://www.google.com/maps/search/?api=1&query=19.3915029,104.1776771"
Trung tâm Y tế huyện Lạng Giang,unclassified,,,,,,"https://www.google.com/maps/search/?api=1&query=21.363372,106.2612878"
Trung tâm Y tế huyện Lắk,unclassified,,,,,,"https://www.google.com/maps/search/?api=1&query=12.4055332,108.1888591"
Trung tâm Y tế huyện Lộc Bình,unclassified,,,,,,"https://www.google.com/maps/search/?api=1&query=21.7550478,106.9269565"
Trung tâm Y tế huyện Lục Nam,unclassified,,,,,,"https://www.google.com/maps/search/?api=1&query=21.3077555,106.3858977"
Trung tâm Y tế huyện M'Dắk,unclassified,,,,,,"https://www.google.com/maps/search/?api=1&query=12.7547922,108.7382214"
Trung tâm Y tế huyện Mang Yang,unclassified,,,Đường Tuệ Tĩnh,,,"https://www.google.com/maps/search/?api=1&query=14.0340655,108.2486435"
Trung tâm Y tế huyện Na Rì,unclassified,,,,,,"https://www.google.com/maps/search/?api=1&query=22.2327674,106.1902019"
Trung tâm Y tế huyện Nam Đàn,unclassified,,,,,,"https://www.google.com/maps/search/?api=1&query=18.695932,105.5045911"
Trung tâm Y tế huyện Nam Giang,unclassified,,,,,,"https://www.google.com/maps/search/?api=1&query=15.7421908,107.8298477"
Trung tâm Y tế huyện Nam Trà My,unclassified,,,,,,"https://www.google.com/maps/search/?api=1&query=15.1514954,108.1121653"
Trung tâm Y tế huyện Nam Trực,unclassified,,,,,,"https://www.google.com/maps/search/?api=1&query=20.3396196,106.2137183"
Trung tâm Y tế huyện Nậm Pồ,unclassified,,,,,,"https://www.google.com/maps/search/?api=1&query=21.808701,102.762497"
Trung tâm Y tế huyện Ngân Sơn,unclassified,,,,,,"https://www.google.com/maps/search/?api=1&query=22.4273584,106.0021004"
Trung tâm Y tế huyện Nghĩa Đàn,unclassified,,,,,,"https://www.google.com/maps/search/?api=1&query=19.3396111,105.4871397"
Trung tâm Y tế huyện Nghĩa Hưng,unclassified,,,,,,"https://www.google.com/maps/search/?api=1&query=20.2088144,106.1801171"
Trung tâm Y tế huyện Nghĩa Hưng (cơ sở Nghĩa Bình),unclassified,,,,,,"https://www.google.com/maps/search/?api=1&query=20.0582497,106.1874762"
Trung tâm Y tế huyện Nguyên Bình,unclassified,,,,,,"https://www.google.com/maps/search/?api=1&query=22.6516787,105.9631056"
Trung tâm Y tế huyện Ninh Hải,unclassified,,,,,,"https://www.google.com/maps/search/?api=1&query=11.5986945,109.0294039"
Trung tâm Y tế huyện Nông Sơn,unclassified,,,,,,"https://www.google.com/maps/search/?api=1&query=15.7180126,108.0601518"
Trung tâm Y tế huyện Pác Nặm,unclassified,,,,,,"https://www.google.com/maps/search/?api=1&query=22.6135971,105.6719608"
Trung tâm Y tế huyện Phú Lương,unclassified,,,,,,"https://www.google.com/maps/search/?api=1&query=21.721216,105.7093426"
Trung tâm Y tế huyện Phú Ninh,unclassified,,,,,,"https://www.google.com/maps/search/?api=1&query=15.5525686,108.418317"
Trung tâm Y tế huyện Phú Tân,unclassified,,,,,,"https://www.google.com/maps/search/?api=1&query=10.5967815,105.3512869"
Trung tâm Y tế huyện Phú Thiện,unclassified,,,,,,"https://www.google.com/maps/search/?api=1&query=13.5186088,108.3052679"
Trung tâm Y tế huyện Phước Sơn,unclassified,,,,,,"https://www.google.com/maps/search/?api=1&query=15.4424372,107.7966812"
Trung tâm Y tế huyện Quế Phong,unclassified,,,,,,"https://www.google.com/maps/search/?api=1&query=19.6017164,104.9204351"
Trung tâm Y tế huyện Quế Sơn,unclassified,,,,,,"https://www.google.com/maps/search/?api=1&query=15.6763708,108.2374733"
Trung tâm Y tế huyện Quỳ Châu,unclassified,,,,,,"https://www.google.com/maps/search/?api=1&query=19.5500342,105.1005809"
Trung tâm Y tế huyện Quỳ Hợp,unclassified,,,,,,"https://www.google.com/maps/search/?api=1&query=19.3263676,105.1881886"
Trung tâm Y tế huyện Sơn Động,unclassified,,,,,,"https://www.google.com/maps/search/?api=1&query=21.3325457,106.8441963"
Trung tâm Y tế huyện Sơn Hòa,unclassified,,,,,,"https://www.google.com/maps/search/?api=1&query=13.0475418,108.9794671"
Trung tâm Y tế huyện Tam Nông,unclassified,,,,,,"https://www.google.com/maps/search/?api=1&query=21.2821399,105.2539481"
Trung tâm Y tế huyện Tân Kỳ,unclassified,,,,,,"https://www.google.com/maps/search/?api=1&query=19.0556858,105.2752742"
Trung tâm Y tế huyện Tân Phú Đông,unclassified,,,,,,"https://www.google.com/maps/search/?api=1&query=10.2688213,106.6441399"
Trung tâm Y tế huyện Tân Phước,unclassified,,,,,,"https://www.google.com/maps/search/?api=1&query=10.4755543,106.1849316"
Trung tâm Y tế huyện Tân Yên,unclassified,,,,,,"https://www.google.com/maps/search/?api=1&query=21.3958322,106.1258609"
Trung tâm Y tế huyện Tây Giang,unclassified,,,,,,"https://www.google.com/maps/search/?api=1&query=15.8892869,107.4930507"
Trung tâm Y tế huyện Tây Sơn,unclassified,,,Nguyễn Huệ,,,"https://www.google.com/maps/search/?api=1&query=13.9094625,108.9235637"
Trung tâm Y tế huyện Thanh Bình,unclassified,,,,,,"https://www.google.com/maps/search/?api=1&query=10.5524479,105.4956739"
Trung tâm Y tế huyện Thăng Bình,unclassified,,,,,,"https://www.google.com/maps/search/?api=1&query=15.7361707,108.3487443"
Trung tâm Y tế huyện Thoại Sơn,unclassified,,,,,,"https://www.google.com/maps/search/?api=1&query=10.2587497,105.258809"
Trung tâm Y tế huyện Thống Nhất,public,,,Quốc lộ 20,,,"https://www.google.com/maps/search/?api=1&query=10.9516221,107.1390378"
Trung tâm Y tế huyện Tiên Phước,unclassified,,,,,,"https://www.google.com/maps/search/?api=1&query=15.4934571,108.2994072"
Trung tâm Y tế huyện Trảng Bom,unclassified,,,,,,"https://www.google.com/maps/search/?api=1&query=10.9482414,107.0058996"
Trung tâm Y tế huyện Tri Tôn,unclassified,,,,,,"https://www.google.com/maps/search/?api=1&query=10.4216932,104.9977497"
Trung tâm Y tế huyện Trực Ninh,unclassified,,,,,,"https://www.google.com/maps/search/?api=1&query=20.3221573,106.2698657"
Trung tâm Y tế huyện Tuy Đức,unclassified,,,,,,"https://www.google.com/maps/search/?api=1&query=12.2125197,107.4769661"
Trung tâm Y tế huyện Tương Dương,unclassified,,,,,,"https://www.google.com/maps/search/?api=1&query=19.2618174,104.4893422"
Trung tâm Y tế huyện Văn Lãng,unclassified,,,,,,"https://www.google.com/maps/search/?api=1&query=22.0583833,106.6173101"
Trung tâm Y tế huyện Vân Canh,unclassified,,,,,,"https://www.google.com/maps/search/?api=1&query=13.6208783,108.9985918"
Trung tâm Y tế huyện Việt Yên,unclassified,,,,,,"https://www.google.com/maps/search/?api=1&query=21.2814746,106.0957761"
Trung tâm Y tế huyện Vĩnh Cửu,unclassified,,,,,,"https://www.google.com/maps/search/?api=1&query=11.0953109,107.0241106"
Trung tâm Y tế huyện Vĩnh Cửu - cơ sở 2,unclassified,,,,,,"https://www.google.com/maps/search/?api=1&query=11.0136219,106.8483429"
Trung tâm Y tế huyện Vĩnh Thạnh,unclassified,,,,,,"https://www.google.com/maps/search/?api=1&query=14.1116083,108.7815768"
Trung tâm Y tế huyện Võ Nhai,unclassified,,,,,,"https://www.google.com/maps/search/?api=1&query=21.7532267,106.0643679"
Trung tâm Y tế huyện Vụ Bản,unclassified,,,,,,"https://www.google.com/maps/search/?api=1&query=20.3756724,106.0784283"
Trung tâm Y tế huyện Xuân Lộc,unclassified,,,,,,"https://www.google.com/maps/search/?api=1&query=10.9090519,107.3686378"
Trung tâm Y tế huyện Xuân Trường,unclassified,,,,,,"https://www.google.com/maps/search/?api=1&query=20.3054842,106.3253938"
Trung tâm Y tế huyện Ý Yên,unclassified,,,,,,"https://www.google.com/maps/search/?api=1&query=20.3251016,106.0172557"
Trung tâm Y tế huyện Yên Dũng,unclassified,,,,,,"https://www.google.com/maps/search/?api=1&query=21.2027719,106.2479574"
Trung tâm Y tế huyện Yên Khánh,unclassified,,,,,,"https://www.google.com/maps/search/?api=1&query=20.1777322,106.0709613"
Trung tâm Y tế huyện Yên Mô,unclassified,,,,,,"https://www.google.com/maps/search/?api=1&query=20.1602843,106.0037702"
Trung tâm Y tế huyện Yên Thế,unclassified,,,,,,"https://www.google.com/maps/search/?api=1&query=21.4750943,106.1323064"
Trung tâm Y tế Hương Khê,unclassified,,,,,,"https://www.google.com/maps/search/?api=1&query=18.1744345,105.7060106"
Trung tâm Y tế Hương Sơn,unclassified,,,,,,"https://www.google.com/maps/search/?api=1&query=18.5159811,105.426933"
Trung tâm Y tế Hương Sơn - cơ sở 2,unclassified,,,,,,"https://www.google.com/maps/search/?api=1&query=18.4573906,105.3063265"
Trung tâm Y tế Hương Thuỷ,unclassified,,,,,,"https://www.google.com/maps/search/?api=1&query=16.4086368,107.6882873"
Trung tâm Y tế Hương Trà,unclassified,,,,,,"https://www.google.com/maps/search/?api=1&query=16.5264212,107.4689864"
Trung tâm Y tế Ia H'Drai,unclassified,,,,,,"https://www.google.com/maps/search/?api=1&query=14.1216871,107.4562257"
Trung tâm Y tế Khoái Châu,unclassified,,,,,,"https://www.google.com/maps/search/?api=1&query=20.8421848,105.9790677"
Trung tâm Y tế khu vực Bạc Liêu,unclassified,,,,,,"https://www.google.com/maps/search/?api=1&query=9.2740406,105.7320865"
Trung tâm Y tế khu vực Bàu Bàng,unclassified,,,,,,"https://www.google.com/maps/search/?api=1&query=11.2578041,106.6096962"
Trung tâm Y tế khu vực Bắc Tân Uyên,unclassified,,,,,,"https://www.google.com/maps/search/?api=1&query=11.1497513,106.8453889"
Trung tâm Y tế khu vực Bến Cát,unclassified,,,,,,"https://www.google.com/maps/search/?api=1&query=11.1614455,106.5947891"
Trung tâm Y tế khu vực Biên Hoà,unclassified,,,,,,"https://www.google.com/maps/search/?api=1&query=10.9525208,106.8522011"
Trung tâm Y tế khu vực Bình Thuỷ,unclassified,,,,,,"https://www.google.com/maps/search/?api=1&query=10.0735997,105.7445393"
Trung tâm Y tế khu vực Bình Xuyên,unclassified,,,,,,"https://www.google.com/maps/search/?api=1&query=21.2733307,105.6515986"
Trung tâm Y tế khu vực Bù Gia Mập,unclassified,,,,,,"https://www.google.com/maps/search/?api=1&query=11.9295648,107.0073552"
Trung tâm Y tế khu vực Cái Răng,unclassified,,,,,,"https://www.google.com/maps/search/?api=1&query=9.9987336,105.7590495"
Trung tâm Y tế khu vực Cam Lộ,unclassified,,,,,,"https://www.google.com/maps/search/?api=1&query=16.8076705,107.0045443"
Trung tâm Y tế khu vực Cao Lãnh 2,unclassified,,,20 30 Tháng 4,,,"https://www.google.com/maps/search/?api=1&query=10.4386917,105.6996918"
Trung tâm Y tế khu vực Cao Phong,unclassified,,,,,,"https://www.google.com/maps/search/?api=1&query=20.7090063,105.3268447"
Trung tâm Y tế khu vực Cẩm Khê,unclassified,,,,,,"https://www.google.com/maps/search/?api=1&query=21.4157791,105.1370271"
Trung tâm Y tế khu vực Chiêm Hoá,unclassified,,,,,,"https://www.google.com/maps/search/?api=1&query=22.1457837,105.2709481"
Trung tâm Y tế Khu vực Chợ Lớn,unclassified,,,642A Nguyễn Trãi,,,"https://www.google.com/maps/search/?api=1&query=10.7541267,106.665782"
Trung tâm Y tế Khu vực Chợ Lớn (Cơ sở 2),unclassified,,,591A Đường Nguyễn Trãi,,,"https://www.google.com/maps/search/?api=1&query=10.7538853,106.6669045"
Trung tâm Y tế khu vực Chơn Thành,unclassified,,,,,,"https://www.google.com/maps/search/?api=1&query=11.4318756,106.6381029"
Trung tâm Y tế khu vực Dầu Tiếng,unclassified,,,,,,"https://www.google.com/maps/search/?api=1&query=11.2875267,106.3929878"
Trung tâm Y tế khu vực Dĩ An,unclassified,,,,,,"https://www.google.com/maps/search/?api=1&query=10.9101691,106.7816616"
Trung tâm Y tế khu vực Di Linh,unclassified,,,,,,"https://www.google.com/maps/search/?api=1&query=11.5695067,108.0713196"
Trung tâm Y tế khu vực Đà Bắc,unclassified,,,,,,"https://www.google.com/maps/search/?api=1&query=20.8758132,105.2594512"
Trung tâm Y tế khu vực Đạ Huoai,unclassified,,,,,,"https://www.google.com/maps/search/?api=1&query=11.5012451,107.4817601"
Trung tâm Y tế khu vực Đakrông,unclassified,,,,,,"https://www.google.com/maps/search/?api=1&query=16.6977142,106.8803432"
Trung tâm Y tế khu vực Đam Rông,unclassified,,,,,,"https://www.google.com/maps/search/?api=1&query=12.071798,108.1501466"
Trung tâm Y tế khu vực Đoan Hùng,unclassified,,,,,,"https://www.google.com/maps/search/?api=1&query=21.6206569,105.1809622"
Trung tâm Y tế khu vực Đông Hà,unclassified,,,83 Lê Lợi,,,"https://www.google.com/maps/search/?api=1&query=16.8106107,107.109335"
Trung tâm Y tế khu vực Đông Hải,unclassified,,,,,,"https://www.google.com/maps/search/?api=1&query=9.0322275,105.4227119"
Trung tâm Y tế khu vực Đồng Xoài,unclassified,,,,,,"https://www.google.com/maps/search/?api=1&query=11.5355485,106.9109726"
Trung tâm Y tế khu vực Đơn Dương,unclassified,,,,,,"https://www.google.com/maps/search/?api=1&query=11.7572671,108.4843394"
Trung tâm Y tế khu vực Đức Trọng,unclassified,,,,,,"https://www.google.com/maps/search/?api=1&query=11.7553939,108.3918128"
Trung tâm Y tế khu vực Giá Rai,unclassified,,,,,,"https://www.google.com/maps/search/?api=1&query=9.2403554,105.4461994"
Trung tâm Y tế khu vực Gio Linh,unclassified,,,,,,"https://www.google.com/maps/search/?api=1&query=16.9264341,107.0873113"
Trung tâm Y tế khu vực Hạ Hòa,unclassified,,,,,,"https://www.google.com/maps/search/?api=1&query=21.5616461,105.0078999"
Trung tâm Y tế khu vực Hải Lăng,unclassified,,,,,,"https://www.google.com/maps/search/?api=1&query=16.7012436,107.2535005"
Trung tâm Y tế khu vực Hàm Yên,unclassified,,,,,,"https://www.google.com/maps/search/?api=1&query=22.0373673,105.0414337"
Trung tâm Y tế khu vực Hoà Bình,unclassified,,,,,,"https://www.google.com/maps/search/?api=1&query=9.279924,105.6202375"
Trung tâm Y tế khu vực Hòa Hưng,unclassified,,,403 Cách Mạng Tháng 8,,,"https://www.google.com/maps/search/?api=1&query=10.7808013,106.675494"
Trung tâm Y tế khu vực Hồ Tràm,unclassified,,,,,,"https://www.google.com/maps/search/?api=1&query=10.5384993,107.4129397"
Trung tâm Y tế khu vực Hồng Dân,unclassified,,,,,,"https://www.google.com/maps/search/?api=1&query=9.5613222,105.4490184"
Trung tâm Y tế khu vực Hớn Quản,unclassified,,,,,,"https://www.google.com/maps/search/?api=1&query=11.5775962,106.6092295"
Trung tâm Y tế khu vực Kim Bôi,unclassified,,,,,,"https://www.google.com/maps/search/?api=1&query=20.6806171,105.5208157"
Trung tâm Y tế khu vực Lạc Dương,unclassified,,,,,,"https://www.google.com/maps/search/?api=1&query=12.0082688,108.4074842"
Trung tâm Y tế khu vực Lạc Sơn,unclassified,,,,,,"https://www.google.com/maps/search/?api=1&query=20.4623224,105.4503329"
Trung tâm Y tế khu vực Lạc Thuỷ,unclassified,,,,,,"https://www.google.com/maps/search/?api=1&query=20.4883851,105.7780673"
Trung tâm Y tế khu vực Lâm Bình,unclassified,,,,,,"https://www.google.com/maps/search/?api=1&query=22.4655885,105.2163954"
Trung tâm Y tế khu vực Lâm Hà,unclassified,,,,,,"https://www.google.com/maps/search/?api=1&query=11.785496,108.2585883"
Trung tâm Y tế khu vực Lâm Thao,unclassified,,,,,,"https://www.google.com/maps/search/?api=1&query=21.3183898,105.2882793"
Trung tâm Y tế khu vực Lập Thạch,unclassified,,,,,,"https://www.google.com/maps/search/?api=1&query=21.4183271,105.4521244"
Trung tâm Y tế khu vực Lộc Ninh,unclassified,,,,,,"https://www.google.com/maps/search/?api=1&query=11.8520313,106.5906588"
Trung tâm Y tế khu vực Lục Yên,unclassified,,,,,,"https://www.google.com/maps/search/?api=1&query=22.1052365,104.7638029"
Trung tâm Y tế khu vực Lương Sơn,unclassified,,,,,,"https://www.google.com/maps/search/?api=1&query=20.8750676,105.52808"
Trung tâm Y tế khu vực Mai Châu,unclassified,,,,,,"https://www.google.com/maps/search/?api=1&query=20.6558295,105.0790795"
Trung tâm Y tế khu vực Mù Cang Chải,unclassified,,,,,,"https://www.google.com/maps/search/?api=1&query=21.8485974,104.0932775"
Trung tâm Y tế khu vực Na Hang,unclassified,,,,,,"https://www.google.com/maps/search/?api=1&query=22.3470755,105.3791672"
Trung tâm Y tế khu vực Nhiêu Lộc,unclassified,,,114-116-118 Trần Quốc Thảo,,,"https://www.google.com/maps/search/?api=1&query=10.7848359,106.683949"
Trung tâm Y tế khu vực Ô Môn,unclassified,,,,,,"https://www.google.com/maps/search/?api=1&query=10.1141718,105.6229931"
Trung tâm Y tế khu vực Phan Thiết,unclassified,,,,,,"https://www.google.com/maps/search/?api=1&query=10.9335495,108.0957972"
Trung tâm Y tế khu vực Phong Điền,unclassified,,,,,,"https://www.google.com/maps/search/?api=1&query=10.0026679,105.6604695"
Trung tâm Y tế khu vực Phú Giáo,unclassified,,,,,,"https://www.google.com/maps/search/?api=1&query=11.2892008,106.7973809"
Trung tâm Y tế khu vực Phú Mỹ,unclassified,,,,,,"https://www.google.com/maps/search/?api=1&query=10.5963299,107.0593865"
Trung tâm Y tế khu vực Phù Ninh,unclassified,,,,,,"https://www.google.com/maps/search/?api=1&query=21.4315328,105.2894421"
Trung tâm Y tế khu vực Phú Tân,unclassified,,,,,,"https://www.google.com/maps/search/?api=1&query=8.8536821,104.8199684"
Trung tâm Y tế khu vực Phúc Yên,unclassified,,,,,,"https://www.google.com/maps/search/?api=1&query=21.2543492,105.7118263"
Trung tâm Y tế khu vực Phước Long,unclassified,,,,,,"https://www.google.com/maps/search/?api=1&query=9.4316388,105.4611835"
Trung tâm Y tế khu vực Quảng Trạch,unclassified,,,,,,"https://www.google.com/maps/search/?api=1&query=17.8584361,106.433716"
Trung tâm Y tế khu vực Sông Lô,unclassified,,,,,,"https://www.google.com/maps/search/?api=1&query=21.4240888,105.4195839"
Trung tâm Y tế khu vực Sơn Dương,unclassified,,,,,,"https://www.google.com/maps/search/?api=1&query=21.6944678,105.3956783"
Trung tâm Y tế khu vực Tam Dương,unclassified,,,,,,"https://www.google.com/maps/search/?api=1&query=21.3728559,105.5385132"
Trung tâm Y tế khu vực Tam Đảo,unclassified,,,,,,"https://www.google.com/maps/search/?api=1&query=21.4027865,105.6114417"
Trung tâm Y tế khu vực Tân Lạc,unclassified,,,,,,"https://www.google.com/maps/search/?api=1&query=20.6062346,105.2825271"
Trung tâm Y tế khu vực Tân Sơn,unclassified,,,,,,"https://www.google.com/maps/search/?api=1&query=21.2143685,105.0141479"
Trung tâm Y tế khu vực Tân Uyên,unclassified,,,,,,"https://www.google.com/maps/search/?api=1&query=11.0856347,106.7808929"
Trung tâm Y tế khu vực Thanh Ba,unclassified,,,,,,"https://www.google.com/maps/search/?api=1&query=21.4895578,105.1438826"
Trung tâm Y tế khu vực Thanh Sơn,unclassified,,,,,,"https://www.google.com/maps/search/?api=1&query=21.2197434,105.1801706"
Trung tâm Y tế khu vực Thanh Thuỷ,unclassified,,,,,,"https://www.google.com/maps/search/?api=1&query=21.17821,105.284724"
Trung tâm Y tế khu vực Thốt Nốt,unclassified,,,,,,"https://www.google.com/maps/search/?api=1&query=10.2656169,105.5406431"
Trung tâm Y tế khu vực Thới Bình,unclassified,,,,,,"https://www.google.com/maps/search/?api=1&query=9.3558927,105.0994439"
Trung tâm Y tế khu vực Thới Lai,unclassified,,,,,,"https://www.google.com/maps/search/?api=1&query=10.0666929,105.5474487"
Trung tâm Y tế khu vực Thủ Dầu Một,unclassified,,,,,,"https://www.google.com/maps/search/?api=1&query=10.9781083,106.6542386"
Trung tâm Y tế khu vực Thuận An,unclassified,,,,,,"https://www.google.com/maps/search/?api=1&query=10.9084931,106.7025838"
Trung tâm Y tế khu vực Trạm Tấu,unclassified,,,,,,"https://www.google.com/maps/search/?api=1&query=21.4708062,104.3762318"
Trung tâm Y tế khu vực Trấn Yên,unclassified,,,,,,"https://www.google.com/maps/search/?api=1&query=21.761428,104.8299238"
Trung tâm Y tế khu vực Triệu Phong,unclassified,,,,,,"https://www.google.com/maps/search/?api=1&query=16.7654251,107.1655497"
Trung tâm Y tế khu vực Triệu Phong - cơ sở 2,unclassified,,,,,,"https://www.google.com/maps/search/?api=1&query=16.840553,107.1877118"
Trung tâm Y tế khu vực Tuyên Quang,unclassified,,,,,,"https://www.google.com/maps/search/?api=1&query=21.8174648,105.2169371"
Trung tâm Y tế khu vực U Minh,unclassified,,,,,,"https://www.google.com/maps/search/?api=1&query=9.4104661,104.965713"
Trung tâm Y tế khu vực Văn Chấn,unclassified,,,,,,"https://www.google.com/maps/search/?api=1&query=21.4766794,104.7364405"
Trung tâm Y tế khu vực Văn Yên,unclassified,,,,,,"https://www.google.com/maps/search/?api=1&query=21.8808369,104.6808583"
Trung tâm Y tế khu vực Vĩnh Lợi,unclassified,,,,,,"https://www.google.com/maps/search/?api=1&query=9.3582084,105.7078048"
Trung tâm Y tế khu vực Vĩnh Thạnh,unclassified,,,,,,"https://www.google.com/maps/search/?api=1&query=10.2206603,105.387794"
Trung tâm Y tế khu vực Vĩnh Tường,unclassified,,,,,,"https://www.google.com/maps/search/?api=1&query=21.2198741,105.5188216"
Trung tâm Y tế khu vực Vĩnh Yên,unclassified,,,2 Đường Phạm Văn Đồng,,,"https://www.google.com/maps/search/?api=1&query=21.310462,105.5892729"
Trung tâm Y tế khu vực Yên Bái,unclassified,,,,,,"https://www.google.com/maps/search/?api=1&query=21.7075245,104.8784591"
Trung tâm Y tế khu vực Yên Lạc,unclassified,,,,,,"https://www.google.com/maps/search/?api=1&query=21.2308964,105.572584"
Trung tâm Y tế khu vực Yên Lập,unclassified,,,,,,"https://www.google.com/maps/search/?api=1&query=21.3473689,105.0527011"
Trung tâm Y tế khu vực Yên Sơn,unclassified,,,,,,"https://www.google.com/maps/search/?api=1&query=21.7846694,105.220688"
Trung tâm Y tế khu vực Yên Thủy,unclassified,,,,,,"https://www.google.com/maps/search/?api=1&query=20.3888972,105.6277138"
Trung tâm Y tế Kiến An,public,,,,,,"https://www.google.com/maps/search/?api=1&query=20.8130922,106.6262968"
Trung tâm Y tế Kim Bảng,unclassified,,,,,,"https://www.google.com/maps/search/?api=1&query=20.5800599,105.8668856"
Trung tâm Y tế Kim Thành,unclassified,,,,,,"https://www.google.com/maps/search/?api=1&query=20.9646055,106.5006566"
Trung tâm Y tế Kinh Môn,unclassified,,,,,,"https://www.google.com/maps/search/?api=1&query=20.9943904,106.5474894"
Trung tâm Y tế Kon Plông,unclassified,,,Quốc lộ 24,,,"https://www.google.com/maps/search/?api=1&query=14.597239,108.2938771"
Trung tâm Y tế Lai Châu,unclassified,,,,,,"https://www.google.com/maps/search/?api=1&query=22.4066007,103.4306307"
Trung tâm Y tế Lê Chân,unclassified,,,169 Tô Hiệu,,,"https://www.google.com/maps/search/?api=1&query=20.8508217,106.6804252"
Trung tâm Y tế Lý Nhân,unclassified,,,,,,"https://www.google.com/maps/search/?api=1&query=20.56894,106.0295752"
Trung tâm Y tế Minh Long,unclassified,,,,,,"https://www.google.com/maps/search/?api=1&query=14.9334799,108.7051155"
Trung tâm Y tế Mộ Đức,unclassified,,,,,,"https://www.google.com/maps/search/?api=1&query=14.9884901,108.8760093"
Trung tâm Y tế Mường Ảng,unclassified,,,,,,"https://www.google.com/maps/search/?api=1&query=21.5192677,103.2178231"
Trung tâm Y tế Mường Lay,unclassified,,,,,,"https://www.google.com/maps/search/?api=1&query=22.0185836,103.1576863"
Trung tâm Y tế Mường Tè,unclassified,,,,,,"https://www.google.com/maps/search/?api=1&query=22.386168,102.7915708"
Trung tâm Y tế Mỹ Hào,unclassified,,,,,,"https://www.google.com/maps/search/?api=1&query=20.9229946,106.0954488"
Trung tâm Y tế Mỹ Lộc,unclassified,,,,,,"https://www.google.com/maps/search/?api=1&query=20.4432125,106.1226406"
Trung tâm Y tế Nam Định,unclassified,,,,,,"https://www.google.com/maps/search/?api=1&query=20.4415664,106.1923568"
Trung tâm Y tế Nam Sách,unclassified,,,,,,"https://www.google.com/maps/search/?api=1&query=20.9950085,106.3339166"
Trung tâm Y tế Nậm Nhùn,unclassified,,,,,,"https://www.google.com/maps/search/?api=1&query=22.1476084,102.9998343"
Trung tâm Y tế Nghĩa Hành,unclassified,,,,,,"https://www.google.com/maps/search/?api=1&query=15.0418838,108.7747823"
Trung tâm Y tế Ninh Giang,unclassified,,,,,,"https://www.google.com/maps/search/?api=1&query=20.7291586,106.3948496"
Trung tâm Y tế Phong Điền,unclassified,,,,,,"https://www.google.com/maps/search/?api=1&query=16.5858159,107.3667163"
Trung tâm Y tế Phố Hiến,unclassified,,,Đường Trưng Nhị,,,"https://www.google.com/maps/search/?api=1&query=20.6480911,106.0548481"
Trung tâm Y tế Phù Cát,unclassified,,,12 Đường 3 Tháng 2,,,"https://www.google.com/maps/search/?api=1&query=14.0071648,109.0606154"
Trung tâm Y tế Phù Cừ,unclassified,,,,,,"https://www.google.com/maps/search/?api=1&query=20.7288643,106.1745121"
Trung tâm Y tế Phú Lộc,unclassified,,,,,,"https://www.google.com/maps/search/?api=1&query=16.269698,107.8715452"
Trung tâm Y tế Phú Lộc - cơ sở Nam Đông,unclassified,,,,,,"https://www.google.com/maps/search/?api=1&query=16.1693726,107.715081"
Trung tâm Y tế Phủ Lý,unclassified,,,,,,"https://www.google.com/maps/search/?api=1&query=20.5512863,105.9254033"
Trung tâm Y tế Phù Mỹ,unclassified,,,,,,"https://www.google.com/maps/search/?api=1&query=14.1701748,109.0479517"
Trung tâm Y tế Phú Vang,unclassified,,,,,,"https://www.google.com/maps/search/?api=1&query=16.4452419,107.7089802"
Trung tâm Y tế Phú Xuân,unclassified,,,40 Kim Long,,,"https://www.google.com/maps/search/?api=1&query=16.45972,107.5637699"
Trung tâm Y tế Quảng Điền,unclassified,,,,,,"https://www.google.com/maps/search/?api=1&query=16.5713377,107.51232"
Trung tâm Y tế Quảng Ngãi,unclassified,,,222 Nguyễn Du,,,"https://www.google.com/maps/search/?api=1&query=15.1177882,108.8131949"
Trung tâm Y tế quận Cẩm Lệ,unclassified,,,105 Đường Nguyễn Nhàn,,,"https://www.google.com/maps/search/?api=1&query=16.0098564,108.1951896"
Trung tâm Y tế Quân dân y đặc khu Lý Sơn,unclassified,,,,,,"https://www.google.com/maps/search/?api=1&query=15.373608,109.1138387"
Trung tâm Y tế quận Hải Châu,unclassified,,,38 Đường Cao Thắng,,,"https://www.google.com/maps/search/?api=1&query=16.0765046,108.2142367"
Trung tâm Y tế quận Hoàn Kiếm,unclassified,,,26 Phố Lương Ngọc Quyết,,,"https://www.google.com/maps/search/?api=1&query=21.0350369,105.8523965"
Trung tâm Y tế quận Liên Chiểu,unclassified,,,,,,"https://www.google.com/maps/search/?api=1&query=16.0640276,108.1554429"
Trung tâm Y tế quận Nam Từ Liêm,unclassified,,,,,,"https://www.google.com/maps/search/?api=1&query=21.0387889,105.7657416"
Trung tâm Y tế quận Ngũ Hành Sơn,unclassified,,,,,,"https://www.google.com/maps/search/?api=1&query=16.0083739,108.2571427"
Trung tâm Y tế quận Sơn Trà,unclassified,,,1118 Đường Ngô Quyền,,,"https://www.google.com/maps/search/?api=1&query=16.0579051,108.2346537"
Trung tâm Y tế quận Tây Hồ,public,,,,,,"https://www.google.com/maps/search/?api=1&query=21.0480654,105.8103421"
Trung tâm Y tế quận Thanh Khê,unclassified,,,,,,"https://www.google.com/maps/search/?api=1&query=16.0687125,108.1896135"
Trung tâm Y tế Quy Nhơn,unclassified,,,114 Trần Hưng Đạo,,,"https://www.google.com/maps/search/?api=1&query=13.7747431,109.2374693"
Trung tâm Y tế Rạch Giá,unclassified,,,2 Âu Cơ,,,"https://www.google.com/maps/search/?api=1&query=9.9981885,105.0922838"
Trung tâm Y tế Sa Thầy,unclassified,,,,,,"https://www.google.com/maps/search/?api=1&query=14.4067128,107.796094"
Trung tâm Y tế Sìn Hồ,unclassified,,,,,,"https://www.google.com/maps/search/?api=1&query=22.3616216,103.2506107"
Trung tâm Y tế Sơn Hà,unclassified,,,,,,"https://www.google.com/maps/search/?api=1&query=15.0421231,108.471703"
Trung tâm Y tế Sơn Tây,unclassified,,,,,,"https://www.google.com/maps/search/?api=1&query=14.9813914,108.3348996"
Trung tâm Y tế Sơn Tịnh,unclassified,,,,,,"https://www.google.com/maps/search/?api=1&query=15.1524006,108.7844913"
Trung tâm Y tế Tam Đường,unclassified,,,,,,"https://www.google.com/maps/search/?api=1&query=22.3204145,103.6336698"
Trung Tâm Y Tế Tân Phú,unclassified,,,,,,"https://www.google.com/maps/search/?api=1&query=11.2738264,107.4408176"
Trung tâm Y tế Tân Uyên,unclassified,,,,,,"https://www.google.com/maps/search/?api=1&query=22.1704872,103.7507739"
Trung tâm Y tế Thạch Hà,unclassified,,,,,,"https://www.google.com/maps/search/?api=1&query=18.3785656,105.8532189"
Trung tâm Y tế Than Uyên,unclassified,,,,,,"https://www.google.com/maps/search/?api=1&query=21.9516064,103.8800938"
Trung tâm Y tế Thanh Hà,unclassified,,,,,,"https://www.google.com/maps/search/?api=1&query=20.9077792,106.4268056"
Trung tâm Y tế Thanh Liêm,unclassified,,,,,,"https://www.google.com/maps/search/?api=1&query=20.4756452,105.9540905"
Trung tâm Y tế Thanh Miện,unclassified,,,,,,"https://www.google.com/maps/search/?api=1&query=20.7935721,106.2372404"
Trung tâm Y tế thành phố Bắc Kạn,public,,,,,,"https://www.google.com/maps/search/?api=1&query=22.1403179,105.8349174"
Trung tâm Y tế thành phố Hội An,public,,,,,,"https://www.google.com/maps/search/?api=1&query=15.8805848,108.332732"
Trung tâm Y tế thành phố Long Xuyên,public,,,,,,"https://www.google.com/maps/search/?api=1&query=10.3745695,105.4406646"
Trung tâm Y tế thành phố Mĩ Tho,public,,,,,,"https://www.google.com/maps/search/?api=1&query=10.3645962,106.3642142"
Trung tâm Y tế thành phố Phổ Yên,public,,,,,,"https://www.google.com/maps/search/?api=1&query=21.4178117,105.8620852"
Trung tâm Y tế thành phố Pleiku,public,,,02 Trần Quốc Toản,,,"https://www.google.com/maps/search/?api=1&query=13.9793642,107.990562"
Trung tâm Y tế thành phố Sông Công,public,,,,,,"https://www.google.com/maps/search/?api=1&query=21.4593691,105.8501064"
Trung tâm Y tế thành phố Tam Điệp,public,,,,,,"https://www.google.com/maps/search/?api=1&query=20.1585656,105.9174014"
Trung tâm Y tế thành phố Tam Kỳ,public,,,,,,"https://www.google.com/maps/search/?api=1&query=15.5588527,108.4945513"
Trung tâm Y tế thành phố Tân An,public,,,,,,"https://www.google.com/maps/search/?api=1&query=10.5383985,106.4158639"
Trung tâm Y tế thành phố Thái Nguyên,public,,,,,,"https://www.google.com/maps/search/?api=1&query=21.5882883,105.8483349"
Trung tâm y tế thị trấn Trường Sa,unclassified,,,,,,"https://www.google.com/maps/search/?api=1&query=8.6443869,111.9186307"
Trung tâm Y tế thị xã An Khê,unclassified,,,,,,"https://www.google.com/maps/search/?api=1&query=13.9600662,108.6745301"
Trung tâm Y tế thị xã Ayun Pa,unclassified,,,,,,"https://www.google.com/maps/search/?api=1&query=13.4039133,108.4255994"
Trung tâm Y tế thị xã Chũ,unclassified,,,,,,"https://www.google.com/maps/search/?api=1&query=21.377891,106.5756937"
Trung tâm Y tế thị xã Cửa Lò,unclassified,,,,,,"https://www.google.com/maps/search/?api=1&query=18.7959964,105.7247524"
Trung tâm Y tế thị xã Điện Bàn,unclassified,,,97 Đường Mẹ Thứ,,,"https://www.google.com/maps/search/?api=1&query=15.8899508,108.2518361"
Trung tâm Y tế thị xã Hoàng Mai,unclassified,,,,,,"https://www.google.com/maps/search/?api=1&query=19.2458558,105.7044403"
Trung tâm Y tế Thuận Bắc,unclassified,,,,,,"https://www.google.com/maps/search/?api=1&query=11.7103614,109.0558269"
Trung tâm Y tế Thuận Hóa,unclassified,,,17 Bùi Thị Xuân,,,"https://www.google.com/maps/search/?api=1&query=16.4566132,107.5768488"
Trung tâm Y tế Tiên Điền,unclassified,,,,,,"https://www.google.com/maps/search/?api=1&query=18.6643694,105.7625747"
Trung tâm Y tế Tiên Lãng,unclassified,,,,,,"https://www.google.com/maps/search/?api=1&query=20.7179835,106.5539572"
Trung tâm Y tế Tiên Lữ,unclassified,,,,,,"https://www.google.com/maps/search/?api=1&query=20.7058536,106.1345723"
Trung tâm Y tế Trà Bồng,unclassified,,,,,,"https://www.google.com/maps/search/?api=1&query=15.2564543,108.5198352"
Trung tâm Y tế Tu Mơ Rông,unclassified,,,,,,"https://www.google.com/maps/search/?api=1&query=14.792998,107.9438435"
Trung tâm Y tế Tủa Chùa,unclassified,,,,,,"https://www.google.com/maps/search/?api=1&query=21.8509707,103.3552596"
Trung tâm Y tế Tuần Giáo,unclassified,,,,,,"https://www.google.com/maps/search/?api=1&query=21.5876931,103.4185892"
Trung tâm Y tế Tuy Phong,unclassified,,,,,,"https://www.google.com/maps/search/?api=1&query=11.2293445,108.727998"
Trung tâm Y tế Tuy Phước,unclassified,,,,,,"https://www.google.com/maps/search/?api=1&query=13.8203096,109.1511356"
Trung tâm Y tế Tứ Kỳ,unclassified,,,,,,"https://www.google.com/maps/search/?api=1&query=20.8159092,106.4066088"
Trung tâm Y tế Tư Nghĩa,unclassified,,,,,,"https://www.google.com/maps/search/?api=1&query=15.0887941,108.8175313"
Trung tâm Y tế TX. Tịnh Biên,unclassified,,,,,,"https://www.google.com/maps/search/?api=1&query=10.6233123,105.0149958"
Trung tâm Y tế Văn Giang,unclassified,,,,,,"https://www.google.com/maps/search/?api=1&query=20.9510699,105.9441322"
Trung tâm Y tế Văn Lâm,unclassified,,,,,,"https://www.google.com/maps/search/?api=1&query=20.9844168,106.0259558"
Trung tâm y tế Vietsovpetro,unclassified,,,2 Pasteur,,,"https://www.google.com/maps/search/?api=1&query=10.3602708,107.0838967"
Trung tâm Y tế Vũ Quang,unclassified,,,,,,"https://www.google.com/maps/search/?api=1&query=18.3778484,105.5087429"
Trung tâm Y tế xã Văn Quan,unclassified,,,,,,"https://www.google.com/maps/search/?api=1&query=21.8661944,106.5419999"
Trung tâm Y tế Yên Mỹ,unclassified,,,,,,"https://www.google.com/maps/search/?api=1&query=20.8917039,106.0447753"
TT Nha khoa Mỹ Thuật Cao,unclassified,,,,,,"https://www.google.com/maps/search/?api=1&query=10.0437641,105.7815365"
TT Y tế dự phòng Đăk Lăk,unclassified,,,72 Lê Duẩn,,,"https://www.google.com/maps/search/?api=1&query=12.6677459,108.0393416"
TTYT Cộng Đồng,unclassified,,,,,,"https://www.google.com/maps/search/?api=1&query=21.1071523,106.3974123"
Vạn Phước Cửu Long,unclassified,,,,,,"https://www.google.com/maps/search/?api=1&query=10.0198653,105.7668098"
Viện Pasteur Thành phố Hồ Chí Minh,public,,,167 Đường Pasteur,,,"https://www.google.com/maps/search/?api=1&query=10.786266,106.688855"
Viện Pháp y Tâm thần Trung ương Biên Hòa,public,,,,,,"https://www.google.com/maps/search/?api=1&query=10.9693723,106.8451401"
Viện quân y 7,public,,,,,,"https://www.google.com/maps/search/?api=1&query=20.865017,106.6801313"
Viện Y học biển Việt Nam,unclassified,,,21 Đường Võ Nguyên Giáp,,,"https://www.google.com/maps/search/?api=1&query=20.8306611,106.6853344"
Viên Y học Hải quân,unclassified,,,,,,"https://www.google.com/maps/search/?api=1&query=20.8225799,106.6990971"
Viện Y học Phòng không - Không quân,unclassified,,,,,,"https://www.google.com/maps/search/?api=1&query=21.0002165,105.8257561"
Vinmec Marina,private,,,,,,"https://www.google.com/maps/search/?api=1&query=20.8228435,106.6875837"
Bệnh viện Đa khoa Bình Phú,public,Bình Phú,,"2 Chợ Lớn, Bình Phú",,,"https://www.google.com/maps/search/?api=1&query=10.7465336,106.6345704"
Bệnh viện Đa khoa Chánh Hưng,public,Chánh Hưng,,"82 Cao Lỗ, Chánh Hưng",,,"https://www.google.com/maps/search/?api=1&query=10.7416982,106.6764696"
Trung tâm y tế dự phòng quận Hà Đông,unclassified,Hà Đông,,"Tô Hiệu, Hà Đông",,,"https://www.google.com/maps/search/?api=1&query=20.9677609,105.7789877"
Trạm Y Tế An Phú,unclassified,Ninh Kiều,,"9 Lê Lai, Ninh Kiều",02923830075,,"https://www.google.com/maps/search/?api=1&query=10.0330366,105.7797441"
Bệnh viện Đa khoa Phú Nhuận,public,Phú Nhuận,,"250 Nguyễn Trọng Tuyển, Phú Nhuận",,,"https://www.google.com/maps/search/?api=1&query=10.7982597,106.6718231"
Bệnh viện Đa khoa Tân Định,public,Tân Định,,"338 Hai Bà Trưng, Tân Định",,,"https://www.google.com/maps/search/?api=1&query=10.7902069,106.6896592"
Bệnh viện Đa khoa Trung Mỹ Tây,public,Trung Mỹ Tây,,"111 Dương Thị Mười, Trung Mỹ Tây",,,"https://www.google.com/maps/search/?api=1&query=10.8608483,106.6307188"
Bệnh viện Sản - Nhi Bắc Ninh số 1,public,Dĩnh Kế,Bắc Giang,"Giáp Hải, Dĩnh Kế, Bắc Giang",,,"https://www.google.com/maps/search/?api=1&query=21.2802347,106.2127532"
Bệnh viện Tâm thần tỉnh Bắc Giang,public,Song Mai,Bắc Giang,"Song Mai, Bắc Giang",,,"https://www.google.com/maps/search/?api=1&query=21.3035561,106.1709165"
Bệnh viện Nội tiết tỉnh Bắc Giang,public,Tân Mỹ,Bắc Giang,"Tân Mỹ, Bắc Giang",,,"https://www.google.com/maps/search/?api=1&query=21.2711678,106.1715738"
Bệnh viện Ung bướu tỉnh Bắc Giang,public,Tân Mỹ,Bắc Giang,"Tân Mỹ, Bắc Giang",,,"https://www.google.com/maps/search/?api=1&query=21.2724692,106.1717331"
Bệnh viện Phục hồi chức năng tỉnh Bắc Giang,public,Tân Yên,Bắc Giang,"Tân Yên, Bắc Giang",,,"https://www.google.com/maps/search/?api=1&query=21.3129865,106.1589692"
Trung tâm Y tế huyện Gia Bình,unclassified,Huyện Gia Bình,Bắc Ninh,"Huyện Gia Bình, Bắc Ninh",,,"https://www.google.com/maps/search/?api=1&query=21.053137,106.1815146"
Trung tâm Y tế huyện Lương Tài,unclassified,Huyện Lương Tài,Bắc Ninh,"Đường Hàn Thuyên, Huyện Lương Tài, Bắc Ninh",,,"https://www.google.com/maps/search/?api=1&query=21.0237364,106.2078327"
Trạm Y tế xã Cảnh Hưng,unclassified,Huyện Tiên Du,Bắc Ninh,"Huyện Tiên Du, Bắc Ninh",,,"https://www.google.com/maps/search/?api=1&query=21.0834221,106.0288244"
Trạm Y tế xã Hoàn Sơn,unclassified,Huyện Tiên Du,Bắc Ninh,"Huyện Tiên Du, Bắc Ninh",,,"https://www.google.com/maps/search/?api=1&query=21.1090993,105.9951628"
Trạm Y tế xã Lạc Vệ,unclassified,Huyện Tiên Du,Bắc Ninh,"Huyện Tiên Du, Bắc Ninh",,,"https://www.google.com/maps/search/?api=1&query=21.1225839,106.0813057"
Trạm Y tế xã Liên Bão,unclassified,Huyện Tiên Du,Bắc Ninh,"Huyện Tiên Du, Bắc Ninh",,,"https://www.google.com/maps/search/?api=1&query=21.1261942,106.0289382"
Trạm Y tế xã Minh Đạo,unclassified,Huyện Tiên Du,Bắc Ninh,"Huyện Tiên Du, Bắc Ninh",,,"https://www.google.com/maps/search/?api=1&query=21.0862227,106.059415"
Trạm Y tế xã Việt Đoàn,unclassified,Huyện Tiên Du,Bắc Ninh,"Đường tỉnh 270, Huyện Tiên Du, Bắc Ninh",,,"https://www.google.com/maps/search/?api=1&query=21.1094224,106.0372549"
Trạm Y tế xã Đông Phong,unclassified,Huyện Yên Phong,Bắc Ninh,"Huyện Yên Phong, Bắc Ninh",,,"https://www.google.com/maps/search/?api=1&query=21.1913643,106.0141909"
Trạm Y tế xã Tam Đa,unclassified,Huyện Yên Phong,Bắc Ninh,"Huyện Yên Phong, Bắc Ninh",,,"https://www.google.com/maps/search/?api=1&query=21.2231628,106.0322293"
Trạm Y tế xã Thụy Hòa,unclassified,Huyện Yên Phong,Bắc Ninh,"Huyện Yên Phong, Bắc Ninh",,,"https://www.google.com/maps/search/?api=1&query=21.2088181,106.0181709"
Trạm Y tế xã Yên Trung,unclassified,Huyện Yên Phong,Bắc Ninh,"Huyện Yên Phong, Bắc Ninh",,,"https://www.google.com/maps/search/?api=1&query=21.2197638,105.9843686"
Trung tâm Y tế huyện Yên Phong,unclassified,Huyện Yên Phong,Bắc Ninh,"Đường Huỳnh Thúc Kháng, Huyện Yên Phong, Bắc Ninh",,,"https://www.google.com/maps/search/?api=1&query=21.1992903,105.9543014"
Trạm Y tế phường Đào Viên,unclassified,Phường Đào Viên,Bắc Ninh,"Phường Đào Viên, Bắc Ninh",,,"https://www.google.com/maps/search/?api=1&query=21.11356,106.206368"
Trạm Y Tế phường Quế Võ,unclassified,Phường Quế Võ,Bắc Ninh,"1197 Đường Quang Trung, Phường Quế Võ, Bắc Ninh",,,"https://www.google.com/maps/search/?api=1&query=21.1548648,106.1520219"
Bệnh viện Da liễu Bắc Ninh,public,Thành phố Bắc Ninh,Bắc Ninh,"109 Đường Vua Bà, Thành phố Bắc Ninh, Bắc Ninh",,https://www.bacninh.gov.vn/web/bvdl/,"https://www.google.com/maps/search/?api=1&query=21.2085335,106.0509606"
Bệnh viện Đa khoa Bắc Ninh số 2,public,Thành phố Bắc Ninh,Bắc Ninh,"Đường Nguyễn Quyền, Thành phố Bắc Ninh, Bắc Ninh",,,"https://www.google.com/maps/search/?api=1&query=21.1667986,106.066409"
Bệnh viện Đa khoa Hồng Phúc,public,Thành phố Bắc Ninh,Bắc Ninh,"434 Đường Nguyễn Văn Cừ, Thành phố Bắc Ninh, Bắc Ninh",,,"https://www.google.com/maps/search/?api=1&query=21.1679488,106.0460733"
Bệnh Viện Đa Khoa Thành An - Thăng Long,public,Thành phố Bắc Ninh,Bắc Ninh,"144 Đường Nguyễn Văn Cừ, Thành phố Bắc Ninh, Bắc Ninh",,,"https://www.google.com/maps/search/?api=1&query=21.1744345,106.0543626"
Bệnh viện Mắt tỉnh Bắc Ninh,public,Thành phố Bắc Ninh,Bắc Ninh,"16 Đường Nguyễn Đoan Trung, Thành phố Bắc Ninh, Bắc Ninh",,,"https://www.google.com/maps/search/?api=1&query=21.132944,106.0764671"
Bệnh viện Quân y 110,public,Thành phố Bắc Ninh,Bắc Ninh,"7 Đường Trần Lựu, Thành phố Bắc Ninh, Bắc Ninh",,,"https://www.google.com/maps/search/?api=1&query=21.1981034,106.0908201"
Bệnh viện Sản - Nhi Bắc Ninh số 2,public,Thành phố Bắc Ninh,Bắc Ninh,"Đường Huyền Quang, Thành phố Bắc Ninh, Bắc Ninh",,https://benhviensannhibacninhso2.vn/,"https://www.google.com/maps/search/?api=1&query=21.1694459,106.0680529"
Bệnh viện Sức khoẻ Tâm thần tỉnh Bắc Ninh,public,Thành phố Bắc Ninh,Bắc Ninh,"Đường Trần Bá Linh, Thành phố Bắc Ninh, Bắc Ninh",,,"https://www.google.com/maps/search/?api=1&query=21.1898271,106.0889369"
Bệnh viện Sức khoẻ Tâm thần tỉnh Bắc Ninh - Khu điều trị Nội trú,public,Thành phố Bắc Ninh,Bắc Ninh,"Đường Trần Bá Linh, Thành phố Bắc Ninh, Bắc Ninh",,,"https://www.google.com/maps/search/?api=1&query=21.1891764,106.0887339"
Bệnh viện Y học cổ truyền và Phục hồi chức năng - Bệnh viện Phổi tỉnh Bắc Ninh,public,Thành phố Bắc Ninh,Bắc Ninh,"Đường Vũ Ninh, Thành phố Bắc Ninh, Bắc Ninh",,,"https://www.google.com/maps/search/?api=1&query=21.1904613,106.0810285"
Bệnh xá Công an tỉnh Bắc Ninh,public,Thành phố Bắc Ninh,Bắc Ninh,"Đường Nguyễn Văn Cừ, Thành phố Bắc Ninh, Bắc Ninh",,,"https://www.google.com/maps/search/?api=1&query=21.1761097,106.0573483"
Phòng khám Đa Khoa Quốc Tế Việt Sing - Bắc Ninh,private,Thành phố Bắc Ninh,Bắc Ninh,"169 Đường Hoàng Hoa Thám, Thành phố Bắc Ninh, Bắc Ninh",,,"https://www.google.com/maps/search/?api=1&query=21.1733222,106.0546691"
Trạm Y tế phường Đại Phúc,unclassified,Thành phố Bắc Ninh,Bắc Ninh,"29 Đường Trần Xuân Soạn, Thành phố Bắc Ninh, Bắc Ninh",,,"https://www.google.com/maps/search/?api=1&query=21.1734792,106.0782557"
Trạm Y tế phường Đáp Cầu,unclassified,Thành phố Bắc Ninh,Bắc Ninh,"Đường Như Nguyệt, Thành phố Bắc Ninh, Bắc Ninh",,,"https://www.google.com/maps/search/?api=1&query=21.2011424,106.1013209"
Trạm Y tế phường Hòa Long,unclassified,Thành phố Bắc Ninh,Bắc Ninh,"Đường Nguyễn Văn Huyên, Thành phố Bắc Ninh, Bắc Ninh",,,"https://www.google.com/maps/search/?api=1&query=21.2167351,106.0539794"
Trạm Y tế phường Khắc Niệm,unclassified,Thành phố Bắc Ninh,Bắc Ninh,"Đường Nguyễn Thủ Tiệp, Thành phố Bắc Ninh, Bắc Ninh",,,"https://www.google.com/maps/search/?api=1&query=21.1417023,106.0570501"
Trạm Y tế phường Kim Chân,unclassified,Thành phố Bắc Ninh,Bắc Ninh,"Đường Chu Huân, Thành phố Bắc Ninh, Bắc Ninh",,,"https://www.google.com/maps/search/?api=1&query=21.1937606,106.1079708"
Trạm y tế phường Kinh Bắc,private,Thành phố Bắc Ninh,Bắc Ninh,"Phố Yên Mẫn, Thành phố Bắc Ninh, Bắc Ninh",,,"https://www.google.com/maps/search/?api=1&query=21.1882324,106.0616157"
Trạm Y tế phường Ninh Xá,unclassified,Thành phố Bắc Ninh,Bắc Ninh,"34 Ngõ 26 Đường Huyền Quang, Thành phố Bắc Ninh, Bắc Ninh",,,"https://www.google.com/maps/search/?api=1&query=21.1781881,106.0604329"
Trạm Y tế phường Suối Hoa,unclassified,Thành phố Bắc Ninh,Bắc Ninh,"112 Phố Lý Chiêu Hoàng, Thành phố Bắc Ninh, Bắc Ninh",,,"https://www.google.com/maps/search/?api=1&query=21.1819987,106.0711993"
Trạm Y tế phường Thị Cầu,unclassified,Thành phố Bắc Ninh,Bắc Ninh,"1B Đường Trần Lựu, Thành phố Bắc Ninh, Bắc Ninh",,,"https://www.google.com/maps/search/?api=1&query=21.1961644,106.0936313"
Trạm Y tế phường Tiền Ninh Vệ,unclassified,Thành phố Bắc Ninh,Bắc Ninh,"117 Đường Trần Hưng Đạo, Thành phố Bắc Ninh, Bắc Ninh",,,"https://www.google.com/maps/search/?api=1&query=21.1804689,106.0656926"
Trạm Y tế phường Vạn An,unclassified,Thành phố Bắc Ninh,Bắc Ninh,"11 Ngõ 793 Đường Thiên Đức, Thành phố Bắc Ninh, Bắc Ninh",,,"https://www.google.com/maps/search/?api=1&query=21.1942989,106.0471796"
Trạm Y tế phường Vệ An,unclassified,Thành phố Bắc Ninh,Bắc Ninh,"105 Đường Thiên Đức, Thành phố Bắc Ninh, Bắc Ninh",,,"https://www.google.com/maps/search/?api=1&query=21.1847629,106.0625317"
Trạm Y tế phường Võ Cường,unclassified,Thành phố Bắc Ninh,Bắc Ninh,"Phố Hoà Đình, Thành phố Bắc Ninh, Bắc Ninh",,,"https://www.google.com/maps/search/?api=1&query=21.1681194,106.0484832"
Trạm Y tế phường Vũ Ninh,unclassified,Thành phố Bắc Ninh,Bắc Ninh,"Thành phố Bắc Ninh, Bắc Ninh",,,"https://www.google.com/maps/search/?api=1&query=21.189261,106.0807506"
"Trung tâm phòng, chống HIV/ AIDS tỉnh Bắc Ninh",unclassified,Thành phố Bắc Ninh,Bắc Ninh,"Đường Huyền Quang, Thành phố Bắc Ninh, Bắc Ninh",,,"https://www.google.com/maps/search/?api=1&query=21.1703092,106.0675899"
Trung tâm Y tế thành phố Bắc Ninh,public,Thành phố Bắc Ninh,Bắc Ninh,"Đường Lê Phụng Hiểu, Thành phố Bắc Ninh, Bắc Ninh",,,"https://www.google.com/maps/search/?api=1&query=21.1811289,106.0573836"
Trạm Y tế phường Châu Khê,unclassified,Thành phố Từ Sơn,Bắc Ninh,"129 Đường Lý Thường Kiệt, Thành phố Từ Sơn, Bắc Ninh",,,"https://www.google.com/maps/search/?api=1&query=21.1140789,105.9287852"
Trạm Y tế phường Đồng Nguyên,unclassified,Thành phố Từ Sơn,Bắc Ninh,"Đường Nguyễn Quán Quang, Thành phố Từ Sơn, Bắc Ninh",,,"https://www.google.com/maps/search/?api=1&query=21.1274214,105.9728589"
Trạm Y tế phường Phù Chẩn,unclassified,Thành phố Từ Sơn,Bắc Ninh,"Đường Trần Cố, Thành phố Từ Sơn, Bắc Ninh",,,"https://www.google.com/maps/search/?api=1&query=21.094283,105.9694159"
Trạm Y tế phường Phù Khê,unclassified,Thành phố Từ Sơn,Bắc Ninh,"Đường Nguyễn Văn Cừ, Thành phố Từ Sơn, Bắc Ninh",,,"https://www.google.com/maps/search/?api=1&query=21.1414976,105.9352137"
Trạm Y tế phường Tam Sơn,unclassified,Thành phố Từ Sơn,Bắc Ninh,"Đường Nghìn Việc Tốt, Thành phố Từ Sơn, Bắc Ninh",,,"https://www.google.com/maps/search/?api=1&query=21.1468655,105.9707744"
Trung tâm Y tế phường Đình Bảng,unclassified,Thành phố Từ Sơn,Bắc Ninh,"Phố Vạn Hạnh, Thành phố Từ Sơn, Bắc Ninh",,,"https://www.google.com/maps/search/?api=1&query=21.1123583,105.953696"
Trung tâm Y tế thành phố Từ Sơn,public,Thành phố Từ Sơn,Bắc Ninh,"Đường Minh Khai, Thành phố Từ Sơn, Bắc Ninh",,,"https://www.google.com/maps/search/?api=1&query=21.1239128,105.9722042"
Bệnh viện Đa khoa Thiện Nhân,public,Thị xã Quế Võ,Bắc Ninh,"Đường Trần Hưng Đạo, Thị xã Quế Võ, Bắc Ninh",,,"https://www.google.com/maps/search/?api=1&query=21.1531635,106.1555431"
Phòng khám Đa khoa Hoàn Mỹ,private,Thị xã Quế Võ,Bắc Ninh,"Đường Trần Hưng Đạo, Thị xã Quế Võ, Bắc Ninh",,,"https://www.google.com/maps/search/?api=1&query=21.1570949,106.1333168"
Phòng Y Tế Thị xã Quế Võ,unclassified,Thị xã Quế Võ,Bắc Ninh,"Đường Nguyễn Duy Trinh, Thị xã Quế Võ, Bắc Ninh",,,"https://www.google.com/maps/search/?api=1&query=21.1498669,106.153947"
Trạm Y tế phường Bồng Lai,unclassified,Thị xã Quế Võ,Bắc Ninh,"Thị xã Quế Võ, Bắc Ninh",,,"https://www.google.com/maps/search/?api=1&query=21.1260013,106.1576711"
Trạm Y tế phường Đại Xuân,unclassified,Thị xã Quế Võ,Bắc Ninh,"Thị xã Quế Võ, Bắc Ninh",,,"https://www.google.com/maps/search/?api=1&query=21.1940041,106.1259773"
Trạm Y tế phường Phương Liễu,unclassified,Thị xã Quế Võ,Bắc Ninh,"Phố Nguyễn Bỉnh Trục, Thị xã Quế Võ, Bắc Ninh",,,"https://www.google.com/maps/search/?api=1&query=21.1602921,106.1260995"
Trạm Y tế phường Phượng Mao,unclassified,Thị xã Quế Võ,Bắc Ninh,"Phố Nguyễn Nhân Dư, Thị xã Quế Võ, Bắc Ninh",,,"https://www.google.com/maps/search/?api=1&query=21.1522661,106.1421954"
Trạm Y tế phường Quế Tân,unclassified,Thị xã Quế Võ,Bắc Ninh,"490 Đường Khuất Duy Tiến, Thị xã Quế Võ, Bắc Ninh",,,"https://www.google.com/maps/search/?api=1&query=21.1673709,106.1898061"
Trạm Y tế phường Việt Hùng,unclassified,Thị xã Quế Võ,Bắc Ninh,"Đường Trần Hưng Đạo, Thị xã Quế Võ, Bắc Ninh",,,"https://www.google.com/maps/search/?api=1&query=21.1472276,106.1673013"
Trạm Y tế xã Chi Lăng,unclassified,Thị xã Quế Võ,Bắc Ninh,"Thị xã Quế Võ, Bắc Ninh",,,"https://www.google.com/maps/search/?api=1&query=21.0948026,106.1347886"
Trạm Y tế xã Mộ Đạo,unclassified,Thị xã Quế Võ,Bắc Ninh,"Thị xã Quế Võ, Bắc Ninh",,,"https://www.google.com/maps/search/?api=1&query=21.1175221,106.1443232"
Trung tâm tiêm chủng VNVC Quế Võ,unclassified,Thị xã Quế Võ,Bắc Ninh,"Đường Trần Hưng Đạo, Thị xã Quế Võ, Bắc Ninh",,,"https://www.google.com/maps/search/?api=1&query=21.1548705,106.1403373"
Trung tâm Y tế thị xã Quế Võ,unclassified,Thị xã Quế Võ,Bắc Ninh,"Thị xã Quế Võ, Bắc Ninh",,,"https://www.google.com/maps/search/?api=1&query=21.1545587,106.1588029"
Bệnh viện Đa khoa Ngã tư Hồ,public,Thị xã Thuận Thành,Bắc Ninh,"Đường Thiên Đức, Thị xã Thuận Thành, Bắc Ninh",,,"https://www.google.com/maps/search/?api=1&query=21.0656937,106.0865916"
Trạm Y tế phường An Bình,unclassified,Thị xã Thuận Thành,Bắc Ninh,"Phố Nguyễn Cư Đạo, Thị xã Thuận Thành, Bắc Ninh",,,"https://www.google.com/maps/search/?api=1&query=21.0463292,106.1154971"
Trạm Y tế phường Song Hồ,unclassified,Thị xã Thuận Thành,Bắc Ninh,"Phố Nguyễn Chí Tố, Thị xã Thuận Thành, Bắc Ninh",,,"https://www.google.com/maps/search/?api=1&query=21.0631663,106.0833823"
Trạm Y tế phường Trí Quả,unclassified,Thị xã Thuận Thành,Bắc Ninh,"Thị xã Thuận Thành, Bắc Ninh",,,"https://www.google.com/maps/search/?api=1&query=21.0462459,106.0302158"
Trạm Y tế phường Xuân Lâm,unclassified,Thị xã Thuận Thành,Bắc Ninh,"Thị xã Thuận Thành, Bắc Ninh",,,"https://www.google.com/maps/search/?api=1&query=21.0245635,106.0198526"
Trạm Y tế xã Đại Đồng Thành,unclassified,Thị xã Thuận Thành,Bắc Ninh,"Thị xã Thuận Thành, Bắc Ninh",,,"https://www.google.com/maps/search/?api=1&query=21.0753721,106.0573939"
Trung tâm Y tế thị xã Thuận Thành,unclassified,Thị xã Thuận Thành,Bắc Ninh,"Thị xã Thuận Thành, Bắc Ninh",,,"https://www.google.com/maps/search/?api=1&query=21.0383603,106.0869532"
Trung tâm Y tế huyện Tiên Du,unclassified,Tiên Du,Bắc Ninh,"Tiên Du, Bắc Ninh",,,"https://www.google.com/maps/search/?api=1&query=21.1333784,106.026964"
Phòng khám Đắc Tín,public,"KP. Phú Hòa, Phường Hòa Lợi",Bến Cát,"573 Nguyễn Văn Thành, KP. Phú Hòa, Phường Hòa Lợi, Bến Cát",,,"https://www.google.com/maps/search/?api=1&query=11.0692339,106.6589666"
Bệnh Viện Tâm Thần tỉnh Bến Tre,public,Châu Thành,Bến Tre,"ĐT. 883, Châu Thành, Bến Tre",,,"https://www.google.com/maps/search/?api=1&query=10.2690607,106.3916986"
Bệnh Viện Minh Đức,private,TP Bến Tre,Bến Tre,"333D Đoàn Hoàng Minh, TP Bến Tre, Bến Tre",,,"https://www.google.com/maps/search/?api=1&query=10.2398715,106.3675519"
Bệnh viện Nguyễn Đình Chiểu,public,TP Bến Tre,Bến Tre,"109 Đoàn Hoàng Minh, TP Bến Tre, Bến Tre",,,"https://www.google.com/maps/search/?api=1&query=10.2385235,106.3668604"
Bệnh viện Đa khoa Cao su Dầu Tiếng,public,Dầu Tiếng,Bình Dương,"Hùng Vương, Dầu Tiếng, Bình Dương",,,"https://www.google.com/maps/search/?api=1&query=11.2821412,106.3634531"
Tree Spa,unclassified,,Buôn Ma Thuột,"59 Đinh Tiên Hoàng, Buôn Ma Thuột",,,"https://www.google.com/maps/search/?api=1&query=12.6741148,108.0456056"
Bệnh viện Đa Khoa khu vực Cam Ranh,public,Cam Lộc,Cam Ranh,"97 Nguyễn Thái Học, Cam Lộc, Cam Ranh",,,"https://www.google.com/maps/search/?api=1&query=11.9205947,109.1452643"
Bệnh viện Quân y 121,public,,Cần Thơ,Cần Thơ,,,"https://www.google.com/maps/search/?api=1&query=10.0292078,105.7823795"
Trạm y tế phường An Thới,unclassified,Bình Thủy,Cần Thơ,"Nguyễn Việt Dũng, Bình Thủy, Cần Thơ",,,"https://www.google.com/maps/search/?api=1&query=10.061234,105.763903"
Bệnh viện Đại Học Nam Cần Thơ,public,Cái Răng,Cần Thơ,"168 Đường Song Hành, Cái Răng, Cần Thơ",,,"https://www.google.com/maps/search/?api=1&query=10.0012067,105.7688101"
Bệnh viện đa khoa Gia Phước,public,Ninh Kiều,Cần Thơ,"57 Hùng Vương, Ninh Kiều, Cần Thơ",,,"https://www.google.com/maps/search/?api=1&query=10.0438706,105.7789016"
Bệnh viện Đa khoa Trung ương Cần Thơ,public,Ninh Kiều,Cần Thơ,"315 Nguyễn Văn Linh, Ninh Kiều, Cần Thơ",,,"https://www.google.com/maps/search/?api=1&query=10.0294593,105.7557932"
Bệnh viện Huyết học - Truyền máu thành phố Cần Thơ,public,Ninh Kiều,Cần Thơ,"317 Nguyễn Văn Linh, Ninh Kiều, Cần Thơ",,,"https://www.google.com/maps/search/?api=1&query=10.0295379,105.754228"
Phòng khám ACC Đà Nẵng,private,hai chau,da nanag,"116 2 thang 9, hai chau, da nanag",,,"https://www.google.com/maps/search/?api=1&query=16.0556207,108.2220154"
Dana Dental - Nha Khoa Đà Nẵng,unclassified,Hai Chau,Da Nang,"129 Đường Nguyễn Hoàng, Hai Chau, Da Nang",,,"https://www.google.com/maps/search/?api=1&query=16.0619222,108.2139467"
Bệnh viện Đa khoa Quốc tế Vinmec Đà Nẵng,private,,Đà Nẵng,Đà Nẵng,,,"https://www.google.com/maps/search/?api=1&query=16.0387718,108.211286"
Bệnh viện Mắt thành phố Đà Nẵng,public,,Đà Nẵng,"68 Phan Đăng Lưu, Đà Nẵng",,,"https://www.google.com/maps/search/?api=1&query=16.0374576,108.2196586"
Huong Dat Dental Clinic,private,,Đà Nẵng,Đà Nẵng,,,"https://www.google.com/maps/search/?api=1&query=16.0691553,108.183752"
Bệnh viện C Đà Nẵng,unclassified,Hải Châu,Đà Nẵng,"122 Đường Hải Phòng, Hải Châu, Đà Nẵng",,,"https://www.google.com/maps/search/?api=1&query=16.0731525,108.2168358"
Bệnh viện Chỉnh hình & Phục hồi Chức năng Đà Nẵng,public,Hải Châu,Đà Nẵng,"95 Quang Trung, Hải Châu, Đà Nẵng",,,"https://www.google.com/maps/search/?api=1&query=16.0736863,108.2174517"
Bệnh viện Đà Nẵng,unclassified,Hải Châu,Đà Nẵng,"124 Hải Phòng, Hải Châu, Đà Nẵng",,,"https://www.google.com/maps/search/?api=1&query=16.0729442,108.2154554"
Thien Nhan Hospital,unclassified,Hải Châu,Đà Nẵng,"276 - 278 Đường Đống Đa, Hải Châu, Đà Nẵng",+84363568988,https://thiennhanhospital.com/,"https://www.google.com/maps/search/?api=1&query=16.076597,108.2158614"
Trạm Y Tế xã Đại Chánh,unclassified,Đại Chánh,Đại Lộc,"Đại Chánh, Đại Lộc",,,"https://www.google.com/maps/search/?api=1&query=15.8098343,108.0377451"
Trung tâm Y tế huyện Ea H'leo,unclassified,Xã Ea Drăng,Đăk Lăk,"82 Đường Điện Biên Phủ, Xã Ea Drăng, Đăk Lăk",,,"https://www.google.com/maps/search/?api=1&query=13.2013423,108.2139552"
Trung tâm Y tế huyện Đắk R'lấp,unclassified,Đắk R'Lấp,Đắk Nông,"Lê Hữu Trác, Đắk R'Lấp, Đắk Nông",,,"https://www.google.com/maps/search/?api=1&query=11.9970657,107.5040051"
Trung tâm Y tế Mường Chà,unclassified,Mường Chà,Điện Biên,"Mường Chà, Điện Biên",,,"https://www.google.com/maps/search/?api=1&query=21.7459412,103.0882056"
Bệnh viện Hữu nghị Việt Nam - Cuba Đồng Hới,public,,Đồng Hới,Đồng Hới,,,"https://www.google.com/maps/search/?api=1&query=17.4743404,106.6006971"
Bệnh viện Đa khoa khu vực Định Quán,public,Định Quán,Đồng Nai,"Định Quán, Đồng Nai",,,"https://www.google.com/maps/search/?api=1&query=11.1986865,107.3630534"
Bệnh viện Đa khoa khu vực Long Thành,public,Long Thành,Đồng Nai,"Long Thành, Đồng Nai",,,"https://www.google.com/maps/search/?api=1&query=10.7934219,106.9482507"
Trung Tâm Y Tế Huyện Nhơn Trạch Tram Y Tế Xã Phước Khánh,unclassified,Nhơn Trạch,Đồng Nai,"Nhơn Trạch, Đồng Nai",,,"https://www.google.com/maps/search/?api=1&query=10.6798522,106.7874696"
Trung tâm Y tế Chư Păh,unclassified,Xã Chư Păh,Gia Lai,"Xã Chư Păh, Gia Lai",,,"https://www.google.com/maps/search/?api=1&query=14.0958013,107.9726797"
Trung tâm Y tế Xã Chư Sê,unclassified,Xã Chư Sê,Gia Lai,"63 Đường Trần Hưng Đạo, Xã Chư Sê, Gia Lai",,,"https://www.google.com/maps/search/?api=1&query=13.6954301,108.0811822"
Bệnh viện Da liễu Hà Nội,public,Đống Đa,Ha Noi,"79B Phố Nguyễn Khuyến, Đống Đa, Ha Noi",,,"https://www.google.com/maps/search/?api=1&query=21.0281103,105.8385861"
Bệnh Viện Đa Khoa Thăng Long,public,,Hà Nội,"60 Tựu Liệt, Tam Hiệp, Thanh Trì, Hà Nội",+84 4 3687 3058,,"https://www.google.com/maps/search/?api=1&query=20.9542742,105.8384237"
Bệnh viện Đa khoa Ba Vì,public,Ba Vì,Hà Nội,"Ba Vì, Hà Nội",,,"https://www.google.com/maps/search/?api=1&query=21.2162285,105.410044"
Bệnh viện 19-8,public,Cầu Giấy,Hà Nội,"9 Phố Trần Bình, Cầu Giấy, Hà Nội",,,"https://www.google.com/maps/search/?api=1&query=21.0332206,105.7778031"
Bệnh viện Đa khoa Y học cổ truyền Hà Nội,public,Cầu Giấy,Hà Nội,"8 Đường Phạm Hùng, Cầu Giấy, Hà Nội",,http://bvdkyhoccotruyenhanoi.vn/,"https://www.google.com/maps/search/?api=1&query=21.0346916,105.7794551"
Viện Huyết học - Truyền máu Trung ương,public,Cầu Giấy,Hà Nội,"Phố Phạm Văn Bạch, Cầu Giấy, Hà Nội",,https://vienhuyethoc.vn/,"https://www.google.com/maps/search/?api=1&query=21.0246967,105.7883187"
Bệnh viện Đa khoa Chương Mỹ,public,Chương Mỹ,Hà Nội,"Chương Mỹ, Hà Nội",,,"https://www.google.com/maps/search/?api=1&query=20.9208472,105.6984673"
Trạm Y tế Phụng Châu,unclassified,Chương Mỹ,Hà Nội,"Phượng Nghĩa, Chương Mỹ, Hà Nội",,,"https://www.google.com/maps/search/?api=1&query=20.9471543,105.7078282"
Bệnh viện Đa khoa Phương Đông,public,Cổ Nhuế 2,Hà Nội,"Phố Viên, Cổ Nhuế 2, Hà Nội",,,"https://www.google.com/maps/search/?api=1&query=21.0699424,105.7750912"
Bệnh viện Đa khoa Đan Phượng,public,Đan Phượng,Hà Nội,"Đan Phượng, Hà Nội",,,"https://www.google.com/maps/search/?api=1&query=21.087289,105.6713034"
Bệnh viện Bắc Thăng Long,unclassified,Đông Anh,Hà Nội,"Đông Anh, Hà Nội",,,"https://www.google.com/maps/search/?api=1&query=21.1633283,105.8576581"
Bệnh viện Bệnh nhiệt đới Trung ương (cơ sở 2),public,Đông Anh,Hà Nội,"Đông Anh, Hà Nội",,https://benhnhietdoi.vn/,"https://www.google.com/maps/search/?api=1&query=21.1314341,105.7743775"
Trạm y tế xã Xuân Canh,unclassified,Đông Anh,Hà Nội,"Đông Anh, Hà Nội",,,"https://www.google.com/maps/search/?api=1&query=21.0933898,105.8521612"
Bệnh viện Bạch Mai,public,Đống Đa,Hà Nội,"78 Đường Giải Phóng, Đống Đa, Hà Nội",,,"https://www.google.com/maps/search/?api=1&query=21.0018102,105.8394004"
Bệnh viện Da liễu Trung ương,public,Đống Đa,Hà Nội,"15A Phố Phương Mai, Đống Đa, Hà Nội",,,"https://www.google.com/maps/search/?api=1&query=21.003801,105.8387631"
Bệnh viện Đa khoa Đống Đa,public,Đống Đa,Hà Nội,"Ngõ 180 Nguyễn Lương Bằng, Đống Đa, Hà Nội",,,"https://www.google.com/maps/search/?api=1&query=21.0155559,105.8267948"
Bệnh viện Đại học Y Hà Nội,public,Đống Đa,Hà Nội,"1 Phố Tôn Thất Tùng, Đống Đa, Hà Nội",,,"https://www.google.com/maps/search/?api=1&query=21.0021305,105.8303797"
Bệnh viện Đông Đô,unclassified,Đống Đa,Hà Nội,"5 Phố Xã Đàn, Đống Đa, Hà Nội",+84 1900 1965,http://benhviendongdo.com.vn/,"https://www.google.com/maps/search/?api=1&query=21.0093319,105.8379891"
Bệnh Viện Đức Phúc,unclassified,Đống Đa,Hà Nội,"48 Phố Ô Đồng Lầm, Đống Đa, Hà Nội",+84 971 295 050,https://benhvienducphuc.com/,"https://www.google.com/maps/search/?api=1&query=21.014218,105.8408994"
Bệnh viện Lão khoa Trung ương,public,Đống Đa,Hà Nội,"1A Phố Phương Mai, Đống Đa, Hà Nội",,,"https://www.google.com/maps/search/?api=1&query=21.0036323,105.8395966"
Bệnh viện Nhi Trung ương,public,Đống Đa,Hà Nội,"18 Ngõ 879 La Thành, Đống Đa, Hà Nội",+84 24 6273 8532,https://benhviennhitrunguong.gov.vn/,"https://www.google.com/maps/search/?api=1&query=21.0249118,105.8083673"
Bệnh viện Phụ sản Hà Nội,public,Đống Đa,Hà Nội,"Ngõ 933 Đê La Thành, Đống Đa, Hà Nội",+84 24 3211 5944,https://benhvienphusanhanoi.vn/,"https://www.google.com/maps/search/?api=1&query=21.0268213,105.8074644"
Bệnh viện Tai-Mũi-Họng Trung ương,public,Đống Đa,Hà Nội,"78 Đường Giải Phóng, Đống Đa, Hà Nội",,,"https://www.google.com/maps/search/?api=1&query=20.9996733,105.8405781"
Bệnh viện Thẩm mỹ Kangnam Hàn Quốc,private,Đống Đa,Hà Nội,"190 Đường Trường Chinh, Đống Đa, Hà Nội",,,"https://www.google.com/maps/search/?api=1&query=21.000572,105.830624"
Bệnh viện Thận Hà Nội,unclassified,Đống Đa,Hà Nội,"70 Đường Nguyễn Chí Thanh, Đống Đa, Hà Nội",,,"https://www.google.com/maps/search/?api=1&query=21.0189013,105.8064109"
Bệnh viện Việt Pháp,private,Đống Đa,Hà Nội,"1 Phố Phương Mai, Đống Đa, Hà Nội",+84 24 3577 1100,https://www.hfh.com.vn,"https://www.google.com/maps/search/?api=1&query=21.0036321,105.8404443"
Viện Y học dự phòng Quân đội,public,Đống Đa,Hà Nội,"21 Phố Trung Liệt, Đống Đa, Hà Nội",,,"https://www.google.com/maps/search/?api=1&query=21.0121436,105.8217867"
Bệnh viện Đa khoa Gia Lâm,public,Gia Lâm,Hà Nội,"Gia Lâm, Hà Nội",,,"https://www.google.com/maps/search/?api=1&query=21.0093543,105.9439877"
Bệnh viện Nhi Hà Nội,unclassified,Hà Đông,Hà Nội,"Phố Nguyễn Trác, Hà Đông, Hà Nội",,,"https://www.google.com/maps/search/?api=1&query=20.9621783,105.7440708"
Trung tâm Y tế quận Hà Đông,unclassified,Hà Đông,Hà Nội,"Phố Tô Hiệu, Hà Đông, Hà Nội",,,"https://www.google.com/maps/search/?api=1&query=20.9676018,105.7791314"
Phòng khám Đa khoa Quốc tế Hà Nội,private,Hà Nội,Hà Nội,"152 Phố Xã Đàn, Hà Nội, Hà Nội",,https://ytequocte.vn/,"https://www.google.com/maps/search/?api=1&query=21.0101268,105.8382699"
Bệnh viện Hữu Nghị,public,Hai Ba Trung,Hà Nội,"1 Đường Trần Khánh Dư, Hai Ba Trung, Hà Nội",,,"https://www.google.com/maps/search/?api=1&query=21.0154534,105.8617595"
Bệnh viện Trung ương Quân đội 108,public,Hai Ba Trung,Hà Nội,"1 Phố Trần Hưng Đạo, Hai Ba Trung, Hà Nội",,,"https://www.google.com/maps/search/?api=1&query=21.0163854,105.8606157"
Bệnh viện Đa khoa Hồng Phát,public,Hai Bà Trưng,Hà Nội,"219 Đường Lê Duẩn, Hai Bà Trưng, Hà Nội",+84 962 279 115,https://benhvienhongphat.vn/,"https://www.google.com/maps/search/?api=1&query=21.0183636,105.841644"
Bệnh viện Mắt Kỹ thuật cao Hà Nội,public,Hai Bà Trưng,Hà Nội,"51-53-55 Phố Trần Nhân Tông, Hai Bà Trưng, Hà Nội",+84 984 122 153,https://benhvienmat.vn/,"https://www.google.com/maps/search/?api=1&query=21.0168006,105.849466"
Bệnh viện Mắt Quốc tế DND,private,Hai Bà Trưng,Hà Nội,"126-128 Phố Bùi Thị Xuân, Hai Bà Trưng, Hà Nội",,https://matquocte.vn/,"https://www.google.com/maps/search/?api=1&query=21.0129915,105.8496681"
Bệnh viện Mắt Trung ương,public,Hai Bà Trưng,Hà Nội,"85 Phố Bà Triệu, Hai Bà Trưng, Hà Nội",+84 24 3826 3966,https://vnio.vn/,"https://www.google.com/maps/search/?api=1&query=21.0176301,105.8495995"
Bệnh viện Mắt Việt Nhật,public,Hai Bà Trưng,Hà Nội,"122 Phố Triệu Việt Vương, Hai Bà Trưng, Hà Nội",+84 24 3974 8307,https://matvietnhat.com.vn/,"https://www.google.com/maps/search/?api=1&query=21.0145775,105.8502987"
Bệnh viện Phổi Hà Nội,public,Hai Bà Trưng,Hà Nội,"44 Phố Thanh Nhàn, Hai Bà Trưng, Hà Nội",,,"https://www.google.com/maps/search/?api=1&query=21.0033713,105.8583866"
Bệnh viện Thanh Nhàn,unclassified,Hai Bà Trưng,Hà Nội,"42 Phố Thanh Nhàn, Hai Bà Trưng, Hà Nội",,,"https://www.google.com/maps/search/?api=1&query=21.0038701,105.8590785"
Bệnh viện Ung bướu Hà Nội,public,Hai Bà Trưng,Hà Nội,"42A Phố Thanh Nhàn, Hai Bà Trưng, Hà Nội",,,"https://www.google.com/maps/search/?api=1&query=21.0040116,105.8593391"
Bệnh viện Y học cổ truyền Trung ương,public,Hai Bà Trưng,Hà Nội,"29 Phố Nguyễn Bỉnh Khiêm, Hai Bà Trưng, Hà Nội",+84 24 38263616,https://nhtm.gov.vn/,"https://www.google.com/maps/search/?api=1&query=21.0161461,105.8482711"
Bệnh viện Đa khoa Hoài Đức,public,Hoài Đức,Hà Nội,"Hoài Đức, Hà Nội",,,"https://www.google.com/maps/search/?api=1&query=21.0563858,105.7021556"
Bệnh viện K,unclassified,Hoàn Kiếm,Hà Nội,"43 Phố Quán Sứ, Hoàn Kiếm, Hà Nội",,,"https://www.google.com/maps/search/?api=1&query=21.0268963,105.8461355"
Bệnh viện Phụ sản Trung ương,public,Hoàn Kiếm,Hà Nội,"43 Phố Tràng Thi, Hoàn Kiếm, Hà Nội",,,"https://www.google.com/maps/search/?api=1&query=21.0266842,105.8469248"
Bệnh viện Răng Hàm Mặt Trung ương Hà Nội,public,Hoàn Kiếm,Hà Nội,"40B Phố Tràng Thi, Hoàn Kiếm, Hà Nội",,,"https://www.google.com/maps/search/?api=1&query=21.0277635,105.8464388"
Bệnh viện Tim Hà Nội,public,Hoàn Kiếm,Hà Nội,"92 Phố Trần Hưng Đạo, Hoàn Kiếm, Hà Nội",,http://benhvientimhanoi.vn/,"https://www.google.com/maps/search/?api=1&query=21.0240047,105.8439728"
Nhà hộ sinh A,unclassified,Hoàn Kiếm,Hà Nội,"36 Ngô Quyền, Hoàn Kiếm, Hà Nội",,,"https://www.google.com/maps/search/?api=1&query=21.024432,105.8548261"
Bệnh viện Đại học Y Hà Nội - Cơ sở Hoàng Mai,public,Hoàng Mai,Hà Nội,"Ngõ 587 Tam Trinh, Hoàng Mai, Hà Nội",+84 19006422,http://benhviendaihocyhanoi.com/,"https://www.google.com/maps/search/?api=1&query=20.9786327,105.8690445"
Phòng Khám Đa Khoa Linh Đàm,private,Hoàng Mai,Hà Nội,"M4TT6 Bắc Linh Đàm, Hoàng Mai, Hà Nội",,,"https://www.google.com/maps/search/?api=1&query=20.9703122,105.8289681"
Trung tâm Y tế phường Hoàng Mai,unclassified,Hoàng Mai,Hà Nội,"Hoàng Mai, Hà Nội",,,"https://www.google.com/maps/search/?api=1&query=20.9682141,105.8464991"
Viện Y học cổ truyền Quân đội,public,Hoàng Mai,Hà Nội,"442 Đường Kim Giang, Hoàng Mai, Hà Nội",,http://yhoccotruyenqd.vn/,"https://www.google.com/maps/search/?api=1&query=20.9727944,105.8233726"
Viện Y học phóng xạ và U bướu Quân đội,public,Hoàng Mai,Hà Nội,"18 Định Công Thượng, Hoàng Mai, Hà Nội",+84 24 3855 2353,https://ungthutuyengiap.org/,"https://www.google.com/maps/search/?api=1&query=20.980888,105.8200923"
Bệnh viện Đa khoa Đức Giang,public,Long Biên,Hà Nội,"57 Phố Trường Lâm, Long Biên, Hà Nội",,,"https://www.google.com/maps/search/?api=1&query=21.0613371,105.8982071"
Bệnh viện Đa khoa Tâm Anh,private,Long Biên,Hà Nội,"108 Phố Hoàng Như Tiếp, Long Biên, Hà Nội",,,"https://www.google.com/maps/search/?api=1&query=21.040591,105.8768692"
Bệnh viện Tâm thần Hà Nội,public,Long Biên,Hà Nội,"Ngõ 467 Nguyễn Văn Linh, Long Biên, Hà Nội",,,"https://www.google.com/maps/search/?api=1&query=21.034976,105.9095715"
Bệnh viện Đa khoa Mê Linh,public,Mê Linh,Hà Nội,"Mê Linh, Hà Nội",+84 24 3818 1970,http://www.bvdkmelinh.vn/,"https://www.google.com/maps/search/?api=1&query=21.1800717,105.6819888"
Bệnh viện Đa khoa Mỹ Đức,private,Mỹ Đức,Hà Nội,"Mỹ Đức, Hà Nội",,,"https://www.google.com/maps/search/?api=1&query=20.6782283,105.7545412"
Bệnh viện Tâm thần Mỹ Đức,private,Mỹ Đức,Hà Nội,"Mỹ Đức, Hà Nội",,,"https://www.google.com/maps/search/?api=1&query=20.8037772,105.70389"
Bệnh viện Đa khoa Hồng Ngọc - Phúc Trường Minh,private,Nam Từ Liêm,Hà Nội,"8 Đường Châu Văn Liêm, Nam Từ Liêm, Hà Nội",,https://hongngochospital.vn/,"https://www.google.com/maps/search/?api=1&query=21.009478,105.7692152"
Bệnh viện Đa khoa Quốc tế Vinmec Smart City,private,Nam Từ Liêm,Hà Nội,"Đường Tây Mỗ, Nam Từ Liêm, Hà Nội",+84 24 3208 5678,https://www.vinmec.com/,"https://www.google.com/maps/search/?api=1&query=21.0078176,105.7473049"
Bệnh viện Quốc tế Dolife,private,Nam Từ Liêm,Hà Nội,"108 Phố Nguyễn Hoàng, Nam Từ Liêm, Hà Nội",+84 1900 1984,https://dolifehospital.vn/,"https://www.google.com/maps/search/?api=1&query=21.0334322,105.7714164"
Bệnh viện Y học cổ truyền Bộ Công an,public,Nam Từ Liêm,Hà Nội,"278 Đường Lương Thế Vinh, Nam Từ Liêm, Hà Nội",,,"https://www.google.com/maps/search/?api=1&query=20.9961682,105.7892377"
Bệnh viện Đa khoa Phú Xuyên,public,Phú Xuyên,Hà Nội,"Phú Xuyên, Hà Nội",,,"https://www.google.com/maps/search/?api=1&query=20.7303975,105.9145075"
Bệnh viện Đa khoa Phúc Thọ,public,Phúc Thọ,Hà Nội,"Phúc Thọ, Hà Nội",,,"https://www.google.com/maps/search/?api=1&query=21.1039787,105.5563257"
Bệnh viện Đa khoa Xanh Pôn,public,Quận Ba Đình,Hà Nội,"12 Phố Chu Văn An, Quận Ba Đình, Hà Nội",,http://bvxanhpon.vn/,"https://www.google.com/maps/search/?api=1&query=21.0312292,105.8351549"
Bệnh viện Phổi Trung ương,public,Quận Ba Đình,Hà Nội,"463 Đường Hoàng Hoa Thám, Quận Ba Đình, Hà Nội",,https://bvptw.org/,"https://www.google.com/maps/search/?api=1&query=21.0423434,105.8134109"
Bệnh viện Quân y 354,public,Quận Ba Đình,Hà Nội,"120 Phố Đốc Ngữ, Quận Ba Đình, Hà Nội",,,"https://www.google.com/maps/search/?api=1&query=21.0400936,105.8120457"
Bệnh viện E,unclassified,Quận Bắc Từ Liêm,Hà Nội,"87-89 Đường Trần Cung, Quận Bắc Từ Liêm, Hà Nội",,,"https://www.google.com/maps/search/?api=1&query=21.0504338,105.7883827"
Trung tâm Nghiên cứu và Ứng dụng Y học cổ truyền CTA,public,Quận Bắc Từ Liêm,Hà Nội,"25 An Sinh Ngõ 208 Trần Cung, Quận Bắc Từ Liêm, Hà Nội",,,"https://www.google.com/maps/search/?api=1&query=21.0511017,105.790782"
Trạm Y tế phường Hàng Mã,unclassified,Quận Hoàn Kiếm,Hà Nội,"5 Phố Hàng Cót, Quận Hoàn Kiếm, Hà Nội",,,"https://www.google.com/maps/search/?api=1&query=21.039512,105.8472708"
Trung tâm Chăm sóc Sức khoẻ Người cao tuổi Hoa Sen - Lotus Care,unclassified,quận Nam Từ Liêm,Hà Nội,"Phố Trịnh Văn Bô, quận Nam Từ Liêm, Hà Nội",,,"https://www.google.com/maps/search/?api=1&query=21.039913,105.7472566"
Bệnh viện Đa khoa Sóc Sơn,public,Sóc Sơn,Hà Nội,"18 Đường Bệnh Viện, Sóc Sơn, Hà Nội",,,"https://www.google.com/maps/search/?api=1&query=21.2498053,105.8471409"
Bệnh viện Đa khoa Sơn Tây,public,Sơn Tây,Hà Nội,"304A Phố Lê Lợi, Sơn Tây, Hà Nội",,,"https://www.google.com/maps/search/?api=1&query=21.1522949,105.5061667"
Bệnh viện Tim Hà Nội,public,Tây Hồ,Hà Nội,"Đường Võ Chí Công, Tây Hồ, Hà Nội",,http://benhvientimhanoi.vn/,"https://www.google.com/maps/search/?api=1&query=21.0683662,105.8072261"
Bệnh viện Đa khoa Thạch Thất,public,Thạch Thất,Hà Nội,"Thạch Thất, Hà Nội",,,"https://www.google.com/maps/search/?api=1&query=21.0506449,105.5702967"
Bệnh viện Đa khoa Thanh Oai,public,Thanh Oai,Hà Nội,"Thanh Oai, Hà Nội",,,"https://www.google.com/maps/search/?api=1&query=20.8621134,105.7572768"
Bệnh viện Đa khoa Thanh Trì,public,Thanh Trì,Hà Nội,"Thanh Trì, Hà Nội",,,"https://www.google.com/maps/search/?api=1&query=20.9487155,105.8463085"
Bệnh viện K - Cơ sở Tân Triều,unclassified,Thanh Trì,Hà Nội,"30 Đường Cầu Bươu, Thanh Trì, Hà Nội",,,"https://www.google.com/maps/search/?api=1&query=20.9636109,105.7995597"
Bệnh viện K (cơ sở 2),unclassified,Thanh Trì,Hà Nội,"Thanh Trì, Hà Nội",,,"https://www.google.com/maps/search/?api=1&query=20.9546381,105.8322985"
Bệnh viện Nội tiết Trung ương,public,Thanh Trì,Hà Nội,"Đường Nguyễn Bồ, Thanh Trì, Hà Nội",,,"https://www.google.com/maps/search/?api=1&query=20.9522962,105.8510255"
Bệnh viện Đại học Y Dược,public,Thanh Xuân,Hà Nội,"Nguyễn Quý Đức, Thanh Xuân, Hà Nội",+84 24 3553 0621,,"https://www.google.com/maps/search/?api=1&query=20.993668,105.7974841"
Thu Cúc TCI Thanh Xuân,private,Thanh Xuân,Hà Nội,"136 Nguyễn Trãi, Thanh Xuân, Hà Nội",+84 936 188 584,https://benhvienthucuc.vn/,"https://www.google.com/maps/search/?api=1&query=20.9992267,105.8141044"
Trung tâm Y tế quận Thanh Xuân,unclassified,Thanh Xuân,Hà Nội,"23 Ngõ 282 Đường Khương Đình, Thanh Xuân, Hà Nội",+84 24 3858 7155,,"https://www.google.com/maps/search/?api=1&query=20.9909108,105.8123873"
Bệnh viện Đa khoa Thường Tín,public,Thường Tín,Hà Nội,"Thường Tín, Hà Nội",,,"https://www.google.com/maps/search/?api=1&query=20.8686043,105.8589233"
Bệnh viện Đa khoa Vân Đình,public,Ứng Hoà,Hà Nội,"Ứng Hoà, Hà Nội",,,"https://www.google.com/maps/search/?api=1&query=20.7255562,105.7739582"
Trung tâm tiêm ᴄhủng Fivevac,public,"Km 13 Đ. Ngọc Hồi, Ngọc Hồi, Thanh Trì, Hà Nội 100000, Vietnam",Hanoi,"Km 13 Đường Ngọc Hồi, Km 13 Đ. Ngọc Hồi, Ngọc Hồi, Thanh Trì, Hà Nội 100000, Vietnam, Hanoi",,,"https://www.google.com/maps/search/?api=1&query=20.9301069,105.8481456"
Paris Miki Vietnam,unclassified,Quận Ba Đình,Hanoi,"32 Phố Đức Chính, Quận Ba Đình, Hanoi",,https://www.paris-miki.vn/,"https://www.google.com/maps/search/?api=1&query=21.0492003,105.8400348"
Phóng khám ACC Quận 5,unclassified,Quận 5,Hồ Chí Minh,"133 Nguyen Trai, 5, ho chi minh city",,,"https://www.google.com/maps/search/?api=1&query=10.759465,106.6834753"
Bệnh viện Nhi đồng 2,public,Quận 1,Hồ Chí Minh,"14 Lý Tự Trọng, 1, Ho Chi Minh City",+84 28 3829 5723,http://www.benhviennhi.org.vn,"https://www.google.com/maps/search/?api=1&query=10.7814535,106.7028174"
Bệnh viện Nhân dân 115,public,Quận 10,Hồ Chí Minh,"527 Sư Vạn Hạnh, 10, Ho Chi Minh City",,,"https://www.google.com/maps/search/?api=1&query=10.7745844,106.6665349"
Bệnh viện Quận 10,public,Quận 10,Hồ Chí Minh,"571 Sư Vạn Hạnh, 10, Ho Chi Minh City",,,"https://www.google.com/maps/search/?api=1&query=10.7760365,106.6664866"
Viện Tim Thành phố Hồ Chí Minh,public,Quận 10,Hồ Chí Minh,"86/4 Thành Thái, 10, Ho Chi Minh City",,,"https://www.google.com/maps/search/?api=1&query=10.7732058,106.666965"
Bệnh viện Đa khoa Lãnh Binh Thăng,public,Quận 11,Hồ Chí Minh,"72 Đường Số 5, 11, Ho Chi Minh City",,,"https://www.google.com/maps/search/?api=1&query=10.7606826,106.6479151"
Bệnh viện An Bình,unclassified,Quận 5,Hồ Chí Minh,"146 Đường An Bình, 5, Ho Chi Minh City",,,"https://www.google.com/maps/search/?api=1&query=10.7541327,106.6722008"
Bệnh viện Bệnh Nhiệt đới,public,Quận 5,Hồ Chí Minh,"764 Võ Văn Kiệt, 5, Ho Chi Minh City",,https://www.bvbnd.vn/,"https://www.google.com/maps/search/?api=1&query=10.7531975,106.6783574"
Bệnh viện Chấn thương Chỉnh hình,public,Quận 5,Hồ Chí Minh,"929 Đường Trần Hưng Ðạo, 5, Ho Chi Minh City",+84 8 3923 7007,www.bvctch.vn,"https://www.google.com/maps/search/?api=1&query=10.7541795,106.6779595"
Bệnh viện Nguyễn Trãi,unclassified,Quận 5,Hồ Chí Minh,"314 Đường Nguyễn Trãi, 5, Ho Chi Minh City",,,"https://www.google.com/maps/search/?api=1&query=10.7568408,106.6750363"
Bệnh viện Răng Hàm Mặt Trung ương Thành phố Hồ Chí Minh,public,Quận 5,Hồ Chí Minh,"201A Đường Nguyễn Chí Thanh, 5, Ho Chi Minh City",,,"https://www.google.com/maps/search/?api=1&query=10.7578104,106.6606503"
Phòng Khám Đa Khoa Thế Giới,private,Quận 5,Hồ Chí Minh,"648 Võ Văn Kiệt, 5, Ho Chi Minh City",,,"https://www.google.com/maps/search/?api=1&query=10.7519331,106.6843795"
Bệnh viện Thống Nhất,public,Quận 7,Hồ Chí Minh,"1 Lý Thường Kiệt, 7, Ho Chi Minh City",+84 28 3869 0277,https://bvtn.org.vn/,"https://www.google.com/maps/search/?api=1&query=10.7910792,106.6535424"
Trạm y tế phường 9 quận 8,unclassified,Quận 8,Hồ Chí Minh,"8, Ho Chi Minh City",,,"https://www.google.com/maps/search/?api=1&query=10.745995,106.6701652"
Bệnh Viện Đa Khoa Quốc Tế Nam Sài Gòn,private,Bình Chánh,Hồ Chí Minh,"88 Đường Số 8, Bình Chánh, Ho Chi Minh City",+84 1800 6767,https://benhviennamsaigon.com.vn/,"https://www.google.com/maps/search/?api=1&query=10.7361021,106.6908392"
Phòng khám đa khoa quốc tế Nhân Hậu,private,Phường Diên Hồng,Hồ Chí Minh,"522-524-526 Đường Nguyễn Chí Thanh, Phường Diên Hồng, Ho Chi Minh City",+842862642960,https://nhanhauclinic.com.vn/,"https://www.google.com/maps/search/?api=1&query=10.7585783,106.6617832"
Wedo Skin Clinic Quan 1,private,Quận 1,Hồ Chí Minh,"11 Trần Doãn Khanh, Quận 1, Ho Chi Minh City",+84 08 988 988 75,https://wedoskinclinic.com/,"https://www.google.com/maps/search/?api=1&query=10.7888402,106.6974043"
Bệnh viện Trưng Vương,unclassified,Quận 10,Hồ Chí Minh,"266 Lý Thường Kiệt, Quận 10, Ho Chi Minh City",,,"https://www.google.com/maps/search/?api=1&query=10.7708709,106.6595573"
Viện thấm mỹ Bác sĩ Minh,private,Quận 5,Hồ Chí Minh,"126 Lê Hồng Phong, Quận 5, Ho Chi Minh City",,https://thammyvienbacsiminh.vn/,"https://www.google.com/maps/search/?api=1&query=10.7575935,106.6782304"
Bệnh Viện Đa Khoa Quang Khởi,public,Phường Quỳnh Thiện,Hoàng Mai,"Phường Quỳnh Thiện, Hoàng Mai",+842383666666,http://quangkhoi.org,"https://www.google.com/maps/search/?api=1&query=19.247909,105.707136"
Miami Baptist Hospital,public,,"Homestead, FL","975 Baptist Way , Homestead, FL",,,"https://www.google.com/maps/search/?api=1&query=10.1777101,105.5485436"
Bệnh viện Lê Văn Thịnh,unclassified,Quận 2,Hồ Chí Minh,"130 Lê Văn Thịnh, 2, Hồ Chí Minh",,,"https://www.google.com/maps/search/?api=1&query=10.7822228,106.7685006"
Bệnh viện Nhi đồng Thành phố,public,Bình Chánh,Hồ Chí Minh,"15 Đường Võ Trần Chí, Bình Chánh, Hồ Chí Minh",,,"https://www.google.com/maps/search/?api=1&query=10.7101346,106.5746124"
Bệnh viện Triều An,private,Bình Tân,Hồ Chí Minh,"425 Đường Kinh Dương Vương, Bình Tân, Hồ Chí Minh",,,"https://www.google.com/maps/search/?api=1&query=10.7391983,106.6171202"
Bệnh viện Nhân dân Gia Định,public,Bình Thạnh,Hồ Chí Minh,"Phan Đăng Lưu, Bình Thạnh, Hồ Chí Minh",,,"https://www.google.com/maps/search/?api=1&query=10.8039083,106.6941137"
Bệnh Viện Quốc Tế Columbia Asia,private,Bình Thạnh,Hồ Chí Minh,"1 Đường Nơ Trang Long, Bình Thạnh, Hồ Chí Minh",,,"https://www.google.com/maps/search/?api=1&query=10.8032232,106.6945681"
Bệnh viện Ung bướu,public,Bình Thạnh,Hồ Chí Minh,"3 Đường Nơ Trang Long, Bình Thạnh, Hồ Chí Minh",,,"https://www.google.com/maps/search/?api=1&query=10.8049698,106.6942613"
Bệnh viện An Sinh,private,Phú Nhuận,Hồ Chí Minh,"10 Trần Huy Liệu, Phú Nhuận, Hồ Chí Minh",028 3845 7777,http://www.anhsinh.com.vn,"https://www.google.com/maps/search/?api=1&query=10.7913163,106.6785309"
Viện Y Dược học Dân tộc,public,Phú Nhuận,Hồ Chí Minh,"273 Nguyễn Văn Trỗi, Phú Nhuận, Hồ Chí Minh",,,"https://www.google.com/maps/search/?api=1&query=10.797087,106.6712263"
Nha Khoa SingDent,unclassified,Quận 7,Hồ Chí Minh,"1 Đường Nguyễn Thị Thập, Quận 7, Hồ Chí Minh",,,"https://www.google.com/maps/search/?api=1&query=10.7404252,106.6998107"
Phòng khám bác sĩ Hồ Cao Vũ,private,Quận 7,Hồ Chí Minh,"Số 2 Đường Nội Khu Mỹ Toàn 2, Quận 7, Hồ Chí Minh",,,"https://www.google.com/maps/search/?api=1&query=10.7278806,106.708011"
Phòng Khám Dr Vein,private,Quận 7,Hồ Chí Minh,"Số 2 Nội Khu Mỹ Toàn 2, Quận 7, Hồ Chí Minh",,,"https://www.google.com/maps/search/?api=1&query=10.7278961,106.7080164"
Bệnh viện Ung bướu cơ sở 2,public,Quận 9,Hồ Chí Minh,"Đường Số 400, Quận 9, Hồ Chí Minh",,,"https://www.google.com/maps/search/?api=1&query=10.8702234,106.8093249"
Yoga trị liệu l Ci Yoga Therapy CN Celadon,unclassified,Tân Sơn Nhì,Hồ Chí Minh,"C3 Đường N2, Tân Sơn Nhì, Hồ Chí Minh",0336583639,https://yogatherapy.vn,"https://www.google.com/maps/search/?api=1&query=10.8054227,106.6151358"
Bệnh viện Quốc tế Trung ương Huế,private,Vĩnh Ninh,Huế,"16 Lê Lợi, Vĩnh Ninh, Huế",+84 234 382 2325,https://bvtwhue.com.vn/,"https://www.google.com/maps/search/?api=1&query=16.4607254,107.5863483"
Bệnh viện Trung ương Huế,public,Vĩnh Ninh,Huế,"16 Lê Lợi, Vĩnh Ninh, Huế",,,"https://www.google.com/maps/search/?api=1&query=16.4621953,107.5871045"
Phòng Khám Bác Sĩ Gia Đình,private,Vĩnh Ninh,Huế,"51 Nguyễn Huệ, Vĩnh Ninh, Huế",+84 855 116 655,https://clinic.huefmc.com/,"https://www.google.com/maps/search/?api=1&query=16.4582724,107.5882713"
Bệnh viện Phổi Hưng Yên,public,,Hưng Yên,"Đường Phạm Bạch Hổ, Hưng Yên",,,"https://www.google.com/maps/search/?api=1&query=20.6680499,106.0511029"
Bệnh viện Sức khỏe tâm thần kinh tỉnh Hưng Yên,public,,Hưng Yên,Hưng Yên,,,"https://www.google.com/maps/search/?api=1&query=20.7373988,106.0343119"
Bệnh viện Y dược cổ truyền Hưng Yên,public,,Hưng Yên,"Đường Hải Thượng Lãn Ông, Hưng Yên",,,"https://www.google.com/maps/search/?api=1&query=20.6656155,106.0628231"
Trung tâm Y tế Kim Động,unclassified,,Hưng Yên,Hưng Yên,,,"https://www.google.com/maps/search/?api=1&query=20.7332711,106.055344"
Bệnh viện Đa khoa tỉnh Hưng Yên,public,An Tảo,Hưng Yên,"An Tảo, Hưng Yên",,,"https://www.google.com/maps/search/?api=1&query=20.6662171,106.0600327"
Bệnh viện Mắt Hưng Yên,public,Hiến Nam,Hưng Yên,"66 Đường An Vũ, Hiến Nam, Hưng Yên",,,"https://www.google.com/maps/search/?api=1&query=20.6617027,106.0604761"
Bệnh xá Công an tỉnh Hưng Yên,public,Hiến Nam,Hưng Yên,"1 Phố Nguyễn Chí Thanh, Hiến Nam, Hưng Yên",,,"https://www.google.com/maps/search/?api=1&query=20.6644645,106.0541733"
Bệnh viện Sản - Nhi tỉnh Hưng Yên,public,Kim Động,Hưng Yên,"Kim Động, Hưng Yên",,,"https://www.google.com/maps/search/?api=1&query=20.7248661,106.0560013"
Bệnh viện Bệnh Nhiệt đới tỉnh Hưng Yên,public,Lam Sơn,Hưng Yên,"Lam Sơn, Hưng Yên",,,"https://www.google.com/maps/search/?api=1&query=20.6690384,106.0512991"
Bệnh viện Đa khoa Phố Nối,public,Mỹ Hào,Hưng Yên,"Mỹ Hào, Hưng Yên",,,"https://www.google.com/maps/search/?api=1&query=20.9406703,106.0566551"
Bệnh viện KUSUMI,private,Văn Giang,Hưng Yên,"ST-01 , Văn Giang, Hưng Yên",+84 1900 86 86 90,https://kusumihospital.vn/,"https://www.google.com/maps/search/?api=1&query=20.9635258,105.9326261"
Trung tâm y tế Quân dân y Đặc khu Phú Quý,unclassified,Đặc khu Phú Quý,Lâm Đồng,"Võ Văn Kiệt, Đặc khu Phú Quý, Lâm Đồng",,,"https://www.google.com/maps/search/?api=1&query=10.520485,108.9331692"
Trung tâm Y tế khu vực Bảo Lâm,unclassified,Xã Bảo Lâm 1,Lâm Đồng,"213 Đường Hùng Vương, Xã Bảo Lâm 1, Lâm Đồng",,,"https://www.google.com/maps/search/?api=1&query=11.6192098,107.8393586"
Bệnh viện Cần Đước,unclassified,Cần Đước,Long An,"Quốc lộ 50, Cần Đước, Long An",,,"https://www.google.com/maps/search/?api=1&query=10.5145217,106.6042986"
Trạm y tế xã Phước Đông,unclassified,Cần Đước,Long An,"Quốc lộ 50, Cần Đước, Long An",,,"https://www.google.com/maps/search/?api=1&query=10.4886683,106.6222104"
Trạm Y Tế Xã Tân Ân,unclassified,Cần Đước,Long An,"Cần Đước, Long An",,,"https://www.google.com/maps/search/?api=1&query=10.4953379,106.5962387"
Trạm Y Tế Xã Bình Trinh Đông,unclassified,Tân Trụ,Long An,"Tân Trụ, Long An",,,"https://www.google.com/maps/search/?api=1&query=10.5393794,106.5156639"
Bệnh viện Đa khoa khu vực Long Khánh,public,,Long Khánh,Long Khánh,,,"https://www.google.com/maps/search/?api=1&query=10.9406681,107.215243"
Bệnh viện Đa khoa An Giang,public,,Long Xuyên,"Ung Văn Khiêm, Long Xuyên",,,"https://www.google.com/maps/search/?api=1&query=10.3695918,105.4359621"
Bệnh viện Quân y 120,public,,mỹ tho,"Nguyễn Thị Thập, mỹ tho",,,"https://www.google.com/maps/search/?api=1&query=10.355113,106.3382192"
Bệnh viện Phụ sản Tiền Giang,public,,Mỹ Tho,"Hùng Vương, Mỹ Tho",,,"https://www.google.com/maps/search/?api=1&query=10.3568212,106.3647127"
BV Anh Đức,unclassified,,Mỹ Tho,"Thủ Khoa Huân, Mỹ Tho",,,"https://www.google.com/maps/search/?api=1&query=10.3557023,106.3660553"
Bệnh viện đa khoa Yersin Nha Trang,public,Vĩnh Thái,Nha Trang,"Đường số 20, Vĩnh Thái, Nha Trang",,,"https://www.google.com/maps/search/?api=1&query=12.2382514,109.1650726"
Bệnh viện Đa khoa Hà Nam,public,,Ninh Bình,Ninh Bình,,,"https://www.google.com/maps/search/?api=1&query=20.5407578,105.9164051"
Bệnh viện đa khoa Yên Bình,public,Phổ Yên,Phổ Yên,"Trần Nguyên Hãn, Phổ Yên, Phổ Yên",,,"https://www.google.com/maps/search/?api=1&query=21.4050891,105.8743812"
Trung tâm Y tế huyện Đồng Xuân,unclassified,Đồng Xuân,Phú Yên,"Trần Phú, Đồng Xuân, Phú Yên",,,"https://www.google.com/maps/search/?api=1&query=13.3762074,109.1039516"
Bệnh viện Đa khoa Sông Cầu,public,Sông Cầu,Phú Yên,"Đường Phạm Văn Đồng, Sông Cầu, Phú Yên",,,"https://www.google.com/maps/search/?api=1&query=13.4619108,109.2236587"
Trạm Y Tế Xã Sơn Hà,unclassified,Sơn Hòa,Phú Yên,"Quốc lộ 25, Sơn Hòa, Phú Yên",,,"https://www.google.com/maps/search/?api=1&query=13.0629972,109.0301221"
Bệnh viện Đa khoa khu vực Tuy An,public,Tuy An,Phú Yên,"Tuy An, Phú Yên",,,"https://www.google.com/maps/search/?api=1&query=13.3147163,109.2191318"
Trung Tâm Y Tế Dự Phòng,unclassified,Tuy An,Phú Yên,"Quốc lộ 1, Tuy An, Phú Yên",+84 2573865230,,"https://www.google.com/maps/search/?api=1&query=13.3133145,109.2162816"
Wedo Skin Clinic,private,Thành phố Thủ Đức,Phường An Phú,"17 Thái Thuận, Thành phố Thủ Đức, Phường An Phú",+84 07 07 19 66 22,https://wedoskinclinic.com/,"https://www.google.com/maps/search/?api=1&query=10.7982784,106.7384179"
Trạm Y Tế phường Bình Hưng Hòa,unclassified,Bình Tân,Phường Bình Hưng Hòa,"716 Tân Kỳ Tân Quý, Bình Tân, Phường Bình Hưng Hòa",,,"https://www.google.com/maps/search/?api=1&query=10.7916713,106.6047985"
Phòng Khám Đa Khoa Medlatec,private,,Phường Bưởi,"99 Phố Trích Sài, Phường Bưởi",,,"https://www.google.com/maps/search/?api=1&query=21.0472605,105.8140405"
Phòng khám đa khoa YHCT Thiên Phúc Đường,private,Quan Thu Duc,Phường Linh Chiểu,"148D Hoàng Diệu 2, Quan Thu Duc, Phường Linh Chiểu",,,"https://www.google.com/maps/search/?api=1&query=10.8558331,106.7665022"
Bệnh viện Phục hồi chức năng - Điều trị bệnh nghề nghiệp,public,Quận 8,Phường Rạch Ông,"313 Âu Dương Lân, Quận 8, Phường Rạch Ông",,,"https://www.google.com/maps/search/?api=1&query=10.7414789,106.6863883"
Bệnh viện Hữu nghị Quốc tế Hà Nội,private,Quận Nam Từ Liêm,Phường Tây Mỗ,"68 Tây Mỗ, phường Tây Mỗ, quận Nam Từ Liêm, Hà Nội, Quận Nam Từ Liêm, Phường Tây Mỗ",,,"https://www.google.com/maps/search/?api=1&query=21.0040429,105.7496348"
Bệnh viện Đa khoa Trung ương Quảng Nam,public,Núi Thành,Quảng Nam,"Núi Thành, Quảng Nam",,,"https://www.google.com/maps/search/?api=1&query=15.4469099,108.6252026"
Bệnh viện Đa khoa khu vực Đông Triều,public,,Quảng Ninh,"Đường Nguyễn Bình, Quảng Ninh",,,"https://www.google.com/maps/search/?api=1&query=21.0768857,106.5223352"
bệnh viên,unclassified,,Quảng trị,"Hoành Vinh, Quảng trị",,,"https://www.google.com/maps/search/?api=1&query=17.302455,106.6619309"
Bệnh viện Điều dưỡng Phục hồi chức năng Trung ương,public,Trường Sơn,Sầm Sơn,"14 Đường Nguyễn Du, Trường Sơn, Sầm Sơn",,,"https://www.google.com/maps/search/?api=1&query=19.732105,105.8977701"
Bệnh viện C Thái Nguyên,unclassified,Sông Công,Sông Công,"Sông Công, Sông Công",,,"https://www.google.com/maps/search/?api=1&query=21.4463892,105.8616689"
Bệnh viện Phụ sản - Nhi Quảng Nam,public,,Tam Kỳ,"46 Lý Thường Kiệt, Tam Kỳ",,,"https://www.google.com/maps/search/?api=1&query=15.5712473,108.4651318"
Bệnh viện Đa khoa Long An,public,,Tân An,Tân An,,,"https://www.google.com/maps/search/?api=1&query=10.5325994,106.4263208"
Bệnh viện đa khoa Hồng Hưng,public,Hòa Thành,Tây Ninh,"187 Phạm Văn Đồng, Hòa Thành, Tây Ninh",,,"https://www.google.com/maps/search/?api=1&query=11.2908098,106.1195624"
Bệnh viện Đa khoa Trung ương Thái Nguyên,public,,Thái Nguyên,"479 Đường Lương Ngọc Quyến, Thái Nguyên",,,"https://www.google.com/maps/search/?api=1&query=21.5880078,105.8310818"
Trung tâm Y tế huyện Đồng Hỷ,unclassified,Huyện Đồng Hỷ,Thái Nguyên,"Huyện Đồng Hỷ, Thái Nguyên",,,"https://www.google.com/maps/search/?api=1&query=21.6310427,105.8443424"
Trạm Y Tế Xã An Hòa,unclassified,An Hòa,Đồng Nai,"Đường Ngô Quyền, An Hòa, Thành phố Biên Hòa",,,"https://www.google.com/maps/search/?api=1&query=10.8888316,106.8616285"
Bệnh viện Đa khoa tỉnh Đồng Nai,public,Phường Bình Đa,Đồng Nai,"1 Đường Đồng Khởi, Phường Bình Đa, Thành phố Biên Hòa",0251 8825 609,https://benhviendakhoadongnai.com/,"https://www.google.com/maps/search/?api=1&query=10.952243,106.8675228"
BlueSAO VIỆT NAM,unclassified,Phường Bửu Long,Đồng Nai,"D05 , Phường Bửu Long, Thành phố Biên Hòa",,,"https://www.google.com/maps/search/?api=1&query=10.9585849,106.8010104"
Bệnh viện Mắt Hà Nội - Đồng Nai,public,Phường Tam Hiệp,Đồng Nai,"418 Đường Phạm Văn Thuận, Phường Tam Hiệp, Thành phố Biên Hòa",,,"https://www.google.com/maps/search/?api=1&query=10.9436687,106.8590203"
VNVC tỉnh Đồng Nai,unclassified,Phường Tam Hiệp,Đồng Nai,"22 Đường Đoàn Văn Cự, Phường Tam Hiệp, Thành phố Biên Hòa",,,"https://www.google.com/maps/search/?api=1&query=10.9468657,106.8579378"
Bệnh viện Quân y 7B,public,Phường Tân Mai,Đồng Nai,"1137 Đường Nguyễn Ái Quốc, Phường Tân Mai, Thành phố Biên Hòa",,,"https://www.google.com/maps/search/?api=1&query=10.9655508,106.8528534"
Bệnh viện Tâm thần Trung ương 2,public,Phường Tân Phong,Đồng Nai,"1310 Đường Nguyễn Ái Quốc, Phường Tân Phong, Thành phố Biên Hòa",,,"https://www.google.com/maps/search/?api=1&query=10.9669953,106.8455307"
Bệnh viện Da liễu tỉnh Đồng Nai,public,Phường Trảng Dài,Đồng Nai,"1490 Đường Đồng Khởi, Phường Trảng Dài, Thành phố Biên Hòa",,,"https://www.google.com/maps/search/?api=1&query=11.0003405,106.8532809"
Thẩm mỹ viện Hoàn Mỹ Cần Thơ,private,quận Ninh Kiều,Cần Thơ,"19 Hùng Vương, quận Ninh Kiều, Thành phố Cần Thơ",,,"https://www.google.com/maps/search/?api=1&query=9.9778596,105.8144205"
Bệnh viện Đa khoa Quốc Tế S.I.S Cần Thơ,private,Quận Ninh Kiều,Cần Thơ,"397 Nguyễn Văn Cừ, Quận Ninh Kiều, Thành phố Cần Thơ",+84 2923 789 911,https://sisvietnam.vn/,"https://www.google.com/maps/search/?api=1&query=10.0154705,105.7387431"
Trạm y tế phường Tây Mỗ (Cơ sở 1),unclassified,phường Tây Mỗ,Hà Nội,"371 Đường Đại Mỗ, phường Tây Mỗ, thành phố Hà Nội",,,"https://www.google.com/maps/search/?api=1&query=20.9954672,105.7560256"
Bệnh viện Mắt Quốc tế Việt - Nga Hà Nội,private,,Hà Nội,"9 Phố Nguyễn Đỗ Cung, Thành phố Hà Nội",,,"https://www.google.com/maps/search/?api=1&query=21.0389593,105.7936087"
Trạm y tế phường Tây Mỗ (Cơ sở 2),unclassified,Phường Tây Mỗ,Hà Nội,"11 Ngõ 27 Đường Tây Mỗ, Phường Tây Mỗ, Thành phố Hà Nội",,,"https://www.google.com/maps/search/?api=1&query=21.0018973,105.7512096"
Trạm Y tế phường Dịch Vọng,unclassified,Quận Cầu Giấy,Hà Nội,"Phố Dịch Vọng, Quận Cầu Giấy, Thành phố Hà Nội",,,"https://www.google.com/maps/search/?api=1&query=21.0332587,105.793479"
Bệnh viện Bỏng Quốc gia Lê Hữu Trác,unclassified,Quận Hà Đông,Hà Nội,"Đường Phùng Hưng, Quận Hà Đông, Thành phố Hà Nội",,,"https://www.google.com/maps/search/?api=1&query=20.9667279,105.7924112"
Bệnh viện Phụ sản Hà Nội (cơ sở 3),public,Quận Hà Đông,Hà Nội,"10 Đường Quang Trung, Quận Hà Đông, Thành phố Hà Nội",,,"https://www.google.com/maps/search/?api=1&query=20.9721687,105.7765643"
Bệnh viện Quân y 103,public,Quận Hà Đông,Hà Nội,"Đường Phùng Hưng, Quận Hà Đông, Thành phố Hà Nội",,,"https://www.google.com/maps/search/?api=1&query=20.9676247,105.7900215"
Phòng Khám Đa Khoa Bảo An,private,Thị Xã Kinh Môn,Thành Phố Hải Dương,"Hiệp Thạch-Hiệp Sơn , Thị Xã Kinh Môn, Thành Phố Hải Dương",,,"https://www.google.com/maps/search/?api=1&query=21.0006572,106.5390806"
188 Beauty Spa quận 12 | Viện thẩm mỹ hàng đầu tpHCM,private,quận 12,Hồ Chí Minh,"15 Dương Thị Mười, quận 12, thành phố Hồ Chí Minh",,,"https://www.google.com/maps/search/?api=1&query=10.8763131,106.6406947"
Bệnh Viện Thẩm Mỹ Siam Thailand,private,,Hồ Chí Minh,"369B Nguyễn Trãi, Thành phố Hồ Chí Minh",+84942225222,https://benhvienthammysiamthailand.vn/,"https://www.google.com/maps/search/?api=1&query=10.7605922,106.6855655"
Bệnh Viện Mắt Việt-Nga,public,Quận 10,Hồ Chí Minh,"Đường 3 Tháng 2, Quận 10, Thành phố Hồ Chí Minh",,,"https://www.google.com/maps/search/?api=1&query=10.7769291,106.6811338"
Bệnh viện Nhi đồng 1,public,Quận 10,Hồ Chí Minh,"532 Đường Lý Thái Tổ, Quận 10, Thành phố Hồ Chí Minh",,,"https://www.google.com/maps/search/?api=1&query=10.7688069,106.6699394"
Bệnh viện 30 Tháng 4,public,Quận 5,Hồ Chí Minh,"9 Yết Kiêu, Quận 5, Thành phố Hồ Chí Minh",,,"https://www.google.com/maps/search/?api=1&query=10.7590776,106.6730558"
Bệnh viện Chợ Rẫy,public,Quận 5,Hồ Chí Minh,"201B Đường Nguyễn Chí Thanh, Quận 5, Thành phố Hồ Chí Minh",,,"https://www.google.com/maps/search/?api=1&query=10.75695,106.6597328"
Bệnh viện Pháp Việt,unclassified,Quận 7,Hồ Chí Minh,"6 Nguyễn Lương Bằng, Quận 7, Thành phố Hồ Chí Minh",+84 28 5411 3333,https://www.fvhospital.com/,"https://www.google.com/maps/search/?api=1&query=10.7323638,106.7179388"
Bệnh viện Phương Nam,unclassified,Quận 7,Hồ Chí Minh,"2 Nguyễn Lương Bằng, Quận 7, Thành phố Hồ Chí Minh",+84 91 169 33 99,https://gih.com.vn/,"https://www.google.com/maps/search/?api=1&query=10.7344138,106.7177492"
Bệnh viện Quốc tế Mỹ AIH,private,Thành phố Thủ Đức,Hồ Chí Minh,"199 Nguyễn Hoàng, Thành phố Thủ Đức, Thành phố Hồ Chí Minh",,,"https://www.google.com/maps/search/?api=1&query=10.79377,106.7468051"
Bệnh viện huyễn Cần Giuộc,public,Cần Giuộc,Thị trấn Cần Giuộc,"Cần Giuộc, Thị trấn Cần Giuộc",,,"https://www.google.com/maps/search/?api=1&query=10.6009661,106.6736887"
Trung tâm Y tế huyện Tam Nông,unclassified,Tam Nông,Thị trấn Tràm Chim,"Tam Nông, Thị trấn Tràm Chim",,,"https://www.google.com/maps/search/?api=1&query=10.6771798,105.5630221"
"Nấm Lim Xanh, Sâm Ngọc Linh",unclassified,Tiên Phước,Tiên Phước,"61 Tôn Dức Thắng, Tiên Phước, Tiên Phước",,https://www.facebook.com/namlimduoclieu/,"https://www.google.com/maps/search/?api=1&query=15.4856805,108.311425"
Trạm y tế xã Tân Bình,unclassified,Huyện Vĩnh Cửu,Tỉnh Đồng Nai,"Đường tỉnh 768, Huyện Vĩnh Cửu, Tỉnh Đồng Nai",,,"https://www.google.com/maps/search/?api=1&query=10.9992892,106.8078974"
Bệnh viện Quân y 175,public,Quận Gò Vấp,Hồ Chí Minh,"786 Nguyễn Kiệm, Quận Gò Vấp, Tp. Hồ Chí Minh",,http://www.benhvien175.vn/,"https://www.google.com/maps/search/?api=1&query=10.8184252,106.6808112"
Trung tâm Y tế huyện Cầu Kè,unclassified,Cầu Kè,Trà Vinh,"30 Tháng 4, Cầu Kè, Trà Vinh",+84 294 3834 019,,"https://www.google.com/maps/search/?api=1&query=9.8689503,106.0540582"
Bệnh viện Đa khoa khu vực Tiểu Cần,public,Tiểu Cần,Trà Vinh,"Quốc lộ 60, Tiểu Cần, Trà Vinh",,,"https://www.google.com/maps/search/?api=1&query=9.8093499,106.1857095"
Bác sĩ Nhiên,private,Trà Cú,Trà Vinh,"Quốc lộ 54, Trà Cú, Trà Vinh",0979490799,,"https://www.google.com/maps/search/?api=1&query=9.7383025,106.2613698"
Trạm YT xã TS,unclassified,Trà Cú,Trà Vinh,"Quốc lộ 54, Trà Cú, Trà Vinh",083423800,,"https://www.google.com/maps/search/?api=1&query=9.7392039,106.2598543"
Bệnh viện Hữu nghị Đa khoa tỉnh Nghệ An,public,Nghi Phú,Vinh,"Đại lộ Lê Nin, Nghi Phú, Vinh",,,"https://www.google.com/maps/search/?api=1&query=18.7079024,105.6777478"
Bệnh viện Tâm thần Nghệ An,public,Nghi Phú,Vinh,"Hồ Tông Thốc, Nghi Phú, Vinh",,,"https://www.google.com/maps/search/?api=1&query=18.7077763,105.6759079"
Bệnh viện Đa khoa Vĩnh Long,public,,Vĩnh Long,"301 Đường Trần Phú, Vĩnh Long",,,"https://www.google.com/maps/search/?api=1&query=10.2318033,105.9889527"
Bệnh viện Tâm thần - Cơ sở Lê Minh Xuân,public,Bình Chánh,Xã Lê Minh Xuân,"F4/12 , Bình Chánh, Xã Lê Minh Xuân",,,"https://www.google.com/maps/search/?api=1&query=10.7693286,106.5458486"